NHD_new,VALUE_11,VALUE_21,VALUE_22,VALUE_23,VALUE_24,VALUE_31,VALUE_41,VALUE_42,VALUE_43,VALUE_52,VALUE_71,VALUE_81,VALUE_82,VALUE_90,VALUE_95,SUM,LDI_streams_no_water,LDI_streams,LkAcres,Perimeter,BASIN_NAME,M_BASIN_ID,M_BAS_NAME,PWL_ID,NAME,BASIN,Ws_Acres,LAKE_ID,Location_I,Long,Lat,Region,County,Type,LocType
W04120104001125,12600,1800,900,0,0,213300,2700,0,0,900,0,19800,0,16200,900,269100,7.366491228,7.068398365,27.6895,2615.52006,Tonawanda Creek,1,Lake Erie-Niagara River Basin, , , ,613.0740356,,,0,0,0,,,
W04120104001120,12600,1800,900,0,0,200700,2700,0,0,0,0,17100,0,16200,900,252900,7.377265918,7.059541321,12.0061,1180.976674,Tonawanda Creek,1,Lake Erie-Niagara River Basin, , , ,131.1721191,0102UWB5079,0102UWB5079_C,-78.5863037,42.9690018,9,Erie,Lake,Centroid
W04140101002569,29700,18000,41400,58500,13500,0,0,0,0,0,0,20700,0,11700,900,194400,6.634371585,5.773569959,9.473571109,924.4831607,Lake Ontario Central Section,3,Lake Ontario & Minor Tribs., , , ,204.0125885,0302UWB5253,0302UWB5253_C,-77.6071014,43.103199,8,Monroe,Lake,Centroid
W04140101000935,29700,37800,54000,40500,18000,900,10800,0,1800,0,0,39600,0,38700,0,271800,5.564572491,5.065798381,14.8479,1566.067994,Lake Ontario Central Section,3,Lake Ontario & Minor Tribs., , , ,235.8264618,,,0,0,0,,,
W04120103001009,21600,0,0,1800,2700,33300,1800,0,0,0,0,0,0,0,9000,70200,6.725925926,4.964116809,6.896932322,735.761223,Buffalo River,1,Lake Erie-Niagara River Basin, , , ,53.4530106,0103UWB5113,0103UWB5113_C,-78.6259995,42.9164009,9,Erie,Lake,Centroid
W04120101000807,27900,45000,137700,135900,94500,17100,57600,0,222300,0,0,18000,291600,13500,2700,1063800,4.909556907,4.807022937,21.6143,1288.988716,Lake Erie West End (Silver Creek to Pa. Line),1,Lake Erie-Niagara River Basin, , , ,1639.718262,0105UWB5737,0105UWB5737_C,-79.3220978,42.4637985,9,Chautauqua,Lake,Centroid
W02020004003026,27000,28800,24300,13500,7200,0,0,6300,15300,0,0,1800,0,6300,0,130500,5.654086957,4.691180077,7.334102866,791.5879634,Mohawk River Main Stem,12,Mohawk River Basin,1201-0101,Iroquios Lake,Mohawk River,373.8668823,1201UWB0525,1201UWB0525_C,-73.9123001,42.7999992,4,Schenectady,Lake,Centroid
W04130001001397,900,270900,153900,21600,0,0,72900,0,9000,0,2700,44100,9000,51300,189000,825300,4.517882096,4.514047013,14.1179,1631.778801,Lake Ontario Western Section,3,Lake Ontario & Minor Tribs., , , ,677.7096558,0301UWB0153D,0301UWB0153D_C,-77.6904984,43.2798996,8,Monroe,Lake,Centroid
W02020004003033,81000,363600,402300,295200,73800,95400,152100,19800,524700,8100,9000,207000,9900,216900,53100,2511900,4.554590892,4.439968152,13.4472,1255.189152,Mohawk River Main Stem,12,Mohawk River Basin, , , ,2909.009766,1201UWB5549,1201UWB5549_C,-73.6975021,42.7559013,4,Albany,Lake,Centroid
W04130001001235,384300,3391200,2528100,761400,140400,25200,1600200,6300,935100,27000,36900,727200,234900,1797300,744300,13339800,4.52954776,4.42786676,68.2561,6602.527808,Lake Ontario Western Section,3,Lake Ontario & Minor Tribs.,0301-0018,Round Pond,Lake Ontario,13949.39063,0300ONT0000,0300ONT0000_DH,-77.646016,43.27434,0, ,Lake,Deep Hole
W02020004002995,67500,810900,304200,46800,18000,1800,32400,38700,142200,900,2700,40500,1800,631800,21600,2161800,4.516566394,4.406765658,13.475,1123.666187,Mohawk River Main Stem,12,Mohawk River Basin, , , ,2730.195313,1201UWB0503,1201UWB0503_DH,-73.8094799,42.843475,5,Saratoga,Lake,Deep Hole
W04130001001298,35100,37800,24300,900,0,0,67500,0,9900,0,0,22500,1009800,0,0,1207800,4.430744436,4.331044047,12.0439,1156.401395,Lake Ontario Western Section,3,Lake Ontario & Minor Tribs., , , ,1110.157471,0301UWB5457,0301UWB5457_C,-78.0709991,43.3689003,8,Orleans,Lake,Centroid
W04130001001225,49500,17100,12600,0,0,0,0,2700,0,0,0,93600,355500,0,2700,533700,4.506171004,4.180979951,9.818147285,1090.540329,Lake Ontario Western Section,3,Lake Ontario & Minor Tribs., , , ,320.6902466,0301UWB5404,0301UWB5404_C,-77.955101,43.354599,8,Monroe,Lake,Centroid
W04130001001389,6300,72900,29700,1800,0,0,8100,0,29700,0,0,152100,1028700,63900,90000,1483200,4.178190128,4.164691208,15.563,1663.185596,Lake Ontario Western Section,3,Lake Ontario & Minor Tribs., , , ,1063.490723,0301UWB0164B,0301UWB0164B_C,-77.9298019,43.3568001,8,Monroe,Lake,Centroid
W04120104001068,234000,980100,519300,255600,86400,29700,337500,0,5400,109800,231300,380700,867600,961200,241200,5239800,4.309158576,4.161377724,29.6018,3517.961453,Niagara River Main Stem,1,Lake Erie-Niagara River Basin,0101-0030,Hyde Park Lake,Lake Erie-Niagara River,5831.039063,0101HYDXXX1,0101HYDXXX1_C,-79.022324,43.100662,9,Niagara,Lake,Centroid
W02020004002994,22500,254700,112500,32400,18000,0,6300,17100,24300,0,900,5400,900,337500,15300,847800,4.174154853,4.089916254,7.415231872,961.9490358,Mohawk River Main Stem,12,Mohawk River Basin, , , ,1493.930298,,,0,0,0,,,
W02020004003045,23400,250200,216900,236700,81000,2700,27000,0,120600,0,1800,70200,106200,738000,46800,1921500,4.007918445,3.971288577,12.5932,1364.507759,Mohawk River Main Stem,12,Mohawk River Basin,1201-0096,"Ann Lee (Shakers) Pond, Stump Pond",Mohawk River,2305.199707,1201ANN0496,1201ANN0496_C,-73.8130035,42.7378998,4,Albany,Lake,Centroid
W04120103001024,3600,70200,72000,40500,19800,1800,72000,0,0,0,0,99000,3600,141300,20700,544500,3.977620632,3.957935721,8.708813302,1490.366018,Buffalo River,1,Lake Erie-Niagara River Basin, , , ,585.371582,0103UWB5346,0103UWB5346_C,-78.7774963,42.8666,9,Erie,Lake,Centroid
W04140101000937,44100,21600,32400,13500,1800,1800,24300,0,0,0,900,0,0,11700,5400,157500,5.024920635,3.897949206,25.511,1550.357862,Lake Ontario Central Section,3,Lake Ontario & Minor Tribs., , , ,64.9641113,,,0,0,0,,,
W04140101000921,33300,356400,165600,65700,4500,7200,260100,0,171000,0,2700,213300,111600,204300,59400,1655100,3.890776915,3.832616156,7.478860728,905.1016467,Lake Ontario Central Section,3,Lake Ontario & Minor Tribs., , , ,2524.987305,0302UWB5476,0302UWB5476_C,-77.5186996,43.1730995,8,Monroe,Lake,Centroid
W04130001001296,55800,8100,5400,3600,0,0,0,0,0,0,0,0,162000,7200,1800,243900,4.614832536,3.787826978,11.1861,1204.994515,Lake Ontario Western Section,3,Lake Ontario & Minor Tribs., , , ,197.8707275,0301UWB5459,0301UWB5459_C,-78.1016998,43.3722,8,Orleans,Lake,Centroid
W02020004003002,79200,60300,35100,23400,900,0,5400,0,43200,0,900,27000,0,22500,0,297900,4.754320988,3.75619671,11.9882,851.0594322,Mohawk River Main Stem,12,Mohawk River Basin, , , ,125.8207855,,,0,0,0,,,
W04140101000924,1513800,18470700,7154100,3637800,1125900,356400,19008900,239400,5403600,322200,379800,14023800,7740000,14743800,1522800,95643000,3.747488144,3.704001987,11.0206,1200.567955,Lake Ontario Central Section,3,Lake Ontario & Minor Tribs., , , ,88106.03906,0302UWB0118A,0302UWB0118A_C,-77.5277023,43.1641006,8,Monroe,Lake,Centroid
W02020004002997,74700,1205100,472500,64800,18000,1800,82800,71100,278100,900,7200,114300,1800,1720800,85500,4199400,3.695533493,3.647584893,18.7794,1474.42125,Mohawk River Main Stem,12,Mohawk River Basin, , , ,4873.327637,,,0,0,0,,,
W04120103000945,25200,27900,4500,900,0,0,0,0,13500,0,900,5400,0,0,5400,83700,4.711846154,3.594313023,7.644527046,740.9200987,"Eastern Lake Erie (Big Sister, 18 Mile Creeks)",1,Lake Erie-Niagara River Basin, , , ,76.6238785,0104UWB5310,0104UWB5310_C,-78.7167969,42.7538986,9,Erie,Lake,Centroid
W04140101000945,35100,10800,0,0,0,0,75600,0,2700,0,0,109800,325800,35100,5400,600300,3.685987261,3.528937198,8.874283822,773.987754,Lake Ontario Central Section,3,Lake Ontario & Minor Tribs., , , ,380.851593,0302UWB5367,0302UWB5367_C,-77.5203018,43.026001,8,Monroe,Lake,Centroid
W04120104001101,46800,69300,31500,9900,0,0,2700,0,0,0,0,0,0,103500,5400,269100,4.054008097,3.52287997,28.1344,3331.718192,Niagara River Main Stem,1,Lake Erie-Niagara River Basin, , , ,216.5493774,0101UWB5007,0101UWB5007_C,-78.911499,43.0290985,9,Erie,Lake,Centroid
W04140102001149,23400,14400,0,0,0,0,12600,900,0,18000,900,74700,188100,48600,6300,387900,3.67854321,3.516963135,9.964683632,901.2488609,Lake Ontario Eastern Section,3,Lake Ontario & Minor Tribs., , , ,438.7163391,0303UWB5599,0303UWB5599_C,-75.7795029,43.9664001,6,Jefferson,Lake,Centroid
W04140101000912,47700,12600,13500,2700,900,0,900,0,0,0,900,13500,15300,2700,900,111600,5.39,3.513637993,15.5683,1142.509444,Lake Ontario Central Section,3,Lake Ontario & Minor Tribs., , , ,96.7672348,0302UWB5236,0302UWB5236_C,-77.4432983,43.2184982,8,Monroe,Lake,Centroid
W04130001001238,252000,2216700,1312200,254700,57600,24300,2742300,1800,806400,34200,36000,1091700,608400,1881900,324900,11645100,3.563884193,3.508401817,17.7562,1686.586305,Lake Ontario Western Section,3,Lake Ontario & Minor Tribs., , , ,9378.836914,,,0,0,0,,,
W04120103001020,0,1800,0,0,0,0,3600,0,9900,0,0,7200,25200,0,0,47700,3.507169811,3.507190776,6.786275606,654.4539827,Buffalo River,1,Lake Erie-Niagara River Basin, , , ,107.1152039,,,0,0,0,,,
W04140101000906,0,23400,16200,18900,1800,0,140400,900,900,0,0,119700,129600,9900,8100,469800,3.488409962,3.48841209,11.5131,1570.372208,Lake Ontario Central Section,3,Lake Ontario & Minor Tribs., , , ,305.1745911,0302UWB0108N,0302UWB0108N_C,-77.3599014,43.2305984,8,Wayne,Lake,Centroid
W04150102000335,153900,15300,23400,4500,900,12600,27000,0,900,4500,8100,775800,287100,72000,67500,1453500,3.721911357,3.433709666,38.8457,3223.593619,Lake Ontario Eastern Section,3,Lake Ontario & Minor Tribs., , , ,2200.011963,0303SHE0389,0303SHE0389_C,-76.1673965,43.9749985,6,Jefferson,Lake,Centroid
W02020004003022,900,12600,10800,2700,0,0,179100,15300,4500,18000,900,153000,313200,0,0,711000,3.408998733,3.405950774,12.1607,1285.802025,Mohawk River Main Stem,12,Mohawk River Basin, , , ,266.0205688,1201UWB0961A,1201UWB0961A_C,-75.2670975,43.0294991,6,Oneida,Lake,Centroid
W04120104001164,81900,82800,155700,116100,51300,3600,57600,0,27900,0,4500,36900,87300,561600,72000,1339200,3.495268432,3.342668757,24.4052,1304.974725,Tonawanda Creek,1,Lake Erie-Niagara River Basin, , , ,1342.104858,0102UWB5109,0102UWB5109_C,-78.7062988,42.9483986,9,Erie,Lake,Centroid
W04120104001206,16200,19800,4500,0,0,900,10800,12600,12600,0,0,83700,6300,1800,3600,172800,3.583390805,3.341203704,15.1098,1202.49885,Tonawanda Creek,1,Lake Erie-Niagara River Basin, , , ,116.6592026,0102UWB5263,0102UWB5263_C,-78.2857971,42.6701012,9,Wyoming,Lake,Centroid
W02020004003005,129600,246600,175500,60300,2700,900,26100,11700,646200,6300,6300,250200,0,40500,1800,1604700,3.526473459,3.322429114,12.5139,1343.241097,Mohawk River Main Stem,12,Mohawk River Basin, , , ,1078.530884,,,0,0,0,,,
W04130001001232,712800,2431800,1598400,315000,60300,25200,2917800,1800,814500,35100,37800,1253700,639900,2078100,1467900,14390100,3.43619925,3.315524493,225.926,10616.22423,Lake Ontario Western Section,3,Lake Ontario & Minor Tribs.,0301-0017,Buck Pond,Lake Ontario,10929.72168,0301BUC0153,0301BUC0153_DH,-77.66383,43.28151,8,Monroe,Lake,Deep Hole
W04140102001179,350100,58500,19800,1800,0,45900,85500,0,11700,8100,5400,546300,1050300,167400,296100,2646900,3.637758621,3.28886811,192.611,4817.102201,Lake Ontario Eastern Section,3,Lake Ontario & Minor Tribs.,0303-0052,Lakeview Pond,Lake Ontario,3878.178467,0303LAK1031,0303LAK1031_C,-76.2065964,43.7489014,6,Jefferson,Lake,Centroid
W04130001001399,41400,11700,13500,10800,0,0,2700,0,5400,0,0,0,0,12600,1800,99900,4.886307692,3.275775776,16.5395,1124.691714,Lake Ontario Western Section,3,Lake Ontario & Minor Tribs., , , ,249.442749,,,0,0,0,,,
W04120103001010,46800,7200,12600,7200,0,900,10800,0,0,0,0,0,20700,2700,2700,111600,4.876111111,3.250654122,9.186707183,847.6122145,Buffalo River,1,Lake Erie-Niagara River Basin, , , ,54.5674591,0103UWB5112,0103UWB5112_C,-78.6271973,42.9127998,9,Erie,Lake,Centroid
W04120102000684,13500,0,0,0,0,29700,30600,0,22500,0,4500,18900,79200,12600,45000,256500,3.306185185,3.184810916,9.018344119,789.4083658,"Eastern Lake Erie (Big Sister, 18 Mile Creeks)",1,Lake Erie-Niagara River Basin, , , ,946.8738403,,,0,0,0,,,
W02020004003000,602100,1380600,597600,76500,18900,1800,153000,107100,400500,900,21600,117000,2700,2301300,275400,6057000,3.400800198,3.162147268,382.387,18587.97532,Mohawk River Main Stem,12,Mohawk River Basin,1201-0098,Stony Creek (Colonie) Reservoir,Mohawk River,7592.360352,1201STO0503A,1201STO0503A_DH,-73.816167,42.807267,5,Saratoga,Lake,Deep Hole
W02020005000821,39600,27000,5400,0,0,0,6300,0,13500,0,10800,59400,0,13500,9900,185400,3.630740741,3.068840345,9.064153825,971.6897762,Schoharie Creek *,12,Mohawk River Basin, , , ,193.5930023,1202UWB5180,1202UWB5180_C,-74.0465012,42.6230011,4,Albany,Lake,Centroid
W04120103000946,52200,321300,88200,14400,2700,18900,647100,18900,205200,0,9900,114300,32400,5400,6300,1537200,3.141339394,3.068624772,18.4722,1691.185995,"Eastern Lake Erie (Big Sister, 18 Mile Creeks)",1,Lake Erie-Niagara River Basin,0101-0038,Green Lake,Lake Erie-Niagara River,1762.493408,0104GRE5309,0104GRE5309_DH,-78.753512,42.757515,9,Erie,Lake,Deep Hole
W04130001001396,1800,36000,16200,900,0,0,54900,0,4500,4500,0,47700,60300,36000,66600,329400,3.053049451,3.041833637,14.277,1875.65453,Lake Ontario Western Section,3,Lake Ontario & Minor Tribs., , , ,207.1456909,,,0,0,0,,,
W04130001001311,46800,20700,6300,0,0,2700,9900,0,8100,0,0,9000,900,0,0,104400,4.66171875,3.020268199,10.6369,846.876872,Lake Ontario Western Section,3,Lake Ontario & Minor Tribs., , , ,32.28862,0301UWB5478,0301UWB5478_C,-78.4608002,43.2804985,8,Orleans,Lake,Centroid
W04120102000707,46800,20700,1800,0,0,5400,155700,20700,98100,0,1800,331200,188100,0,0,870300,3.126797814,3.012431346,15.4233,1133.749654,"Eastern Lake Erie (Big Sister, 18 Mile Creeks)",1,Lake Erie-Niagara River Basin,0104-0066,"Frog Pond, Sucker Pond",Lake Erie-Niagara River,883.6013184,0104SUC0132,0104SUC0132_C,-78.5036011,42.4365997,9,Cattaraugus,Lake,Centroid
W04130001001325,6300,1800,2700,4500,900,0,0,0,0,0,0,0,0,10800,5400,32400,3.497241379,3.011697531,15.5418,1757.092634,Lake Ontario Western Section,3,Lake Ontario & Minor Tribs., , , ,113.0933762,,,0,0,0,,,
W02020004003053,296100,554400,128700,21600,900,0,2051100,215100,369900,107100,149400,2052900,2545200,999000,158400,9649800,3.07062927,3.007092997,20.9599,1497.109465,Oriskany Creek,12,Mohawk River Basin,1204-0014,Lyons Pond,Mohawk River,9864.100586,1204LYO1044,1204LYO1044_C,-75.4964981,42.9187012,7,Madison,Lake,Centroid
W02020004003055,172800,68400,9900,1800,0,0,14400,14400,1800,2700,55800,201600,22500,52200,25200,643500,3.655697897,2.942560995,32.0018,1984.042173,Oriskany Creek,12,Mohawk River Basin,1204-0006,Madison Lake,Mohawk River,686.4887695,1204MAD1051,1204MAD1051_C,-75.5241013,42.9015999,7,Madison,Lake,Centroid
W04130001001254,55800,158400,71100,5400,0,192600,489600,8100,102600,55800,900,601200,3086100,3050100,90900,7968600,2.955580073,2.941886279,12.3939,1467.077887,Lake Ontario Western Section,3,Lake Ontario & Minor Tribs.,0301-0039,Albion Reservoir No.2,Lake Ontario,7849.29834,0301ALB0166H,0301ALB0166H_C,-78.2507019,43.2272987,8,Orleans,Lake,Centroid
W04130001001265,28800,53100,17100,2700,0,0,298800,0,34200,0,900,973800,1285200,1269900,56700,4021200,2.919312444,2.905566498,7.638406195,973.3354047,Lake Ontario Western Section,3,Lake Ontario & Minor Tribs.,0301-0047,Middleport Reservoir,Lake Ontario,5505.279297,0301MID0177A,0301MID0177A_C,-78.4751968,43.1889992,9,Niagara,Lake,Centroid
W04130001001234,184500,1238400,570600,184500,55800,1800,3679200,3600,1197900,39600,82800,1896300,2886300,2868300,240300,15129900,2.898102493,2.874956345,35.028,3285.680636,Lake Ontario Western Section,3,Lake Ontario & Minor Tribs.,0301-0015,Long Pond,Lake Ontario,14143.98535,,,0,0,0,,,
W04140101000856,29700,131400,58500,16200,1800,0,423900,14400,70200,900,12600,84600,60300,38700,5400,948600,2.909020568,2.849251529,8.885210835,760.1240383,Lake Ontario Central Section,3,Lake Ontario & Minor Tribs., , , ,1226.255127,0302UWB5178,0302UWB5178_C,-76.546402,43.4496994,7,Oswego,Lake,Centroid
W04130001001242,3617100,4160700,2205900,598500,217800,292500,11868300,99000,1609200,137700,104400,10304100,51915600,47655000,5904000,140689800,2.891005167,2.842387899,303.172,16711.43549,Lake Ontario Western Section,3,Lake Ontario & Minor Tribs.,0301-0035,Waterport Pond,Lake Ontario,147409.5625,0301WAT0166,0301WAT0166_C,-78.2584991,43.3213005,8,Orleans,Lake,Centroid
W04140101000914,60300,224100,76500,7200,0,0,372600,3600,201600,9900,0,900,0,57600,18900,1033200,2.933755782,2.82089818,19.1374,1767.59951,Lake Ontario Central Section,3,Lake Ontario & Minor Tribs.,0302-0037,"Durand, Eastman Lakes",Lake Ontario,1091.176025,0302EAS0148E,0302EAS0148E_C,-77.5631027,43.2332001,8,Monroe,Lake,Centroid
W04120102000694,32400,15300,2700,900,0,1800,28800,900,16200,0,900,48600,24300,18900,1800,193500,3.163072626,2.800888889,8.565062546,730.6667338,"Eastern Lake Erie (Big Sister, 18 Mile Creeks)",1,Lake Erie-Niagara River Basin, , , ,296.8401794,,,0,0,0,,,
W04130001001223,4500,47700,9900,0,0,0,189000,0,43200,0,3600,333900,301500,300600,70200,1304100,2.79848338,2.7922782,7.904409087,1129.883603,Lake Ontario Western Section,3,Lake Ontario & Minor Tribs., , , ,1456.265259,0301UWB0158G,0301UWB0158G_C,-77.756897,43.335701,8,Monroe,Lake,Centroid
W04130001001257,1617300,2953800,1500300,493200,206100,59400,5746500,82800,853200,52200,64800,6164100,33843600,37296900,5513400,96447600,2.787397667,2.757425358,86.1389,4881.072891,Lake Ontario Western Section,3,Lake Ontario & Minor Tribs.,0301-0041,Glenwood Lake,Lake Ontario,100622.9688,0301GLE0167,0301GLE0167_C,-78.3890991,43.2333984,8,Orleans,Lake,Centroid
W04130001001372,141300,149400,32400,0,0,0,756000,3600,46800,0,4500,888300,1896300,1430100,522900,5871600,2.789045076,2.745991893,50.3585,2712.147503,Lake Ontario Western Section,3,Lake Ontario & Minor Tribs., , , ,5379.620117,0301UWB5775,0301UWB5775_C,-78.4326019,43.1110992,8,Genesee,Lake,Centroid
W04130001001229,1076400,1314000,611100,192600,55800,1800,3764700,3600,1203300,44100,82800,1946700,2946600,2980800,763200,16987500,2.853215114,2.735787609,430.028,6161.067227,Lake Ontario Western Section,3,Lake Ontario & Minor Tribs.,0301-0015,Long Pond,Lake Ontario,15738.07129,0301LON0154,0301LON0154_DH,-77.68576,43.29287,8,Monroe,Lake,Deep Hole
W02020004002980,17100,144000,185400,129600,47700,14400,104400,128700,141300,7200,38700,778500,900,1168200,388800,3294900,2.722138935,2.713201615,12.9578,1101.071319,Mohawk River Main Stem,12,Mohawk River Basin, , , ,2849.419434,1201AMS0546,1201AMS0546_C,-74.1820984,42.9511986,4,Montgomery,Lake,Centroid
W04120102000651,81000,18000,2700,0,0,0,121500,162900,99900,0,3600,69300,422100,80100,0,1061100,2.853709826,2.712206201,34.4356,1539.773626,"Eastern Lake Erie (Big Sister, 18 Mile Creeks)",1,Lake Erie-Niagara River Basin, , , ,1516.601807,0104PAR5418,0104PAR5418_C,-78.4981003,42.5579987,9,Erie,Lake,Centroid
W04120102000691,93600,156600,9000,3600,0,0,756900,61200,313200,0,18000,1089900,162900,49500,27000,2741400,2.743052345,2.683539432,18.3709,1084.769028,"Eastern Lake Erie (Big Sister, 18 Mile Creeks)",1,Lake Erie-Niagara River Basin,0104-0067,Beaver Lake,Lake Erie-Niagara River,2805.304688,0104BEA0133,0104BEA0133_C,-78.3965988,42.4472008,9,Cattaraugus,Lake,Centroid
W04120102000695,0,14400,3600,0,0,0,123300,0,31500,0,0,126000,61200,38700,900,399600,2.677747748,2.67775025,7.685487643,1001.582858,"Eastern Lake Erie (Big Sister, 18 Mile Creeks)",1,Lake Erie-Niagara River Basin, , , ,347.3576355,0104UWB5720,0104UWB5720_C,-78.4321976,42.4427986,9,Cattaraugus,Lake,Centroid
W04120103001023,1800,24300,9000,1800,0,0,88200,0,16200,0,7200,31500,0,3600,6300,189900,2.688133971,2.672137967,26.063,1854.535216,Buffalo River,1,Lake Erie-Niagara River Basin, , , ,116.9073105,,,0,0,0,,,
W02020004002992,12600,4500,0,0,0,0,0,16200,5400,0,11700,32400,1800,4500,900,90000,2.937790698,2.666511111,9.023372419,1102.469803,Mohawk River Main Stem,12,Mohawk River Basin, , , ,123.1230621,,,0,0,0,,,
W04120102000675,17100,25200,4500,0,0,0,109800,9900,72900,0,0,188100,62100,25200,34200,549000,2.717478849,2.663985428,21.7298,1805.748625,"Eastern Lake Erie (Big Sister, 18 Mile Creeks)",1,Lake Erie-Niagara River Basin,0104-0068,Skim Lake,Lake Erie-Niagara River,826.2439575,0104SKI0141,0104SKI0141_C,-78.3775024,42.4812012,9,Cattaraugus,Lake,Centroid
W04130001001289,9900,0,0,0,0,0,25200,0,15300,0,0,54000,13500,0,0,117900,2.8125,2.660313825,32.8026,1612.744347,Lake Ontario Western Section,3,Lake Ontario & Minor Tribs.,0301-0012,Bond Lake,Lake Ontario,118.0813293,0301BON0190B,0301BON0190B_C,-78.9167023,43.1815987,9,Niagara,Lake,Centroid
W02020004003050,90900,376200,73800,16200,900,4500,1252800,111600,936900,19800,118800,4503600,360900,1718100,650700,10235700,2.653573456,2.638888693,20.9228,2384.926913,Mohawk River Main Stem,12,Mohawk River Basin, , , ,12357.20898,1201UWB0679,1201UWB0679_C,-74.5077972,42.7759018,4,Schoharie,Lake,Centroid
W04130001001286,38700,17100,3600,900,0,0,18000,0,5400,0,2700,0,2700,900,0,90000,3.855438596,2.627611111,7.815193497,1085.869937,Lake Ontario Western Section,3,Lake Ontario & Minor Tribs., , , ,285.8464966,0301UWB0168E,0301UWB0168E_C,-78.2798996,43.0573997,8,Genesee,Lake,Centroid
W04130001001345,3600,0,0,0,0,0,18000,0,6300,0,0,54000,0,9900,0,91800,2.67755102,2.611775599,11.5719,933.4202297,Lake Ontario Western Section,3,Lake Ontario & Minor Tribs., , , ,78.4278641,0301UWB0190A,0301UWB0190A_C,-78.9263,43.1832008,9,Niagara,Lake,Centroid
W02020004003043,9900,465300,69300,16200,4500,0,2133900,88200,411300,106200,65700,1297800,1102500,1050300,75600,6896700,2.607775745,2.605467977,7.705192253,740.9840386,Mohawk River Main Stem,12,Mohawk River Basin, , , ,8378.461914,1201UWB0982,1201UWB0982_C,-75.2501984,42.9757004,6,Oneida,Lake,Centroid
W04150102000329,1472400,864900,816300,81900,8100,54000,6128100,350100,545400,153000,191700,18774900,869400,8844300,2496600,41651100,2.65611518,2.597570196,941.039,9966.864619,Lake Ontario Eastern Section,3,Lake Ontario & Minor Tribs., , , ,46904.30859,,,0,0,0,,,
W02020004002932,45900,0,1800,900,0,38700,61200,22500,55800,11700,2700,11700,33300,7200,900,294300,2.888913043,2.594315324,8.161236864,976.0375102,West Canada Creek,12,Mohawk River Basin, , , ,94.0064392,,,0,0,0,,,
W02020004003004,22500,227700,25200,900,0,0,2102400,236700,614700,54900,93600,1341000,1422900,502200,40500,6685200,2.577424017,2.57211512,8.332391708,1190.903634,Oriskany Creek,12,Mohawk River Basin, , , ,7932.666016,1204UWB0996A,1204UWB0996A_C,-75.4539032,43.0924988,6,Oneida,Lake,Centroid
W04150102001997,1731600,911700,856800,84600,8100,54000,6546600,353700,553500,165600,205200,19666800,879300,9580500,2816100,44414100,2.631150237,2.567555596,414.317,7560.907877,Lake Ontario Eastern Section,3,Lake Ontario & Minor Tribs., , , ,50405.84766,0303UWB5011,0303UWB5011_C,-75.9890976,44.0760002,6,Jefferson,Lake,Centroid
W04140102001158,282600,51300,4500,0,0,0,187200,10800,12600,65700,15300,310500,545400,552600,16200,2054700,2.816028441,2.566255414,164.392,3940.802327,Lake Ontario Eastern Section,3,Lake Ontario & Minor Tribs.,0303-0047,Crystal Lake,Lake Ontario,3755.591797,0303SIX1030,0303SIX1030_DH,-76.12647333,43.82914667,6,Jefferson,Lake,Deep Hole
W04150102000325,1287000,547200,471600,47700,900,11700,3637800,189900,388800,54900,83700,10462500,829800,5792400,1137600,24943500,2.629944835,2.54584525,533.619,7079.342698,Lake Ontario Eastern Section,3,Lake Ontario & Minor Tribs.,0303-0041,Perch Lake,Lake Ontario,25199.28125,0303PER0390,0303PER0390_C,-75.8992996,44.1207008,6,Jefferson,Lake,Centroid
W04120103001001,198900,65700,12600,0,0,0,270000,187200,254700,900,3600,401400,351900,107100,6300,1860300,2.700747562,2.518907166,47.9483,1948.090335,"Eastern Lake Erie (Big Sister, 18 Mile Creeks)",1,Lake Erie-Niagara River Basin, , , ,1243.018799,,,0,0,0,,,
W04140101000943,27900,19800,3600,0,0,0,31500,0,9900,0,0,0,0,0,0,92700,3.168333333,2.515738943,7.346067007,763.2102308,Lake Ontario Central Section,3,Lake Ontario & Minor Tribs., , , ,145.0410919,0302UWB0135,0302UWB0135_C,-77.4672012,43.0335999,8,Ontario,Lake,Centroid
W04150102000324,27900,81900,75600,5400,6300,0,658800,52200,64800,24300,30600,1985400,900,1072800,280800,4367700,2.521754459,2.512034022,17.9958,2885.545702,Lake Ontario Eastern Section,3,Lake Ontario & Minor Tribs., , , ,6600.442383,,,0,0,0,,,
W04120104001122,0,6300,11700,900,0,0,4500,0,900,0,0,11700,0,36000,27900,99900,2.510990991,2.511001001,14.3293,1319.154993,Tonawanda Creek,1,Lake Erie-Niagara River Basin, , , ,64.3644257,0102UWB5084,0102UWB5084_C,-78.6051025,42.9710007,9,Erie,Lake,Centroid
W02020005000815,202500,711900,126000,10800,0,0,3345300,285300,863100,36900,162900,5661000,241200,2299500,560700,14507100,2.530670064,2.509303996,13.7649,1644.640882,Schoharie Creek *,12,Mohawk River Basin, , , ,14445.87793,1202UWB0587,1202UWB0587_C,-74.6146011,42.7221985,4,Schoharie,Lake,Centroid
W04120102000685,36000,34200,7200,0,0,0,212400,0,69300,0,900,142200,65700,0,11700,579600,2.606738411,2.506942719,7.215543213,670.5406683,"Eastern Lake Erie (Big Sister, 18 Mile Creeks)",1,Lake Erie-Niagara River Basin, , , ,711.3569946,0104UWB5723,0104UWB5723_C,-78.388298,42.4599991,9,Cattaraugus,Lake,Centroid
W04120102000669,233100,156600,32400,0,0,0,922500,419400,618300,3600,10800,1288800,524700,198000,35100,4443300,2.55696879,2.475288862,49.54,3810.363215,"Eastern Lake Erie (Big Sister, 18 Mile Creeks)",1,Lake Erie-Niagara River Basin,0104-0057,Clear Lake,Lake Erie-Niagara River,3220.514893,0104CLE0100,0104CLE0100_C,-78.8529968,42.5535011,9,Erie,Lake,Centroid
W04130001001231,167400,351000,141300,59400,900,44100,1821600,0,635400,52200,4500,1593000,680400,1566900,107100,7225200,2.494674828,2.460044981,7.041671421,962.8706278,Lake Ontario Western Section,3,Lake Ontario & Minor Tribs., , , ,6231.689941,,,0,0,0,,,
W04130001001277,900,8100,900,0,0,27000,40500,0,16200,0,0,99900,88200,261900,30600,574200,2.460612245,2.458324626,39.773,2138.333506,Lake Ontario Western Section,3,Lake Ontario & Minor Tribs., , , ,321.7128906,,,0,0,0,,,
W04130001001280,20700,0,0,0,0,0,62100,0,32400,6300,0,116100,13500,3600,2700,257400,2.573003802,2.446507382,6.765229674,902.9227831,Lake Ontario Western Section,3,Lake Ontario & Minor Tribs., , , ,315.013916,0301UWB0190F,0301UWB0190F_C,-78.9076004,43.1791,9,Niagara,Lake,Centroid
W04120102000646,33300,22500,5400,900,0,0,89100,1800,13500,0,900,85500,0,30600,1800,285300,2.628857143,2.438741675,6.780508982,649.9057103,"Eastern Lake Erie (Big Sister, 18 Mile Creeks)",1,Lake Erie-Niagara River Basin, , , ,273.6502991,0104UWB5432,0104UWB5432_C,-78.4215012,42.5587997,9,Wyoming,Lake,Centroid
W04130001001377,164700,8100,0,0,0,0,0,900,0,0,0,1800,108900,19800,2700,306900,4.082911392,2.428449006,49.22,2243.801317,Lake Ontario Western Section,3,Lake Ontario & Minor Tribs., , , ,285.8497009,0301UWB0168A,0301UWB0168A_C,-78.297699,43.0569992,8,Genesee,Lake,Centroid
W02020005006130,45900,10800,5400,5400,2700,0,39600,0,9900,2700,4500,6300,900,0,0,134100,3.165816327,2.424504101,10.4321,944.5373513,Schoharie Creek *,12,Mohawk River Basin, , , ,159.3490601,1202UWB0636,1202UWB0636_C,-74.5959015,42.4332008,4,Schoharie,Lake,Centroid
W04140101000898,155700,611100,88200,1800,900,2700,2268000,60300,315000,10800,1800,2358000,4368600,7839000,297000,18378900,2.436005531,2.423840219,25.8767,1754.101366,Lake Ontario Central Section,3,Lake Ontario & Minor Tribs.,0302-0067,Metz Pond,Lake Ontario,25195.81641,0302MET0100,0302MET0100_C,-77.0197983,43.2042999,8,Wayne,Lake,Centroid
W04130001001230,243000,355500,144900,59400,900,44100,1824300,0,640800,52200,4500,1620900,680400,1566900,308700,7546500,2.461695625,2.414628636,48.5019,4968.176716,Lake Ontario Western Section,3,Lake Ontario & Minor Tribs., , , ,6593.015625,,,0,0,0,,,
W04120102000683,21600,7200,4500,0,0,0,118800,0,28800,0,0,70200,49500,0,11700,312300,2.51123839,2.406717899,12.1405,1118.32922,"Eastern Lake Erie (Big Sister, 18 Mile Creeks)",1,Lake Erie-Niagara River Basin, , , ,427.7107239,,,0,0,0,,,
W04120103000930,27900,0,0,0,0,0,3600,0,17100,0,0,0,34200,3600,0,86400,3.069538462,2.401261574,6.641186116,684.7902088,Buffalo River,1,Lake Erie-Niagara River Basin, , , ,40.5342789,0103UWB5364,0103UWB5364_C,-78.5735016,42.8252983,9,Erie,Lake,Centroid
W02020005000825,108000,16200,10800,0,0,2700,59400,167400,196200,0,90900,385200,11700,4500,21600,1074600,2.553361266,2.397245487,31.6151,1449.947999,Schoharie Creek *,12,Mohawk River Basin,1202-0015,Cobleskill Reservoirs,Mohawk River,1189.622437,1202COB0583,1202COB0583_C,-74.4436035,42.664299,4,Schoharie,Lake,Centroid
W04120104001181,26100,13500,0,0,0,0,11700,14400,25200,0,900,34200,0,0,0,126000,2.75972973,2.395222222,6.654322173,702.7339067,Tonawanda Creek,1,Lake Erie-Niagara River Basin, , , ,74.3721466,0102UWB5127,0102UWB5127_C,-78.4408035,42.8879013,8,Genesee,Lake,Centroid
W04140102001199,33300,59400,2700,0,0,0,383400,18000,2700,9000,11700,127800,182700,171900,3600,1006200,2.442516189,2.39477738,19.4255,1650.178098,Lake Ontario Eastern Section,3,Lake Ontario & Minor Tribs., , , ,914.1775513,0303UWB5093,0303UWB5093_C,-76.0593033,43.6142006,7,Oswego,Lake,Centroid
W04140101000938,4500,12600,1800,0,0,0,7200,0,900,0,0,15300,0,22500,27900,92700,2.453061224,2.382535059,19.6003,1354.308766,Lake Ontario Central Section,3,Lake Ontario & Minor Tribs., , , ,76.7562103,,,0,0,0,,,
W02020004002996,47700,39600,9000,0,0,0,306900,26100,22500,3600,9000,320400,0,67500,20700,873000,2.449073064,2.369898053,21.6361,1823.011545,West Canada Creek,12,Mohawk River Basin,1201-0196,Mirror Lake,Mohawk River,401.3431091,1201MIRXXX1,1201MIRXXX1_C,-74.992654,43.039458,0,Herkimer,Lake,Centroid
W04120104001107,58500,14400,5400,2700,0,0,7200,0,0,0,0,1800,0,9000,6300,105300,4.051346154,2.356163343,39.373,2289.162499,Tonawanda Creek,1,Lake Erie-Niagara River Basin, , , ,223.6419525,0102LA 5022,0102LA 5022_C,-78.7811966,43.0042992,9,Erie,Lake,Centroid
W04120103000938,387900,2710800,406800,31500,6300,5400,26015400,5026500,11790900,270000,122400,9342000,17901900,5570100,525600,80113500,2.361156529,2.354565985,9.699073543,1143.88811,Buffalo River,1,Lake Erie-Niagara River Basin, , , ,69679.01563,0103HOW5361,0103HOW5361_C,-78.5697021,42.7790985,9,Erie,Lake,Centroid
W04120104001157,8100,28800,5400,0,0,54900,941400,0,38700,14400,0,254700,304200,123300,7200,1781100,2.351796954,2.345649879,7.62387725,875.4674615,Tonawanda Creek,1,Lake Erie-Niagara River Basin, , , ,951.1774902,0102UWB5238,0102UWB5238_C,-78.2361984,42.8930016,8,Genesee,Lake,Centroid
W02020005000822,80100,43200,6300,0,0,0,115200,1800,48600,0,72900,98100,0,62100,24300,552600,2.568228571,2.340913862,24.5241,1458.451987,Schoharie Creek *,12,Mohawk River Basin, , , ,528.9747314,,,0,0,0,,,
W04140102001159,386100,477900,251100,44100,1800,18000,3381300,259200,230400,489600,133200,2079000,1884600,3615300,262800,13514400,2.377017893,2.337677218,119.836,4027.184141,Lake Ontario Eastern Section,3,Lake Ontario & Minor Tribs.,0303-0046,Henderson Pond,Lake Ontario,23886.25195,0303HEN1023,0303HEN1023_C,-76.1624985,43.8381004,6,Jefferson,Lake,Centroid
W04120103000983,41400,62100,2700,0,0,0,135000,9000,9000,0,900,32400,0,59400,5400,357300,2.506951567,2.332345368,16.2141,989.4599116,Buffalo River,1,Lake Erie-Niagara River Basin, , , ,165.2300262,0103PRO5442,0103PRO5442_C,-78.4878006,42.5974007,9,Erie,Lake,Centroid
W04120104001063,82800,18000,4500,0,0,0,26100,0,9900,0,1800,40500,0,0,5400,189000,3.363305085,2.327957672,20.8081,1731.485071,Tonawanda Creek,1,Lake Erie-Niagara River Basin, , , ,122.2412796,0102UWB5214,0102UWB5214_C,-78.4151993,43.0270004,8,Genesee,Lake,Centroid
W04120103000921,344700,3655800,963000,153000,27900,25200,30312000,1426500,9624600,331200,191700,13182300,12947400,10640700,986400,84812400,2.326514123,2.321122831,23.8185,3029.059181,Buffalo River,1,Lake Erie-Niagara River Basin, , , ,62618.71875,0103UWB0065,0103UWB0065_C,-78.6638031,42.8904991,9,Erie,Lake,Centroid
W04140102001155,275400,432000,234900,42300,1800,18000,3169800,250200,215100,386100,115200,1819800,1400400,2914200,198900,11474100,2.349830427,2.317432043,10.2484,1394.941397,Lake Ontario Eastern Section,3,Lake Ontario & Minor Tribs., , , ,17008.51563,0303UWB1023A,0303UWB1023A_C,-76.0955963,43.8786011,6,Jefferson,Lake,Centroid
W02020005000802,32400,1800,0,0,0,0,2700,3600,0,0,0,39600,0,3600,7200,90900,3.036923077,2.31090209,9.786801331,842.7730057,Schoharie Creek *,12,Mohawk River Basin, , , ,233.3533936,1202UWB5154,1202UWB5154_C,-74.4152985,42.7340012,4,Schoharie,Lake,Centroid
W04130001001249,18900,31500,16200,900,0,0,414900,0,21600,0,0,144000,324000,431100,4500,1407600,2.324050551,2.306273089,7.491586748,728.2622181,Lake Ontario Western Section,3,Lake Ontario & Minor Tribs., , , ,1144.252319,0301UWB5411,0301UWB5411_C,-77.8889008,43.1999016,8,Monroe,Lake,Centroid
W02020004003056,68400,5400,900,0,0,0,9900,0,0,0,16200,12600,25200,9900,5400,153900,3.345789474,2.303222872,9.874914467,791.8556658,Oriskany Creek,12,Mohawk River Basin,1204-0007,Leland Pond,Mohawk River,59.1203423,1204UWB1051A,1204UWB1051A_C,-75.5310974,42.8986015,7,Madison,Lake,Centroid
W04140102001151,96300,36000,28800,900,0,0,411300,4500,0,9000,0,199800,271800,387000,41400,1486800,2.383786408,2.294159268,17.5893,1363.381555,Lake Ontario Eastern Section,3,Lake Ontario & Minor Tribs.,0303-0051,Rutland Lake,Lake Ontario,2224.656494,0303RUT1037,0303RUT1037_C,-75.7962036,43.9508018,6,Jefferson,Lake,Centroid
W04120102000653,1800,0,0,0,0,0,255600,22500,26100,0,0,9900,169200,0,0,485100,2.295456238,2.290651412,6.511705019,712.8432551,"Eastern Lake Erie (Big Sister, 18 Mile Creeks)",1,Lake Erie-Niagara River Basin, , , ,390.5940552,,,0,0,0,,,
W04140102001230,29700,28800,0,0,0,0,72000,0,0,4500,0,10800,0,15300,0,161100,2.557671233,2.270509001,7.204689823,926.8153038,Lake Ontario Eastern Section,3,Lake Ontario & Minor Tribs., , , ,102.2458801,,,0,0,0,,,
W04120103000943,48600,323100,68400,2700,0,900,923400,7200,426600,0,18000,414900,27000,596700,20700,2878200,2.29182888,2.270015982,8.541467867,833.219721,"Eastern Lake Erie (Big Sister, 18 Mile Creeks)",1,Lake Erie-Niagara River Basin, , , ,2936.004883,0104UWB0081,0104UWB0081_C,-78.7332001,42.7681007,9,Erie,Lake,Centroid
W04140102001219,22500,94500,38700,3600,900,0,883800,486000,111600,14400,6300,576900,256500,165600,6300,2667600,2.270112283,2.259399835,12.0209,1234.598338,Lake Ontario Eastern Section,3,Lake Ontario & Minor Tribs., , , ,3096.995606,0303UWB0006A,0303UWB0006A_C,-76.1093979,43.5662003,7,Oswego,Lake,Centroid
W04140101000889,61200,15300,1800,0,0,0,21600,0,6300,0,900,9900,135000,230400,2700,485100,2.437643312,2.256272933,55.1897,2216.294241,Lake Ontario Central Section,3,Lake Ontario & Minor Tribs.,0302-0057,Mud Pond,Lake Ontario,564.2453613,0302MUD0074,0302MUD0074_C,-76.5905991,43.1870995,7,Cayuga,Lake,Centroid
W04140101000897,80100,144900,18900,0,0,0,1083600,41400,83700,32400,16200,131400,1197900,1590300,88200,4509000,2.276340175,2.253666888,22.0428,1972.083161,Lake Ontario Central Section,3,Lake Ontario & Minor Tribs.,0302-0061,Butler Center Mill Pond,Lake Ontario,5684.581055,0302MIL0092,0302MIL0092_C,-76.7658005,43.1697006,8,Wayne,Lake,Centroid
W04140102001165,67500,21600,900,0,0,15300,27000,7200,900,18000,19800,68400,65700,225900,46800,585000,2.414034783,2.250878632,21.7182,1373.702123,Lake Ontario Eastern Section,3,Lake Ontario & Minor Tribs.,0303-0008,Black Pond,Lake Ontario,1552.807007,0303BLA1028,0303BLA1028_C,-76.2275009,43.8064995,6,Jefferson,Lake,Centroid
W04120103000955,73800,119700,20700,900,0,0,542700,203400,372600,1800,2700,120600,526500,362700,102600,2450700,2.283623627,2.244969192,15.2711,1309.235124,Buffalo River,1,Lake Erie-Niagara River Basin, , , ,1861.455444,0103UWB5282,0103UWB5282_C,-78.3684998,42.6645012,9,Wyoming,Lake,Centroid
W02020004003001,36900,12600,5400,0,0,0,18000,123300,225900,0,0,246600,26100,16200,1800,712800,2.298428762,2.231213524,8.684818383,732.2142267,Mohawk River Main Stem,12,Mohawk River Basin,1201-0123,Fonda Reservoir,Mohawk River,1108.054932,1201FON0678A,1201FON0678A_C,-74.456398,42.9388008,4,Montgomery,Lake,Centroid
W04140101000890,252000,264600,42300,2700,900,0,1906200,43200,189900,33300,18900,324900,2102400,3142800,125100,8449200,2.253795564,2.216400843,11.6842,1503.810942,Lake Ontario Central Section,3,Lake Ontario & Minor Tribs., , , ,10264.91309,0302UWB0091,0302UWB0091_C,-76.8099976,43.2182007,8,Wayne,Lake,Centroid
W04120102000733,0,66600,1800,0,0,0,467100,130500,213300,72900,0,452700,144000,224100,79200,1852200,2.204207969,2.204208509,17.136,1396.898996,"Eastern Lake Erie (Big Sister, 18 Mile Creeks)",1,Lake Erie-Niagara River Basin, , , ,713.3166504,,,0,0,0,,,
W04120102000621,191700,66600,9000,0,0,0,19800,5400,15300,1800,1800,60300,68400,271800,11700,723600,2.628189509,2.196842178,52.6048,2517.97419,"Eastern Lake Erie (Big Sister, 18 Mile Creeks)",1,Lake Erie-Niagara River Basin,0104-0004,Java Lake,Lake Erie-Niagara River,783.6799927,0104JAV0152,0104JAV0152_C,-78.3439026,42.6313019,9,Wyoming,Lake,Centroid
W04140101000881,518400,550800,54000,11700,3600,1800,4482000,54900,647100,45000,36000,1168200,3339900,4050000,884700,15848100,2.232053661,2.191752576,157.973,7860.345173,Lake Ontario Central Section,3,Lake Ontario & Minor Tribs.,0302-0011,East Bay,Lake Ontario,16614.97266,0302EAS0093,0302EAS0093_C,-76.8918991,43.2901001,8,Wayne,Lake,Centroid
W02020005000803,39600,9900,0,0,0,1800,45900,9900,19800,0,9900,68400,13500,53100,6300,278100,2.387207547,2.189679971,16.1115,947.1080537,Schoharie Creek *,12,Mohawk River Basin,1202-0016,Central Bridge Reservoirs,Mohawk River,760.5026855,1202UWB0579A,1202UWB0579A_C,-74.365799,42.7155991,4,Schoharie,Lake,Centroid
W02020005000848,29700,21600,4500,0,0,0,26100,18000,33300,0,900,0,0,0,0,134100,2.524482759,2.186853095,10.7809,937.2679097,Schoharie Creek *,12,Mohawk River Basin, , , ,121.7884293,1202UWB5148,1202UWB5148_C,-74.5229034,42.6375008,4,Schoharie,Lake,Centroid
W02020005000890,135900,111600,7200,0,0,0,936000,25200,290700,2700,4500,861300,0,212400,32400,2619900,2.240264493,2.175929616,39.2079,2095.392047,Schoharie Creek * (w/I NY watershed),12,Mohawk River Basin,1202-0055,Mayham Pond,Mohawk River,2220.5,1202MAY0643,1202MAY0643_C,-74.5616989,42.4147987,4,Schoharie,Lake,Centroid
W02020004002961,900,194400,97200,28800,6300,8100,574200,770400,67500,0,4500,251100,900,355500,51300,2411100,2.154574309,2.154143752,25.5671,1865.739557,Mohawk River Main Stem,12,Mohawk River Basin, , , ,3107.053711,1201WMI0674,1201WMI0674_C,-74.3694992,43.050499,5,Fulton,Lake,Centroid
W04120103000966,5400,18900,13500,9000,1800,0,93600,0,5400,0,0,302400,100800,711000,6300,1268100,2.155260157,2.150341456,6.576292524,917.1799051,"Eastern Lake Erie (Big Sister, 18 Mile Creeks)",1,Lake Erie-Niagara River Basin, , , ,1332.385498,0104UWB5540,0104UWB5540_C,-78.8836975,42.7204018,9,Erie,Lake,Centroid
W02020005000819,1152000,3306600,882900,113400,8100,39600,11305800,6327000,14731200,61200,2052900,12377700,842400,5454000,1225800,59880600,2.162894842,2.140522757,10.4233,1066.585392,Schoharie Creek *,12,Mohawk River Basin, , , ,54441.85938,,,0,0,0,,,
W04130001001324,128700,1800,2700,5400,3600,900,0,0,0,0,1800,15300,33300,33300,8100,234900,3.490932203,2.12617284,45.1034,2312.491191,Lake Ontario Western Section,3,Lake Ontario & Minor Tribs., , , ,104.8572311,0301UWB5473,0301UWB5473_C,-78.2853012,43.2461014,8,Orleans,Lake,Centroid
W04140102001231,10800,66600,4500,0,0,0,540900,105300,41400,1800,49500,263700,23400,84600,21600,1214100,2.121824981,2.111846635,10.9484,1090.801291,Lake Ontario Eastern Section,3,Lake Ontario & Minor Tribs., , , ,1437.103394,0303UWB0017K,0303UWB0017K_C,-75.9394989,43.5130005,7,Oswego,Lake,Centroid
W02020005000820,323100,106200,19800,1800,0,0,174600,88200,272700,2700,90000,206100,0,113400,5400,1404000,2.436736053,2.106103276,110.21,3121.420061,Schoharie Creek *,12,Mohawk River Basin,1202-0044,Warners Lake,Mohawk River,1191.06543,1202WAR0609,1202WAR0609_C,-74.0791016,42.6250992,4,Albany,Lake,Centroid
W04140102001206,422100,77400,12600,4500,0,20700,177300,144900,9000,17100,5400,251100,66600,279000,46800,1534500,2.505720065,2.091537309,310.376,6161.012576,Lake Ontario Eastern Section,3,Lake Ontario & Minor Tribs.,0303-0065,South Pond,Lake Ontario,2012.880005,0303SOU0001,0303SOU0001_DH,-76.19037,43.62339,7,Oswego,Lake,Deep Hole
W04140101000880,1431900,646200,95400,8100,900,5400,4328100,67500,649800,81000,45000,724500,3204900,4466700,918900,16674300,2.185144662,2.083370816,464.036,12198.38071,Lake Ontario Central Section,3,Lake Ontario & Minor Tribs.,0302-0012,Port Bay,Lake Ontario,19744.25586,0302POR0089,0302POR0089_C,-76.8320999,43.2975998,8,Wayne,Lake,Centroid
W04140101000884,58500,163800,13500,900,0,0,1376100,18000,187200,16200,900,330300,897300,1719900,31500,4814100,2.08568698,2.072494132,14.5124,1540.339083,Lake Ontario Central Section,3,Lake Ontario & Minor Tribs., , , ,6594.723633,0302UWB0094,0302UWB0094_C,-76.8804016,43.259201,8,Wayne,Lake,Centroid
W02020004002998,63000,100800,9000,900,900,0,385200,54000,117000,24300,19800,50400,0,0,0,825300,2.153140496,2.065115715,35.5607,1641.708759,Mohawk River Main Stem,12,Mohawk River Basin,1201-0204,South (Utica) Reservoirs,Mohawk River,983.7976685,1201SOU0954,1201SOU0954_C,-75.2272034,43.0741005,6,Oneida,Lake,Centroid
W04120102000753,453600,3684600,396000,44100,900,141300,26100900,3420900,13059000,316800,299700,13572000,2268000,2606400,1238400,67602600,2.07175258,2.064561348,15.4818,1422.256327,"Eastern Lake Erie (Big Sister, 18 Mile Creeks)",1,Lake Erie-Niagara River Basin, , , ,55823.8125,,,0,0,0,,,
W04140101000942,0,900,1800,0,0,0,18900,900,6300,0,0,0,25200,46800,0,100800,2.053392857,2.053402778,8.340603265,743.202903,Lake Ontario Central Section,3,Lake Ontario & Minor Tribs., , , ,42.7163582,0302UWB5257,0302UWB5257_C,-77.5559006,43.050499,8,Monroe,Lake,Centroid
W04140101000882,27000,23400,3600,0,0,0,46800,5400,16200,0,0,35100,68400,108000,141300,475200,2.115863454,2.052464226,10.4586,1847.215374,Lake Ontario Central Section,3,Lake Ontario & Minor Tribs., , , ,728.6626587,,,0,0,0,,,
W04120102000700,13500,312300,23400,1800,0,0,3841200,414000,957600,22500,75600,1894500,359100,234900,126900,8277300,2.050278806,2.048565957,11.0834,906.2504636,"Eastern Lake Erie (Big Sister, 18 Mile Creeks)",1,Lake Erie-Niagara River Basin, , , ,6735.212891,0104MUD0134,0104MUD0134_C,-78.3623962,42.4230003,9,Cattaraugus,Lake,Centroid
W04150102000321,335700,42300,9900,900,0,0,35100,27000,21600,0,6300,249300,0,225000,25200,978300,2.585168067,2.041224573,175.984,4647.199682,Lake Ontario Eastern Section,3,Lake Ontario & Minor Tribs.,0303-0043,Hyde Lake,Lake Ontario,1299.923218,0303HYD0391,0303HYD0391_C,-75.8331985,44.2435989,6,Jefferson,Lake,Centroid
W02020004003016,82780200,107191800,36819000,12358800,3411900,3712500,644410800,234255600,327346200,11015100,19917000,351860400,69439500,257757300,29903400,2192179500,2.080306096,2.039512012,21.1255,2786.145239,Mohawk River Main Stem,12,Mohawk River Basin, , , ,2203324.25,1201UWB5008,1201UWB5008_C,-73.7889023,42.7916985,5,Saratoga,Lake,Centroid
W02020004003014,82988100,107424900,36930600,12363300,3411900,3717900,644467500,234315000,327942000,11015100,19939500,351980100,69449400,258861600,30120300,2194927200,2.080232464,2.039389907,42.3757,2809.375177,Mohawk River Main Stem,12,Mohawk River Basin, , , ,2206857.75,,,0,0,0,,,
W04120104001037,0,12600,900,0,0,0,187200,0,10800,4500,3600,365400,45900,487800,99000,1217700,2.032572062,2.032572883,7.066884739,631.9722639,Tonawanda Creek,1,Lake Erie-Niagara River Basin, , , ,563.7839966,,,0,0,0,,,
W04140102005387,2522700,6174000,1314000,226800,52200,195300,66417300,14445000,3880800,1623600,1092600,24044400,18441000,32670000,5238000,178337700,2.045748963,2.030956186,132.418,7561.399152,Lake Ontario Eastern Section,3,Lake Ontario & Minor Tribs.,0303-0054,Goose Pond,Lake Ontario,169374.4063,0303FLO1030C,0303FLO1030C_DH,-76.19781,43.72291,6,Jefferson,Lake,Deep Hole
W04130001001367,18900,31500,4500,0,0,0,83700,0,16200,0,0,45900,245700,463500,266400,1176300,2.046430793,2.029618295,35.6337,1647.573231,Lake Ontario Western Section,3,Lake Ontario & Minor Tribs., , , ,1092.954346,,,0,0,0,,,
W04130001001368,18900,31500,4500,0,0,0,83700,0,16200,0,0,45900,245700,463500,266400,1176300,2.046430793,2.029618295,7.931591668,779.3217715,Lake Ontario Western Section,3,Lake Ontario & Minor Tribs., , , ,1105.869263,,,0,0,0,,,
W04140101000917,0,0,0,0,0,0,0,0,3600,0,0,0,25200,41400,17100,87300,2.02185567,2.021867125,28.1327,1389.807389,Lake Ontario Central Section,3,Lake Ontario & Minor Tribs.,0302-0066,Mud Pond,Lake Ontario,233.5052643,0302MUD0101,0302MUD0101_C,-77.0593033,43.1533012,8,Wayne,Lake,Centroid
W04120102000697,59400,13500,2700,0,0,3600,81900,23400,101700,0,0,36000,45900,0,11700,379800,2.201207865,2.013343865,8.439348325,802.208458,"Eastern Lake Erie (Big Sister, 18 Mile Creeks)",1,Lake Erie-Niagara River Basin, , , ,401.9385986,0104LUC5718,0104LUC5718_C,-78.4831009,42.4472008,9,Cattaraugus,Lake,Centroid
W04130001001355,0,0,0,0,0,0,3600,0,0,0,0,0,183600,452700,1800,641700,2.012847125,2.012848683,7.920036331,660.6113163,Lake Ontario Western Section,3,Lake Ontario & Minor Tribs., , , ,537.5737915,,,0,0,0,,,
W04120102000737,39600,162000,5400,0,0,0,1269900,167400,472500,81000,5400,1186200,208800,1016100,414900,5029200,2.017907648,2.009892826,18.2202,1569.588855,"Eastern Lake Erie (Big Sister, 18 Mile Creeks)",1,Lake Erie-Niagara River Basin, , , ,1965.006714,,,0,0,0,,,
W04140101000866,776700,1377900,142200,23400,1800,14400,8896500,434700,1287000,145800,18000,2910600,5942700,14596200,1745100,38313000,2.027147961,2.006325138,104.873,3991.029944,Lake Ontario Central Section,3,Lake Ontario & Minor Tribs.,0302-0058,The Pond,Lake Ontario,52211.96484,0302THE0069,0302THE0069_DH,-76.69831799,43.342718,7,Cayuga,Lake,Deep Hole
W04120103000923,47700,6300,0,0,0,1800,205200,0,63900,0,1800,78300,70200,43200,900,519300,2.098091603,1.997228962,8.829957437,1324.258982,Buffalo River,1,Lake Erie-Niagara River Basin, , , ,307.3163757,0103BIP5370,0103BIP5370_C,-78.5690002,42.8727989,9,Erie,Lake,Centroid
W02020005000798,36000,0,0,0,0,0,3600,22500,9000,0,900,48600,3600,23400,2700,150300,2.295511811,1.985216234,14.7546,1176.441139,Schoharie Creek *,12,Mohawk River Basin, , , ,124.4581451,1202UWB5140,1202UWB5140_C,-74.4184036,42.7472,4,Schoharie,Lake,Centroid
W04130001001369,24300,9900,0,0,0,0,97200,6300,29700,0,0,108000,129600,362700,63000,830700,2.008571429,1.979069459,14.507,1133.061886,Lake Ontario Western Section,3,Lake Ontario & Minor Tribs., , , ,805.7252808,,,0,0,0,,,
W04120103000964,40500,7200,6300,0,0,0,65700,18900,58500,0,0,1800,43200,5400,900,248400,2.16038961,1.971199678,9.236322419,870.5867702,Buffalo River,1,Lake Erie-Niagara River Basin, , , ,632.7669067,0103UWB5477,0103UWB5477_C,-78.3986969,42.6577988,9,Wyoming,Lake,Centroid
W04130001001373,19800,13500,1800,0,0,0,67500,3600,27900,0,0,43200,24300,76500,27000,305100,2.037350158,1.970032776,7.149532887,698.9716304,Lake Ontario Western Section,3,Lake Ontario & Minor Tribs., , , ,144.2835236,,,0,0,0,,,
W04120102000674,131400,63000,12600,0,0,900,504000,132300,248400,0,17100,357300,8100,45000,55800,1575900,2.045314642,1.958155974,15.9469,1575.260493,"Eastern Lake Erie (Big Sister, 18 Mile Creeks)",1,Lake Erie-Niagara River Basin,0104-0069,Moores Pond,Lake Erie-Niagara River,1650.169556,0104MOO0146,0104MOO0146_C,-78.3427963,42.4742012,9,Cattaraugus,Lake,Centroid
W04130001001290,46800,0,0,0,0,0,62100,3600,9900,0,900,0,56700,24300,9000,213300,2.218540541,1.951186123,12.8522,1195.831215,Lake Ontario Western Section,3,Lake Ontario & Minor Tribs., , , ,313.4671936,0301PHE5222,0301PHE5222_C,-78.3442993,43.0513992,8,Genesee,Lake,Centroid
W02020005000886,3600,18000,0,0,0,0,3600,55800,31500,0,0,38700,0,45900,27900,225000,1.960243902,1.944884444,11.2152,856.2692488,Schoharie Creek * (w/I NY watershed),12,Mohawk River Basin, , , ,220.2440491,,,0,0,0,,,
W04120104001095,10800,28800,28800,17100,8100,25200,440100,18900,55800,0,0,393300,787500,2851200,228600,4894200,1.939283081,1.937210576,15.3224,1193.016635,Tonawanda Creek,1,Lake Erie-Niagara River Basin, , , ,3805.906494,,,0,0,0,,,
W04140101002450,281700,358200,21600,0,0,900,2585700,25200,248400,14400,18000,526500,974700,2618100,70200,7743600,1.967313955,1.932124722,233.743,4579.058949,Lake Ontario Central Section,3,Lake Ontario & Minor Tribs.,0302-0021,Blind Sodus Bay,Lake Ontario,8923.414063,0302BLI0077,0302BLI0077_C,-76.728302,43.3382988,8,Wayne,Lake,Centroid
W02020004002959,1800,0,0,0,0,0,11700,0,0,0,0,19800,0,21600,3600,58500,1.956825397,1.927401709,9.219487235,763.941876,West Canada Creek,12,Mohawk River Basin, , , ,120.6727753,1203UWB0796,1203UWB0796_C,-74.9508972,43.1497993,6,Herkimer,Lake,Centroid
W04120102000662,50400,63000,4500,0,0,0,580500,249300,275400,3600,9900,234900,205200,272700,2700,1952100,1.946332229,1.921900005,24.2111,1448.775572,"Eastern Lake Erie (Big Sister, 18 Mile Creeks)",1,Lake Erie-Niagara River Basin, , , ,1279.520386,,,0,0,0,,,
W04120103000968,18900,0,0,0,0,0,83700,8100,6300,0,900,36900,35100,40500,18000,248400,1.991411765,1.915982287,7.771783477,892.812523,Buffalo River,1,Lake Erie-Niagara River Basin, , , ,259.8246155,,,0,0,0,,,
W02020005000884,70200,330300,20700,5400,900,0,1367100,173700,602100,15300,12600,427500,0,521100,120600,3667500,1.931135852,1.913313156,7.349961697,763.0078284,Schoharie Creek *,12,Mohawk River Basin, , , ,3086.395752,1202UWB0636C,1202UWB0636C_C,-74.4011002,42.425499,4,Schoharie,Lake,Centroid
W04120104001192,443700,196200,16200,0,0,0,1778400,236700,780300,20700,3600,411300,552600,358200,55800,4853700,1.993032653,1.902254981,14.8094,1688.95674,Tonawanda Creek,1,Lake Erie-Niagara River Basin,0102-0039,Attica Reservoir,Lake Erie-Niagara River,4753.474121,0102ATT0020,0102ATT0020_DH,-78.25945,42.83261,9,Wyoming,Lake,Deep Hole
W02020004002999,35100,87300,3600,0,0,0,359100,54000,115200,18000,10800,15300,0,0,0,698400,1.944396201,1.896934422,33.9364,1505.702022,Mohawk River Main Stem,12,Mohawk River Basin,1201-0204,South (Utica) Reservoirs,Mohawk River,898.4621582,1201SOU0955,1201SOU0955_C,-75.2341003,43.0741005,6,Oneida,Lake,Centroid
W02020005000830,73800,73800,5400,0,0,900,153000,99000,498600,39600,20700,186300,0,18900,34200,1204200,1.954673567,1.89616675,31.5394,1977.962389,Schoharie Creek *,12,Mohawk River Basin, , , ,1320.299316,,,0,0,0,,,
W04140101000883,68400,168300,17100,8100,0,900,1134900,23400,150300,14400,5400,209700,659700,2141100,56700,4658400,1.894168627,1.881039627,15.0303,1168.203548,Lake Ontario Central Section,3,Lake Ontario & Minor Tribs., , , ,7060.610352,0302UWB0086,0302UWB0086_C,-76.7230988,43.2444992,8,Wayne,Lake,Centroid
W04120102005512,36900,50400,1800,0,0,0,444600,30600,42300,0,0,121500,0,1800,0,729900,1.92774026,1.880839841,13.8223,929.2262444,"Eastern Lake Erie (Big Sister, 18 Mile Creeks)",1,Lake Erie-Niagara River Basin, , , ,823.7684937,0104UWB5726,0104UWB5726_C,-78.3591003,42.3965988,9,Cattaraugus,Lake,Centroid
W04120103000957,4500,27000,4500,0,0,0,140400,29700,89100,0,0,36900,0,0,3600,335700,1.875788043,1.864051236,10.7697,997.0670383,"Eastern Lake Erie (Big Sister, 18 Mile Creeks)",1,Lake Erie-Niagara River Basin, , , ,332.999939,0104UWB5460,0104UWB5460_C,-78.7378998,42.7132988,9,Erie,Lake,Centroid
W04120101000801,269100,355500,54900,3600,0,0,3477600,739800,3240900,24300,27000,1727100,596700,370800,21600,10908900,1.885145491,1.863310875,7.008557254,889.7639423,Lake Erie West End (Silver Creek to Pa. Line),1,Lake Erie-Niagara River Basin, , , ,10445.04199,0105LSI0156,0105LSI0156_C,-79.1008987,42.5026016,9,Chautauqua,Lake,Centroid
W02020004002811,116100,123300,23400,7200,1800,0,1119600,387000,71100,20700,41400,1014300,2700,1341900,234000,4504500,1.878059885,1.855428793,11.7351,1615.950792,Mohawk River Main Stem,12,Mohawk River Basin, , , ,4310.354492,,,0,0,0,,,
W02020005000828,56700,45000,900,900,0,0,19800,158400,151200,0,0,48600,0,2700,0,484200,1.962063158,1.84940727,23.9079,1301.965695,Schoharie Creek *,12,Mohawk River Basin,1202-0015,Cobleskill Reservoirs,Mohawk River,711.1535645,1202UWB5133,1202UWB5133_C,-74.4480972,42.6618996,4,Schoharie,Lake,Centroid
W02020005000906,63900,86400,0,0,0,0,278100,59400,123300,0,2700,0,0,0,0,613800,1.94198036,1.843916585,18.9612,1201.992909,Schoharie Creek * (w/I NY watershed),12,Mohawk River Basin,1202-0069,Onteora Pond/Tannersville Reservoirs,Mohawk River,344.0499573,1202ONT0655C,1202ONT0655C_C,-74.151001,42.2164993,4,Greene,Lake,Centroid
W04120102000647,58500,16200,1800,0,0,0,2700,19800,35100,900,900,1800,0,0,0,137700,2.459204545,1.839288308,18.664,1488.571502,"Eastern Lake Erie (Big Sister, 18 Mile Creeks)",1,Lake Erie-Niagara River Basin,0104-0071,Hiram Lake,Lake Erie-Niagara River,446.3866882,0104HIR5501,0104HIR5501_C,-78.3358994,42.5444984,9,Wyoming,Lake,Centroid
W02020005000811,75600,11700,1800,0,0,0,99900,19800,72900,2700,15300,108000,0,84600,5400,497700,1.98663113,1.83676512,11.6141,1677.780115,Schoharie Creek *,12,Mohawk River Basin, , , ,511.4144592,1202UWB5245,1202UWB5245_C,-74.0794983,42.6435013,4,Albany,Lake,Centroid
W04120101000905,245700,115200,15300,900,0,0,1085400,360000,1175400,10800,15300,756000,194400,355500,19800,4349700,1.875822368,1.826350323,43.2172,1961.23252,Lake Erie West End (Silver Creek to Pa. Line),1,Lake Erie-Niagara River Basin,0105-0014,Silver Creek Reservoir,Lake Erie-Niagara River,4103.905273,0105SIL0157,0105SIL0157_C,-79.093399,42.4684982,9,Chautauqua,Lake,Centroid
W02020004002938,141300,30600,1800,0,0,0,6300,41400,2700,0,4500,0,0,19800,900,249300,2.885583333,1.816863217,40.0377,2022.004045,Mohawk River Main Stem,12,Mohawk River Basin,1201-0142,Mountain Lake,Mohawk River,320.4716797,1201MOU0691,1201MOU0691_C,-74.3700027,43.1064987,5,Fulton,Lake,Centroid
W02020005000810,28800,0,0,0,0,0,6300,5400,15300,0,1800,24300,0,4500,900,87300,2.212307692,1.812382589,7.062536375,747.5163408,Schoharie Creek *,12,Mohawk River Basin, , , ,155.584137,,,0,0,0,,,
W04120102000747,100800,75600,5400,0,0,0,333900,3600,161100,900,10800,41400,0,18900,20700,773100,1.92647925,1.805682318,25.3509,1803.282003,"Eastern Lake Erie (Big Sister, 18 Mile Creeks)",1,Lake Erie-Niagara River Basin,0104-0060,"Rainbow, Timber Lakes",Lake Erie-Niagara River,765.5045776,0104TIM5635,0104TIM5635_C,-78.6787033,42.3525009,9,Cattaraugus,Lake,Centroid
W04130001001363,70200,56700,8100,0,0,0,152100,3600,44100,0,0,89100,270000,699300,581400,1974600,1.833861059,1.80421655,76.9698,4092.716036,Lake Ontario Western Section,3,Lake Ontario & Minor Tribs., , , ,2051.867188,,,0,0,0,,,
W04140101000863,104400,0,0,0,0,0,32400,0,2700,3600,900,54000,36000,87300,30600,351900,2.136327273,1.799210003,23.6802,1382.211563,Lake Ontario Central Section,3,Lake Ontario & Minor Tribs.,0302-0051,McMullen Pond,Lake Ontario,671.1829224,0302MCM0067,0302MCM0067_C,-76.6123962,43.364399,7,Oswego,Lake,Centroid
W04120102000736,37800,19800,900,0,0,0,153000,0,15300,0,900,216000,22500,320400,212400,999000,1.828857678,1.797496496,8.884020966,887.9074074,"Eastern Lake Erie (Big Sister, 18 Mile Creeks)",1,Lake Erie-Niagara River Basin, , , ,357.0858765,,,0,0,0,,,
W04120103000965,66600,67500,3600,0,0,0,383400,40500,189900,5400,1800,176400,0,216900,3600,1155600,1.841206612,1.792726722,23.8499,1639.897823,Buffalo River,1,Lake Erie-Niagara River Basin,0103-0016,Orchard Park Reservoir,Lake Erie-Niagara River,1552.268311,0103ORC5454,0103ORC5454_C,-78.6511002,42.6903992,9,Erie,Lake,Centroid
W04120104001135,0,5400,8100,0,0,6300,27000,0,900,0,0,3600,0,81000,46800,179100,1.783668342,1.783673925,6.757039895,1048.305616,Tonawanda Creek,1,Lake Erie-Niagara River Basin, , , ,586.3600464,0102UWB5087,0102UWB5087_C,-78.6112976,42.963501,9,Erie,Lake,Centroid
W04140101000877,347400,453600,48600,18000,2700,6300,4469400,84600,562500,44100,8100,641700,1391400,4209300,468000,12755700,1.800659317,1.778853532,9.283254554,1157.425317,Lake Ontario Central Section,3,Lake Ontario & Minor Tribs., , , ,16845.57422,,,0,0,0,,,
W04120103000952,16200,0,0,0,0,0,46800,15300,54000,900,0,900,69300,114300,1800,319500,1.82,1.778425665,11.0515,1006.413262,Buffalo River,1,Lake Erie-Niagara River Basin,0103-0010,Beaver Meadow Pond,Lake Erie-Niagara River,653.902832,0103UWB5480,0103UWB5480_DH,-78.381349,42.673909,9,Wyoming,Lake,Deep Hole
W02020005000814,56700,3600,0,0,0,0,133200,900,117900,0,20700,198000,0,230400,45000,806400,1.818619448,1.761061508,10.4001,945.7825427,Schoharie Creek *,12,Mohawk River Basin, , , ,714.6879883,,,0,0,0,,,
W02020005000853,228600,27900,14400,0,900,0,26100,29700,25200,0,1800,0,0,4500,0,359100,3.070896552,1.752584238,62.9889,3439.164831,Schoharie Creek *,12,Mohawk River Basin,1202-0005,Onderdonk Lake,Mohawk River,396.2897949,1202OND0608,1202OND0608_C,-74.0848999,42.5442009,4,Albany,Lake,Centroid
W02020005000866,165600,27000,3600,0,0,900,19800,18000,21600,0,1800,0,0,1800,0,260100,3.05352381,1.74609381,43.913,2593.064733,Schoharie Creek *,12,Mohawk River Basin,1202-0037,Bear Gulch Pond,Mohawk River,414.9065247,1202BEA0596,1202BEA0596_DH,-74.59447,42.59413,4,Schoharie,Lake,Deep Hole
W04120104001197,380700,33300,900,0,0,0,305100,9900,45900,4500,900,180900,56700,178200,22500,1219500,2.080236052,1.74301189,176.046,4943.291083,Tonawanda Creek,1,Lake Erie-Niagara River Basin,0102-0040,Attica Water Supply Reservoir,Lake Erie-Niagara River,1494.780273,0102ATT0020A,0102ATT0020A_C,-78.2266006,42.7859001,9,Wyoming,Lake,Centroid
W02020004002976,1044900,683100,284400,78300,18000,11700,893700,3896100,356400,45000,113400,2502900,20700,7671600,1306800,18927000,1.776447229,1.733582079,29.9016,2655.838262,Mohawk River Main Stem,12,Mohawk River Basin,1201-0109,Harrower Pond,Mohawk River,22565.19141,,,0,0,0,,,
W02020004002969,36900,9000,2700,900,0,1800,0,32400,900,0,3600,900,0,38700,9900,137700,2.001607143,1.733209877,8.692114044,1093.074678,Mohawk River Main Stem,12,Mohawk River Basin, , , ,553.1516113,1201MAY0673,1201MAY0673_C,-74.3728027,43.0321999,5,Fulton,Lake,Centroid
W04140102001225,52200,6300,0,0,0,2700,26100,2700,0,0,17100,0,0,27000,0,134100,2.19989011,1.732826249,46.7564,3479.091084,Lake Ontario Eastern Section,3,Lake Ontario & Minor Tribs.,0303-0067,Lower Salmon River Reservoir,Lake Ontario,259.6080017,0303UWB5127,0303UWB5127_C,-75.9679031,43.5349007,7,Oswego,Lake,Centroid
W02020005000901,40500,16200,0,0,0,0,99000,18900,20700,0,6300,18000,0,0,0,219600,1.895628141,1.730455373,10.2111,786.4037638,Schoharie Creek * (w/I NY watershed),12,Mohawk River Basin, , , ,285.3617859,1202UWB5221,1202UWB5221_C,-74.3539963,42.2631989,4,Greene,Lake,Centroid
W04120102005511,28800,9000,1800,0,0,0,134100,0,24300,0,4500,900,50400,101700,0,355500,1.785592287,1.72195218,8.739539517,887.0885084,"Eastern Lake Erie (Big Sister, 18 Mile Creeks)",1,Lake Erie-Niagara River Basin, , , ,271.3874817,0104UWB5507,0104UWB5507_C,-78.3016968,42.5872002,9,Wyoming,Lake,Centroid
W02020005000883,5781600,16551900,2023200,521100,126000,881100,94808700,35892000,72836100,401400,1730700,23955300,259200,13040100,2219400,271027800,1.728141003,1.712608208,286.845,8622.698651,Schoharie Creek *,12,Mohawk River Basin,1202-0011,Lower Blenheim-Gilboa Reservoir,Mohawk River,227923.8906,1202BLE0630A,1202BLE0630A_C,-74.4542007,42.4431,4,Schoharie,Lake,Centroid
W04140102001234,290700,933300,180900,4500,900,5400,7785900,3331800,844200,287100,191700,3052800,427500,6876000,480600,24693300,1.713243712,1.704847145,72.5789,4394.702866,Lake Ontario Eastern Section,3,Lake Ontario & Minor Tribs., , , ,31125.27148,,,0,0,0,,,
W02020005000896,4193100,14765400,1839600,465300,116100,694800,88280100,32523300,67048200,347400,1494000,21372300,170100,11292300,1845000,246447000,1.708107226,1.696059347,1144.56,21964.13207,Schoharie Creek * (w/I NY watershed),12,Mohawk River Basin,1202-0012,Schoharie Reservoir,Mohawk River,201621.0625,1202SCH0638A,1202SCH0638A_C,-74.4412003,42.3662987,4,Schoharie,Lake,Centroid
W04140101000887,10800,73800,1800,0,0,900,426600,19800,91800,5400,3600,108000,216900,1219500,52200,2231100,1.69047426,1.687132356,28.5393,2486.264348,Lake Ontario Central Section,3,Lake Ontario & Minor Tribs., , , ,3404.261963,0302UWB0087,0302UWB0087_C,-76.7040024,43.2103004,7,Cayuga,Lake,Centroid
W04120103000953,45900,0,0,0,0,0,61200,15300,54000,900,0,900,72000,124200,2700,377100,1.779782609,1.684871387,7.886136276,732.9246727,Buffalo River,1,Lake Erie-Niagara River Basin,0103-0010,Beaver Meadow Pond,Lake Erie-Niagara River,733.3862915,0103UWB5479,0103UWB5479_C,-78.3830032,42.6693993,9,Wyoming,Lake,Centroid
W02020004002936,3553200,3558600,384300,65700,14400,110700,47447100,10747800,5984100,612000,865800,11055600,1985400,7835400,982800,95202900,1.708640814,1.682192654,2396.88,32976.6532,Mohawk River Main Stem,12,Mohawk River Basin,1201-0019,Delta Reservoir,Mohawk River,94078.40625,1201DEL1059,1201DEL1059_BEACH_1,-75.463116,43.291493,6,Oneida,Lake,Shore
W04130001001228,324900,57600,21600,900,0,0,85500,0,5400,4500,0,47700,60300,112500,520200,1241100,1.911797642,1.673104504,218.878,5071.688406,Lake Ontario Western Section,3,Lake Ontario & Minor Tribs.,0301-0016,Cranberry Pond,Lake Ontario,860.8066406,0301CRA0155,0301CRA0155_C,-77.6973038,43.300499,8,Monroe,Lake,Centroid
W04120104001185,175500,41400,2700,0,0,0,850500,34200,231300,1800,900,360900,39600,314100,31500,2084400,1.731107968,1.66955143,57.2639,3139.47061,Tonawanda Creek,1,Lake Erie-Niagara River Basin,0102-0033,Akron Reservoir,Lake Erie-Niagara River,1633.225464,0102AKR0013,0102AKR0013_C,-78.3575974,42.8675003,9,Wyoming,Lake,Centroid
W02020005000874,28800,14400,900,0,0,0,46800,5400,61200,0,8100,57600,0,172800,9900,405900,1.711789976,1.661288495,11.2961,981.9417815,Schoharie Creek *,12,Mohawk River Basin,1202-0051,Brozie/Baldwin Pond,Mohawk River,362.9082031,1202BAL0627,1202BAL0627_C,-74.5971985,42.5508995,4,Schoharie,Lake,Centroid
W04120104015111,69300,6300,10800,0,0,0,4500,0,0,0,900,80100,0,40500,289800,502200,1.75956341,1.654751095,12.1044,1430.965206,Tonawanda Creek,1,Lake Erie-Niagara River Basin, , , ,247.6011658,,,0,0,0,,,
W04120104001075,30600,5400,2700,0,0,0,9900,1800,27000,0,0,21600,0,64800,3600,167400,1.794013158,1.648876941,9.585070423,770.4023487,Tonawanda Creek,1,Lake Erie-Niagara River Basin, , , ,75.4703979,,,0,0,0,,,
W04150102000326,260100,22500,2700,0,0,0,45000,0,24300,0,9900,73800,0,89100,57600,585000,2.159556787,1.644001709,82.741,3074.878987,Lake Ontario Eastern Section,3,Lake Ontario & Minor Tribs., , , ,1226.468018,0303GEO5008,0303GEO5008_C,-76.1010971,44.1297989,6,Jefferson,Lake,Centroid
W02020004002977,30600,100800,33300,1800,0,0,351900,306000,875700,5400,68400,416700,17100,1100700,115200,3423600,1.647397878,1.641611754,8.837892521,1110.64263,Mohawk River Main Stem,12,Mohawk River Basin, , , ,3649.864746,,,0,0,0,,,
W04130001001247,30600,63000,16200,900,900,11700,267300,0,24300,4500,900,147600,190800,1790100,44100,2592900,1.649223744,1.641562343,8.836995934,856.908278,Lake Ontario Western Section,3,Lake Ontario & Minor Tribs.,0301-0031,McCargo/Jefferson Lake,Lake Ontario,2211.902344,0301MCC0162S,0301MCC0162S_C,-78.0940018,43.2330017,8,Orleans,Lake,Centroid
W04120104001114,76500,9000,0,0,0,900,1800,0,900,0,900,0,900,9900,2700,103500,3.415666667,1.630183575,30.442,1378.591314,Tonawanda Creek,1,Lake Erie-Niagara River Basin, , , ,518.2310181,0102UWB5107,0102UWB5107_C,-78.6268005,42.9780998,9,Erie,Lake,Centroid
W02020005000861,42300,3600,900,0,0,0,22500,13500,3600,0,17100,0,0,5400,1800,110700,1.999210526,1.617407407,12.1956,989.0202399,Schoharie Creek *,12,Mohawk River Basin, , , ,103.3422852,1202UWB0594,1202UWB0594_C,-74.5768967,42.6053009,4,Schoharie,Lake,Centroid
W04120102000703,306900,16200,11700,2700,0,3600,5400,0,6300,0,0,900,0,0,900,354600,5.57245283,1.615078962,143.485,5441.746351,"Eastern Lake Erie (Big Sister, 18 Mile Creeks)",1,Lake Erie-Niagara River Basin,0104-0001,Lime Lake,Lake Erie-Niagara River,961.2810059,0104LIM0130,0104LIM0130_C,-78.4792023,42.4273987,9,Cattaraugus,Lake,Centroid
W02020004002884,28800,7200,0,0,0,0,10800,12600,4500,0,2700,0,0,14400,0,81000,1.941206897,1.606567901,6.817073998,651.9210111,Mohawk River Main Stem,12,Mohawk River Basin, , , ,188.2371979,1201UWB0770A,1201UWB0770A_C,-74.6492996,43.2471008,5,Fulton,Lake,Centroid
W02020005000805,35100,0,0,0,0,0,14400,16200,0,0,0,18900,0,900,0,85500,2.0275,1.605695906,9.858958733,804.2587592,Schoharie Creek *,12,Mohawk River Basin,1202-0016,Central Bridge Reservoirs,Mohawk River,49.1185913,1202UWB0579,1202UWB0579_C,-74.3600998,42.7116013,4,Schoharie,Lake,Centroid
W04120104001159,0,18000,18000,900,0,7200,127800,0,7200,7200,4500,16200,0,333000,46800,586800,1.586564417,1.586566121,29.8624,1724.475196,Tonawanda Creek,1,Lake Erie-Niagara River Basin, , , ,3003.314941,,,0,0,0,,,
W02020005000902,77400,36000,1800,0,0,0,67500,343800,108000,0,1800,75600,0,35100,0,747000,1.651505376,1.584001339,24.4337,1504.136299,Schoharie Creek * (w/I NY watershed),12,Mohawk River Basin, , , ,415.3780518,1202UWB5219,1202UWB5219_C,-74.3135986,42.2551994,4,Greene,Lake,Centroid
W02020004002922,70200,12600,0,0,0,0,3600,36900,3600,0,1800,0,0,7200,0,135900,2.201369863,1.58080206,18.035,1224.895353,Mohawk River Main Stem,12,Mohawk River Basin,1201-0172,Mud Lake,Mohawk River,103.1221008,1201MUD0726,1201MUD0726_C,-74.5270004,43.172699,5,Fulton,Lake,Centroid
W02020005000885,150300,16200,7200,5400,2700,0,162900,4500,17100,2700,8100,8100,900,33300,9000,428400,1.892653722,1.579477124,30.5797,1452.377454,Schoharie Creek *,12,Mohawk River Basin, , , ,597.355896,1202UWB0643A,1202UWB0643A_C,-74.5817032,42.4404984,4,Schoharie,Lake,Centroid
W02020005000905,0,45900,0,900,0,0,196200,65700,179100,7200,0,21600,0,44100,36000,596700,1.576757164,1.57675884,9.147878018,990.4540815,Schoharie Creek * (w/I NY watershed),12,Mohawk River Basin, , , ,380.0559082,1202UWB5241,1202UWB5241_C,-74.132103,42.2165985,4,Greene,Lake,Centroid
W04140102001172,34200,149400,4500,0,0,0,1776600,632700,78300,10800,1800,356400,67500,632700,10800,3755700,1.576220073,1.570973187,16.2642,1420.568862,Lake Ontario Eastern Section,3,Lake Ontario & Minor Tribs., , , ,3828.154785,0303UWB1038,0303UWB1038_C,-76.0371017,43.7408981,6,Jefferson,Lake,Centroid
W04120101000906,83700,42300,0,0,0,0,392400,35100,297000,0,900,146700,0,160200,1800,1160100,1.608085284,1.56421343,33.5981,2371.569708,Lake Erie West End (Silver Creek to Pa. Line),1,Lake Erie-Niagara River Basin,0105-0034,East Mud Lake,Lake Erie-Niagara River,1173.980957,0105EMU0144,0105EMU0144_C,-79.0988007,42.4323997,9,Chautauqua,Lake,Centroid
W02020004003013,135900,6300,6300,0,0,0,900,900,9000,0,900,7200,0,12600,0,180000,3.266530612,1.555305556,50.4914,2355.380992,Mohawk River Main Stem,12,Mohawk River Basin,1201-0077,Collins Lake,Mohawk River,168.9257507,1201COL0519,1201COL0519_C,-73.9537964,42.8258018,4,Schenectady,Lake,Centroid
W04120104015112,23400,9000,8100,2700,0,0,0,0,0,0,0,1800,0,15300,171000,231300,1.617142857,1.554712495,35.9761,1922.559157,Tonawanda Creek,1,Lake Erie-Niagara River Basin, , , ,173.9053192,,,0,0,0,,,
W04120104001096,4500,0,0,0,0,0,4500,0,0,0,0,18900,0,60300,6300,94500,1.5754,1.548010582,9.362801894,993.7286631,Tonawanda Creek,1,Lake Erie-Niagara River Basin, , , ,187.4781647,,,0,0,0,,,
W04120102000678,99000,22500,10800,0,0,0,176400,10800,45000,0,2700,4500,0,12600,22500,406800,1.720964912,1.545511308,27.8662,1563.58814,"Eastern Lake Erie (Big Sister, 18 Mile Creeks)",1,Lake Erie-Niagara River Basin,0104-0070,Crystal Lake,Lake Erie-Niagara River,408.9914856,0104CRY0147,0104CRY0147_DH,-78.34369899,42.4631399,9,Cattaraugus,Lake,Deep Hole
W04120102000717,43200,126000,3600,0,0,3600,795600,361800,904500,7200,46800,151200,0,0,0,2443500,1.554090739,1.544295069,15.6397,1569.646322,"Eastern Lake Erie (Big Sister, 18 Mile Creeks)",1,Lake Erie-Niagara River Basin, , , ,2042.739136,0104UWB5662,0104UWB5662_C,-78.6374969,42.4352989,9,Cattaraugus,Lake,Centroid
W02020005000894,50400,258300,9900,0,0,0,2757600,292500,880200,19800,65700,434700,0,643500,33300,5445900,1.54912427,1.544042491,11.9048,906.2715582,Schoharie Creek * (w/I NY watershed),12,Mohawk River Basin, , , ,3956.331543,1202UWB5229,1202UWB5229_C,-74.2472,42.3333015,4,Greene,Lake,Centroid
W04120102000748,56700,1800,4500,0,0,0,0,3600,4500,0,0,0,0,2700,0,73800,3.325789474,1.538915989,11.4029,987.4464853,"Eastern Lake Erie (Big Sister, 18 Mile Creeks)",1,Lake Erie-Niagara River Basin,0104-0060,"Rainbow, Timber Lakes",Lake Erie-Niagara River,180.420929,0104RAI5630,0104RAI5630_C,-78.6981964,42.3520012,9,Cattaraugus,Lake,Centroid
W04140101000915,72000,22500,8100,0,0,0,65700,15300,155700,0,0,0,0,0,7200,346500,1.676163934,1.535665224,17.8001,1990.221776,Lake Ontario Central Section,3,Lake Ontario & Minor Tribs.,0302-0037,"Durand, Eastman Lakes",Lake Ontario,159.7342987,0302DUR0148A,0302DUR0148A_C,-77.5576019,43.2332993,8,Monroe,Lake,Centroid
W04120102005513,9900,0,0,0,0,0,2700,0,10800,0,0,6300,0,2700,0,32400,1.7672,1.532808642,15.2086,1022.535417,"Eastern Lake Erie (Big Sister, 18 Mile Creeks)",1,Lake Erie-Niagara River Basin, , , ,242.9978333,,,0,0,0,,,
W02020004003051,78300,5400,9900,1800,0,900,47700,10800,8100,4500,0,18900,1800,130500,19800,338400,1.681072664,1.523486998,10.7655,1051.48526,Mohawk River Main Stem,12,Mohawk River Basin,1202-0036,"Clausen, Bowmaker Ponds",Mohawk River,736.696228,1201BOW0589C,1201BOW0589C_C,-74.6249008,42.7821999,4,Schoharie,Lake,Centroid
W02020005000812,59400,0,0,0,0,0,21600,12600,13500,0,0,25200,0,0,0,132300,1.947160494,1.52191232,14.6781,1166.669247,Schoharie Creek *,12,Mohawk River Basin,1202-0034,Russell Lake,Mohawk River,210.0178986,1202RUS0584,1202RUS0584_C,-74.4830017,42.7168999,4,Schoharie,Lake,Centroid
W04120102000660,40500,0,0,0,0,0,12600,2700,9900,8100,900,12600,0,0,0,87300,1.960576923,1.514959908,8.431978813,947.8687666,"Eastern Lake Erie (Big Sister, 18 Mile Creeks)",1,Lake Erie-Niagara River Basin, , , ,53.4547272,0104UWB5423,0104UWB5423_C,-78.6200027,42.5443993,9,Erie,Lake,Centroid
W02020005000889,69300,9000,0,0,0,0,30600,33300,28800,0,0,25200,0,38700,3600,238500,1.722978723,1.512909853,17.1213,1287.016182,Schoharie Creek * (w/I NY watershed),12,Mohawk River Basin, , , ,113.7891998,1202UWB5201,1202UWB5201_C,-74.5296021,42.4115982,4,Schoharie,Lake,Centroid
W02020005000804,900,9900,900,0,0,0,102600,69300,148500,0,27900,15300,8100,4500,7200,395100,1.513105023,1.51193875,8.600729738,874.1642973,Schoharie Creek *,12,Mohawk River Basin, , , ,297.6002197,,,0,0,0,,,
W02020005000873,126000,8100,4500,0,0,0,20700,1800,5400,0,900,2700,0,0,0,170100,2.964489796,1.509318048,39.6887,1927.373901,Schoharie Creek *,12,Mohawk River Basin,1202-0014,Summit Lake,Mohawk River,248.9045715,1202SUM0629,1202SUM0629_C,-74.5814972,42.5831985,4,Schoharie,Lake,Centroid
W04120104001085,33300,0,0,0,0,0,22500,0,2700,0,0,0,11700,11700,0,81900,1.852222222,1.505726496,8.549952852,723.2585664,Tonawanda Creek,1,Lake Erie-Niagara River Basin, , , ,23.1591415,0102UWB5134,0102UWB5134_C,-78.4384003,42.9934006,8,Genesee,Lake,Centroid
W04140101000872,17100,36900,2700,0,0,0,340200,6300,67500,2700,0,50400,172800,1165500,122400,1984500,1.502429094,1.498100277,14.5444,2236.919691,Lake Ontario Central Section,3,Lake Ontario & Minor Tribs., , , ,2657.07251,,,0,0,0,,,
W04120104001207,59400,45900,2700,0,0,0,1215900,72000,231300,81000,1800,45900,195300,457200,17100,2425500,1.504324838,1.491974438,13.2253,1237.436311,Tonawanda Creek,1,Lake Erie-Niagara River Basin, , , ,1237.747925,0102UWB5266,0102UWB5266_C,-78.283699,42.6641998,9,Wyoming,Lake,Centroid
W04140102001277,59400,0,0,0,0,0,21600,9000,900,0,3600,18000,0,5400,0,117900,1.991384615,1.491916879,10.8465,1194.493259,Lake Ontario Eastern Section,3,Lake Ontario & Minor Tribs., , , ,106.2574158,0303UWB0059A,0303UWB0059A_C,-76.3061981,43.3935013,7,Oswego,Lake,Centroid
W04140102001218,90000,563400,20700,0,0,0,10503000,680400,1107900,112500,218700,857700,375300,1482300,230400,16242300,1.482267788,1.479595562,13.654,1209.861123,Lake Ontario Eastern Section,3,Lake Ontario & Minor Tribs., , , ,11366.78125,,,0,0,0,,,
W02020005000846,95400,52200,11700,0,0,900,333900,79200,266400,0,87300,16200,0,348300,56700,1348200,1.515718391,1.479226376,12.0373,1324.910842,Schoharie Creek *,12,Mohawk River Basin, , , ,1255.520386,1202UWB5174,1202UWB5174_C,-74.0940018,42.573101,4,Albany,Lake,Centroid
W02020004003057,77400,6300,0,0,0,0,0,5400,3600,0,9000,0,0,19800,1800,123300,2.285098039,1.478402271,38.6949,1535.969621,Mohawk River Main Stem,12,Mohawk River Basin,1201-0114,Featherstonhaugh Lake,Mohawk River,355.6114502,1201FEA0571,1201FEA0571_DH,-74.115836,42.814377,4,Schenectady,Lake,Deep Hole
W02020004002972,3600,88200,18900,33300,28800,0,1626300,750600,910800,46800,16200,209700,0,8100,0,3741300,1.47258849,1.472134018,11.9149,1067.6232,Mohawk River Main Stem,12,Mohawk River Basin,1201-0210,Marcy Reservoir,Mohawk River,2774.016846,1201RES0955E,1201RES0955E_C,-75.288002,43.1688004,6,Oneida,Lake,Centroid
W04140101000948,22500,5400,1800,0,0,0,11700,0,9000,0,0,1800,0,33300,18900,104400,1.592747253,1.465009579,6.854092165,642.5561549,Lake Ontario Central Section,3,Lake Ontario & Minor Tribs., , , ,107.0096664,0302ROU0144,0302ROU0144_C,-77.5632019,43.0189018,8,Monroe,Lake,Centroid
W02020005000852,24300,7200,0,0,0,0,1800,34200,17100,0,900,0,0,10800,900,97200,1.614444444,1.460843621,6.653400022,828.6493681,Schoharie Creek *,12,Mohawk River Basin, , , ,160.0245514,1202WOO0605D,1202WOO0605D_C,-74.1828003,42.5672989,4,Albany,Lake,Centroid
W04140102001253,60300,17100,0,0,0,1800,27900,169200,1800,900,24300,1800,0,83700,900,389700,1.542868852,1.458870926,6.788489903,725.7862128,Lake Ontario Eastern Section,3,Lake Ontario & Minor Tribs., , , ,446.0780945,,,0,0,0,,,
W04140102001251,59400,0,0,0,0,1800,3600,67500,0,900,24300,0,0,0,900,158400,1.733909091,1.458699495,17.4631,1300.876434,Lake Ontario Eastern Section,3,Lake Ontario & Minor Tribs., , , ,297.1664124,0303UWB5119,0303UWB5119_C,-75.9722977,43.467701,7,Oswego,Lake,Centroid
W02020004002945,1003500,202500,32400,0,0,0,297900,1563300,205200,900,48600,309600,2700,1350900,200700,5218200,1.565718556,1.456926718,526.317,10935.81693,Mohawk River Main Stem,12,Mohawk River Basin,1201-0110,Galway Lake (Amsterdam Reservoir),Mohawk River,5975.444336,1201GAL0563,1201GAL0563_C,-74.074501,43.0307007,5,Saratoga,Lake,Centroid
W02020004002929,677700,190800,52200,6300,0,0,609300,470700,498600,1800,16200,14400,0,846000,99000,3483000,1.566381136,1.456178582,540.621,12067.83572,Mohawk River Main Stem,12,Mohawk River Basin,1201-0144,West Caroga Lake,Mohawk River,4857.958008,1201ECA0697,1201ECA0697_C,-74.4800034,43.1278,5,Fulton,Lake,Centroid
W02020004002950,50400,7200,900,0,0,0,6300,50400,900,0,1800,0,0,0,0,117900,1.782,1.447718405,18.461,1785.211053,Mohawk River Main Stem,12,Mohawk River Basin,1201-0136,Mud Lake,Mohawk River,204.4635162,1201MUD0685,1201MUD0685_C,-74.4176025,43.0880013,5,Fulton,Lake,Centroid
W04130001001224,29700,0,900,0,0,0,13500,0,9000,0,0,5400,2700,0,7200,68400,1.779767442,1.44119883,7.379225512,684.2668108,Lake Ontario Western Section,3,Lake Ontario & Minor Tribs., , , ,24.7046738,0301UWB5407,0301UWB5407_C,-77.9384995,43.3538017,8,Monroe,Lake,Centroid
W02020004003027,107100,18900,5400,0,0,0,165600,54000,126900,0,900,35100,0,43200,0,557100,1.54482,1.44008257,37.6994,1750.739602,Mohawk River Main Stem,12,Mohawk River Basin,1201-0198,Ilion Reservoir No.3,Mohawk River,894.8917236,1201UWB0940A,1201UWB0940A_DH,-75.03135701,42.98659896,6,Herkimer,Lake,Deep Hole
W02020005000800,48600,4500,0,900,0,0,13500,7200,22500,0,7200,18000,0,99900,3600,225900,1.559543147,1.439167773,22.8183,1455.889766,Schoharie Creek *,12,Mohawk River Basin,1202-0042,Echo Pond,Mohawk River,383.8304749,1202ECH0605,1202ECH0605_C,-74.1939011,42.7081985,4,Schoharie,Lake,Centroid
W04130001001323,57600,0,0,0,0,900,28800,0,0,0,0,900,9900,900,1800,100800,2.020833333,1.437509921,17.656,1183.409751,Lake Ontario Western Section,3,Lake Ontario & Minor Tribs., , , ,64.9912033,,,0,0,0,,,
W02020005000838,79200,31500,7200,0,0,900,149400,50400,177300,0,900,11700,0,90000,35100,633600,1.49400974,1.432260101,10.2569,1070.180356,Schoharie Creek *,12,Mohawk River Basin, , , ,653.4367065,1202WOO0607,1202WOO0607_C,-74.0777969,42.5828018,4,Albany,Lake,Centroid
W04140102001255,209700,482400,54000,1800,900,4500,4093200,1732500,492300,135000,138600,614700,63000,4782600,303300,13108500,1.436980184,1.429989778,13.1364,1716.264281,Lake Ontario Eastern Section,3,Lake Ontario & Minor Tribs., , , ,16007.60254,0303UWB0029,0303UWB0029_C,-76.1490021,43.4919014,7,Oswego,Lake,Centroid
W02020005000911,102600,90000,21600,3600,0,2700,282600,323100,671400,0,19800,3600,0,308700,28800,1858500,1.440502307,1.416184557,20.3907,1475.03315,Schoharie Creek * (w/I NY watershed),12,Mohawk River Basin,1202-0070,Lake Rip Van Winkle,Mohawk River,1737.565674,1202RIP0656A,1202RIP0656A_C,-74.1276016,42.1916008,4,Greene,Lake,Centroid
W04120104015109,132300,9900,9900,1800,0,0,0,0,0,0,1800,33300,0,32400,335700,557100,1.541504237,1.412909711,249.208,7695.809369,Tonawanda Creek,1,Lake Erie-Niagara River Basin, , , ,625.6575928,,,0,0,0,,,
W02020005000818,40500,0,0,0,0,0,16200,0,1800,0,0,12600,0,13500,0,84600,1.782857143,1.408096927,8.195733823,808.9481083,Schoharie Creek *,12,Mohawk River Basin, , , ,89.3407669,1202UWB5153,1202UWB5153_C,-74.6511993,42.7299995,4,Schoharie,Lake,Centroid
W04130001001395,15300,1800,2700,1800,0,0,3600,0,1800,0,0,900,0,0,76500,104400,1.475656566,1.405957854,12.4654,1188.610601,Lake Ontario Western Section,3,Lake Ontario & Minor Tribs., , , ,112.1409073,0301UWB5304,0301UWB5304_C,-77.7293015,43.3093987,8,Monroe,Lake,Centroid
W04120101000808,117900,161100,37800,3600,900,7200,2122200,352800,1458000,8100,1800,199800,0,45900,26100,4543200,1.416286353,1.40548358,49.0983,2595.826368,Lake Erie West End (Silver Creek to Pa. Line),1,Lake Erie-Niagara River Basin,0105-0021,Fredonia Reservoir,Lake Erie-Niagara River,3431.114502,0105FRE0160,0105FRE0160_C,-79.3110962,42.3919983,9,Chautauqua,Lake,Centroid
W02020004002873,82800,35100,8100,0,0,0,141300,70200,40500,1800,0,2700,0,277200,7200,666900,1.461278891,1.404009597,25.0019,1218.655423,Mohawk River Main Stem,12,Mohawk River Basin,1201-0169,Stoner Lakes,Mohawk River,999.8217773,1201EST0723,1201EST0723_C,-74.5128021,43.233799,5,Hamilton,Lake,Centroid
W04120104001052,749700,9000,4500,6300,18900,1800,0,0,0,0,0,8100,0,0,0,798300,7.546666667,1.398558186,782.237,7201.172099,Niagara River Main Stem,1,Lake Erie-Niagara River Basin, , , ,1911.173584,,,0,0,0,,,
W04120101000932,4500,0,0,0,0,8100,70200,9000,29700,0,6300,3600,0,41400,41400,214200,1.402188841,1.393744164,13.2996,1668.733376,Lake Erie West End (Silver Creek to Pa. Line),1,Lake Erie-Niagara River Basin, , , ,634.7401123,0105UWB0176,0105UWB0176_C,-79.6296997,42.2011986,9,Chautauqua,Lake,Centroid
W04120104001221,64800,5400,0,0,0,0,131400,26100,34200,0,3600,13500,16200,50400,900,346500,1.479169329,1.389561328,31.5224,1991.682081,Tonawanda Creek,1,Lake Erie-Niagara River Basin, , , ,591.2927246,0102FAU0021A,0102FAU0021A_DH,-78.289837,42.64061,9,Wyoming,Lake,Deep Hole
W04120104001220,183600,12600,900,900,0,0,154800,26100,34200,0,4500,13500,18000,50400,10800,510300,1.605647383,1.387744464,44.2824,2093.203893,Tonawanda Creek,1,Lake Erie-Niagara River Basin,0102-0043,Faun Lake,Lake Erie-Niagara River,726.4227295,0102FAU0021A,0102FAU0021A_C,-78.2873993,42.6451988,9,Wyoming,Lake,Centroid
W04120104001049,21600,4500,1800,0,0,1800,40500,0,0,0,0,5400,0,83700,16200,175500,1.430526316,1.37754416,17.8416,1874.94709,Tonawanda Creek,1,Lake Erie-Niagara River Basin, , , ,152.5390625,0102UWB5194,0102UWB5194_C,-78.5033035,43.0808983,9,Erie,Lake,Centroid
W02020004002881,428400,96300,12600,0,0,0,690300,106200,206100,1800,5400,2700,0,321300,9000,1880100,1.464190949,1.358420829,81.8728,2757.974679,Mohawk River Main Stem,12,Mohawk River Basin,1201-0169,Stoner Lakes,Mohawk River,2527.646729,1201STO0721,1201STO0721_DH,-74.51549,43.22855,5,Fulton,Lake,Deep Hole
W04120103000975,52200,0,0,0,0,0,18000,0,0,0,0,13500,0,15300,4500,103500,1.721052632,1.357400966,16.2617,1059.874569,"Eastern Lake Erie (Big Sister, 18 Mile Creeks)",1,Lake Erie-Niagara River Basin, , , ,129.8783722,0104ECK5520,0104ECK5520_C,-78.8392029,42.6846008,9,Erie,Lake,Centroid
W04150102002003,21600,5400,0,0,0,0,12600,4500,3600,900,0,0,0,9900,36900,95400,1.445609756,1.344727463,6.912960209,844.2890385,Lake Ontario Eastern Section,3,Lake Ontario & Minor Tribs., , , ,122.2518311,,,0,0,0,,,
W02020004003034,320400,36000,19800,5400,0,900,310500,11700,109800,0,13500,17100,0,504900,3600,1353600,1.447709059,1.341736111,120.657,4303.080694,Mohawk River Main Stem,12,Mohawk River Basin,1201-0113,Mariaville Lake,Mohawk River,2046.263916,1201MAR0570,1201MAR0570_DH,-74.13386,42.8261,4,Schenectady,Lake,Deep Hole
W02020004002973,3880800,1033200,177300,14400,0,19800,4208400,5621400,3366900,26100,111600,168300,0,5651100,437400,24716700,1.39641441,1.334172928,32.4653,2503.978065,Mohawk River Main Stem,12,Mohawk River Basin, , , ,33152.89844,1201GAR0683A,1201GAR0683A_C,-74.5201035,43.0409012,5,Fulton,Lake,Centroid
W02020005000855,185400,74700,900,0,0,0,418500,318600,284400,0,4500,0,0,86400,3600,1377000,1.38510574,1.333255628,17.8963,1153.960774,Schoharie Creek *,12,Mohawk River Basin,1202-0006,"White Birch Pond, Fawn Lake",Mohawk River,1586.177979,1202FAW0605B,1202FAW0605B_C,-74.1679001,42.5621986,4,Albany,Lake,Centroid
W02020005000864,57600,0,0,0,0,0,27900,0,0,0,18900,0,0,27000,5400,136800,1.575113636,1.332967836,30.0053,1403.358419,Schoharie Creek *,12,Mohawk River Basin,1202-0049,Rossman Fly,Mohawk River,142.6785736,1202ROS0616,1202ROS0616_C,-74.5310974,42.5965004,4,Schoharie,Lake,Centroid
W02020004002940,124200,71100,9000,0,0,0,152100,856800,151200,900,34200,75600,0,819000,90000,2384100,1.340557547,1.322816576,39.3898,2530.697178,Mohawk River Main Stem,12,Mohawk River Basin,1201-0111,Lake Butterfield,Mohawk River,2636.141113,1201BUT0564,1201BUT0564_C,-74.0915985,43.0513992,5,Saratoga,Lake,Centroid
W02020004003029,144900,18900,13500,2700,0,900,264600,1800,100800,0,3600,10800,0,252000,1800,816300,1.389892761,1.320684797,39.2348,1896.590358,Mohawk River Main Stem,12,Mohawk River Basin,1201-0113,Mariaville Lake,Mohawk River,952.5737305,,,0,0,0,,,
W04140102001270,53100,14400,0,0,0,0,113400,64800,34200,900,1800,19800,22500,331200,53100,709200,1.342030178,1.31642273,7.883552581,1269.636305,Lake Ontario Eastern Section,3,Lake Ontario & Minor Tribs.,0303-0088,Grays Millpond,Lake Ontario,1122.928223,0303GRA0037,0303GRA0037_C,-76.1675034,43.4031982,7,Oswego,Lake,Centroid
W02020004002952,69300,7200,900,0,0,900,80100,101700,23400,0,19800,11700,0,88200,25200,428400,1.375413534,1.314687208,15.3924,1409.670482,Mohawk River Main Stem,12,Mohawk River Basin, , , ,521.5940552,1201UWB0685E,1201UWB0685E_C,-74.4259033,43.0797005,5,Fulton,Lake,Centroid
W02020005000851,227700,81900,900,0,0,0,526500,343800,363600,0,4500,0,0,86400,3600,1638900,1.355382653,1.306008298,11.9034,941.2231967,Schoharie Creek *,12,Mohawk River Basin,1202-0006,"White Birch Pond, Fawn Lake",Mohawk River,1848.870117,1202WHI0605A,1202WHI0605A_C,-74.1568985,42.5657997,4,Albany,Lake,Centroid
W04140101000949,20700,0,0,0,0,0,23400,0,0,0,900,6300,0,8100,4500,63900,1.449791667,1.304100156,7.80504525,768.3271882,Lake Ontario Central Section,3,Lake Ontario & Minor Tribs., , , ,44.050293,0302UWB5262,0302UWB5262_C,-77.5354996,43.0045013,8,Monroe,Lake,Centroid
W02020004002836,76500,41400,0,0,0,0,388800,130500,92700,900,2700,0,0,106200,1800,841500,1.330082353,1.300076055,10.2493,1262.34913,West Canada Creek,12,Mohawk River Basin,1203-0038,Lake Gay,Mohawk River,604.6759644,,,0,0,0,,,
W02020004002767,14400,0,0,0,0,0,45000,59400,44100,0,23400,0,0,1800,0,188100,1.324663212,1.299813929,9.987355209,1306.939907,West Canada Creek,12,Mohawk River Basin,1203-0071,Minor Lakes Trib to Metcalf Brook,Mohawk River,172.6773376,1203FAR0896A,1203FAR0896A_C,-74.6764984,43.4580994,5,Hamilton,Lake,Centroid
W02020004002966,3755700,910800,135000,11700,0,2700,3889800,5055300,3245400,26100,108000,102600,0,5467500,433800,23144400,1.357414938,1.29941636,34.0394,2640.212741,Mohawk River Main Stem,12,Mohawk River Basin,1201-0133,Rockwood Lake,Mohawk River,31213.06836,1201ROC0685A,1201ROC0685A_C,-74.5031967,43.0653,5,Fulton,Lake,Centroid
W02020005000893,58500,37800,5400,900,0,0,152100,135900,454500,0,1800,0,0,46800,5400,899100,1.319946467,1.299130241,14.9339,1373.326307,Schoharie Creek * (w/I NY watershed),12,Mohawk River Basin,1202-0061,Silver Lake,Mohawk River,852.5513306,1202SIL0647B,1202SIL0647B_C,-74.1672974,42.3258018,4,Greene,Lake,Centroid
W02020005000806,46800,9900,0,0,0,0,275400,15300,10800,0,0,35100,0,115200,14400,522900,1.32510397,1.296008797,29.9631,1458.491654,Schoharie Creek *,12,Mohawk River Basin,1202-0009,Engleville Pond,Mohawk River,606.9118652,1202ENG0589,1202ENG0589_C,-74.652298,42.757,4,Schoharie,Lake,Centroid
W04140102001162,51300,2700,0,0,0,0,27000,5400,4500,0,14400,0,0,56700,9900,171900,1.420298507,1.294874927,31.0561,2550.339396,Lake Ontario Eastern Section,3,Lake Ontario & Minor Tribs., , , ,258.2584839,0303UWB1038C,0303UWB1038C_C,-75.7893982,43.7486992,6,Jefferson,Lake,Centroid
W04140101000944,20700,0,0,0,0,0,59400,0,1800,900,900,9900,0,9000,0,102600,1.368901099,1.294483431,9.897155946,849.1233274,Lake Ontario Central Section,3,Lake Ontario & Minor Tribs., , , ,134.5844421,0302UWB5294,0302UWB5294_C,-77.4651031,43.0273018,8,Ontario,Lake,Centroid
W04140102001273,296100,259200,20700,900,0,0,1647000,1098000,272700,139500,32400,64800,69300,3600000,488700,7989300,1.301244736,1.290080107,7.675582152,765.0302116,Lake Ontario Eastern Section,3,Lake Ontario & Minor Tribs., , , ,12646.89551,0303CAR0054,0303CAR0054_C,-76.1173019,43.3768997,7,Oswego,Lake,Centroid
W02020005000897,97200,238500,11700,900,0,900,2548800,1092600,3300300,13500,35100,230400,0,147600,23400,7740900,1.291711998,1.288049193,7.00696261,782.8349162,Schoharie Creek * (w/I NY watershed),12,Mohawk River Basin, , , ,6014.669922,1202BAT5450,1202BAT5450_C,-74.1745987,42.2882996,4,Greene,Lake,Centroid
W04120102000764,75600,0,0,0,0,0,34200,3600,9900,900,900,13500,0,5400,0,144000,1.585921053,1.278319444,31.3945,1531.532355,"Eastern Lake Erie (Big Sister, 18 Mile Creeks)",1,Lake Erie-Niagara River Basin, , , ,253.317688,0104UWB5614,0104UWB5614_C,-78.898201,42.3488998,9,Cattaraugus,Lake,Centroid
W04140101000907,0,9000,0,0,0,0,17100,0,0,0,0,0,6300,241200,0,273600,1.27625,1.276253655,12.3973,915.4640242,Lake Ontario Central Section,3,Lake Ontario & Minor Tribs., , , ,387.6089478,,,0,0,0,,,
W04120101000907,72900,64800,16200,1800,0,0,1107000,60300,424800,8100,900,1800,900,105300,36900,1901700,1.283666339,1.272792764,17.9579,1297.788823,Lake Erie West End (Silver Creek to Pa. Line),1,Lake Erie-Niagara River Basin,0105-0025,Brocton Reservoir,Lake Erie-Niagara River,1948.768799,0105BRO0160K,0105BRO0160K_C,-79.4261017,42.3680992,9,Chautauqua,Lake,Centroid
W04140102001197,20700,21600,0,0,0,0,87300,0,29700,0,0,0,0,237600,72000,468900,1.285301205,1.272708467,19.3385,1530.452797,Lake Ontario Eastern Section,3,Lake Ontario & Minor Tribs., , , ,575.4202881,0303UWB5137,0303UWB5137_C,-75.9189987,43.5984001,7,Oswego,Lake,Centroid
W02020004002984,11579400,3223800,637200,189000,44100,8100,52139700,30973500,24656400,372600,645300,6158700,636300,35424000,2295000,168983100,1.29185279,1.271853872,210.827,10490.85973,Mohawk River Main Stem,12,Mohawk River Basin,1201-0150,East Canada Lake,Mohawk River,186542.4063,1201ECA0703A,1201ECA0703A_C,-74.7463989,43.0331001,6,Herkimer,Lake,Centroid
W02020005000895,34200,3600,0,0,0,0,99000,11700,33300,0,9900,5400,0,32400,0,229500,1.307050691,1.261298475,7.317415565,806.3281386,Schoharie Creek * (w/I NY watershed),12,Mohawk River Basin, , , ,182.472641,,,0,0,0,,,
W02020004003028,54000,18000,6300,0,0,0,264600,900,100800,0,3600,10800,0,252000,1800,712800,1.28170765,1.260367565,14.9462,1354.705722,Mohawk River Main Stem,12,Mohawk River Basin,1201-0113,Mariaville Lake,Mohawk River,768.9971924,1201MAR0570,1201MAR0570_C,-74.1119003,42.8336983,4,Schenectady,Lake,Centroid
W02020004002902,932400,221400,36000,5400,0,0,2565000,710100,797400,1800,19800,2700,0,1172700,34200,6498900,1.29388844,1.251724292,167.539,4571.386112,Mohawk River Main Stem,12,Mohawk River Basin,1201-0170,Pine Lake,Mohawk River,7137.097168,1201PIN0724,1201PIN0724_C,-74.5127029,43.1973,5,Fulton,Lake,Centroid
W02020004002774,50400,0,0,0,0,0,8100,26100,41400,0,15300,0,0,5400,0,146700,1.382897196,1.25135651,16.688,1250.904452,West Canada Creek,12,Mohawk River Basin,1203-0071,Minor Lakes Trib to Metcalf Brook,Mohawk River,194.0096893,1203SNA0882,1203SNA0882_C,-74.7201004,43.4476013,5,Hamilton,Lake,Centroid
W02020004002968,10969200,3087000,594000,181800,38700,8100,50078700,29849400,24256800,327600,625500,4905000,459000,34671600,2259900,162312300,1.268266759,1.250137075,220.547,11857.34871,Mohawk River Main Stem,12,Mohawk River Basin,1201-0151,Kyser Lake,Mohawk River,177808.0625,1201KYS0704A,1201KYS0704A_C,-74.7705002,43.0681992,6,Fulton,Lake,Centroid
W02020004002921,341100,32400,900,0,0,0,183600,15300,48600,0,2700,0,0,180900,32400,837900,1.410905797,1.243631698,246.33,6059.494941,Mohawk River Main Stem,12,Mohawk River Basin,1201-0175,Pleasant Lake,Mohawk River,1268.263184,1201PLE0745,1201PLE0745_C,-74.5998001,43.1884003,5,Fulton,Lake,Centroid
W02020004002924,77400,6300,0,0,0,0,18000,55800,0,0,900,0,0,3600,0,162000,1.466489362,1.243617284,21.5303,1650.080067,Mohawk River Main Stem,12,Mohawk River Basin, , , ,235.5812683,1201LIL0688,1201LIL0688_C,-74.3744965,43.1421013,5,Fulton,Lake,Centroid
W02020004003021,11700,0,0,0,0,0,0,0,0,0,5400,0,0,30600,7200,54900,1.30125,1.237067395,10.497,1231.845068,Mohawk River Main Stem,12,Mohawk River Basin, , , ,76.6919327,,,0,0,0,,,
W04140101002570,21600,1800,0,0,0,0,14400,0,20700,0,0,10800,0,88200,19800,177300,1.25849711,1.227010716,8.531016339,993.4023145,Lake Ontario Central Section,3,Lake Ontario & Minor Tribs., , , ,185.5428925,0302UWB5264,0302UWB5264_C,-77.5727005,43.0037994,8,Monroe,Lake,Centroid
W04140102001160,12600,0,0,0,0,1800,63000,0,0,0,9900,0,0,55800,20700,163800,1.244940476,1.226105006,9.827712139,1149.435128,Lake Ontario Eastern Section,3,Lake Ontario & Minor Tribs., , , ,184.2495117,0303UWB5043,0303UWB5043_C,-75.7837982,43.7672005,6,Lewis,Lake,Centroid
W04140102001240,97200,10800,0,0,0,0,163800,139500,35100,0,36000,1800,0,158400,52200,694800,1.260421687,1.223991077,9.260405713,1345.889075,Lake Ontario Eastern Section,3,Lake Ontario & Minor Tribs.,0303-0074,Bud Lee Pond,Lake Ontario,967.7122803,0303BUD0015,0303BUD0015_C,-75.9798965,43.4954987,7,Oswego,Lake,Centroid
W04140102001259,367200,71100,900,0,0,7200,253800,742500,40500,1800,92700,1800,0,1462500,126900,3168900,1.253279794,1.223931017,79.4412,3800.098777,Lake Ontario Eastern Section,3,Lake Ontario & Minor Tribs.,0303-0094,Whitney Pond,Lake Ontario,4008.140381,0303WHI0048A,0303WHI0048A_C,-75.9893036,43.4337997,7,Oswego,Lake,Centroid
W04140102001196,108000,360000,6300,0,0,0,7754400,504000,154800,54900,55800,145800,0,3131100,114300,12389400,1.224887146,1.222926857,8.374140601,1112.021219,Lake Ontario Eastern Section,3,Lake Ontario & Minor Tribs.,0303-0078,Castor Pond,Lake Ontario,11937.80957,0303CAS0021A,0303CAS0021A_C,-75.8486023,43.5929985,7,Oswego,Lake,Centroid
W04140102001265,69300,3600,0,0,0,0,6300,0,2700,0,0,1800,0,33300,900,117900,1.54,1.222603902,22.3871,1192.744457,Lake Ontario Eastern Section,3,Lake Ontario & Minor Tribs.,0303-0096,Fritz Pond,Lake Ontario,414.3063354,0303FRI0056,0303FRI0056_C,-76.0333023,43.4014015,7,Oswego,Lake,Centroid
W02020004002888,29700,8100,2700,0,0,0,64800,378000,41400,900,29700,5400,0,149400,900,711000,1.224147952,1.214786217,8.582876843,1014.814431,West Canada Creek,12,Mohawk River Basin, , , ,728.0136719,1203SNY0817B,1203SNY0817B_C,-74.9906998,43.3019981,6,Herkimer,Lake,Centroid
W02020004002918,399600,34200,6300,0,0,0,314100,287100,225000,0,13500,0,0,34200,3600,1317600,1.300392157,1.209290376,44.9662,1873.907281,Mohawk River Main Stem,12,Mohawk River Basin,1201-0009,"Green, Otter and Stewart Lakes",Mohawk River,1563.619751,1201GRE0727,1201GRE0727_C,-74.5065994,43.1758003,5,Fulton,Lake,Centroid
W04140102001256,63000,9900,0,0,0,0,45000,21600,1800,900,0,0,0,126900,18000,287100,1.26562249,1.207338906,17.132,1040.569508,Lake Ontario Eastern Section,3,Lake Ontario & Minor Tribs.,0303-0093,Lake Lorraine,Lake Ontario,217.1517792,0303LOR0052,0303LOR0052_C,-75.9606018,43.4571991,7,Oswego,Lake,Centroid
W04130001001281,30600,0,0,0,0,0,12600,0,0,0,3600,3600,0,25200,16200,91800,1.302941176,1.201971678,22.8594,1901.830979,Lake Ontario Western Section,3,Lake Ontario & Minor Tribs., , , ,53.0321503,0301UWB5581,0301UWB5581_C,-79.0054016,43.1910019,9,Niagara,Lake,Centroid
W02020004002942,2543400,256500,21600,1800,0,1800,1269000,2297700,1017900,19800,54000,9900,0,1661400,204300,9359100,1.272996171,1.198807684,1391.21,19122.93844,Mohawk River Main Stem,12,Mohawk River Basin,1201-0016,Peck Lake,Mohawk River,12031.48633,1201PEC0686,1201PEC0686_C,-74.4132996,43.1105995,5,Fulton,Lake,Centroid
W04140102005386,117900,15300,0,0,0,2700,261900,104400,1800,0,14400,0,0,185400,31500,735300,1.234927114,1.197259622,57.3338,2675.242587,Lake Ontario Eastern Section,3,Lake Ontario & Minor Tribs.,0303-0085,Moshier Pond,Lake Ontario,1019.948914,0303MOS0031A,0303MOS0031A_C,-76.0037003,43.4664001,7,Oswego,Lake,Centroid
W02020004002851,20700,0,0,0,0,0,52200,16200,4500,0,8100,0,0,900,1800,104400,1.233225806,1.186992337,6.961784659,876.3595428,Mohawk River Main Stem,12,Mohawk River Basin, , , ,116.6759796,1201UWB0752A,1201UWB0752A_C,-74.5708008,43.2743988,5,Hamilton,Lake,Centroid
W02020004003060,34200,2700,0,0,0,0,11700,34200,0,0,1800,0,0,24300,0,108900,1.272048193,1.186620753,9.760609305,1060.692572,West Canada Creek,12,Mohawk River Basin, , , ,613.1229248,1203UWB0800A,1203UWB0800A_C,-75.1305008,43.3396988,6,Oneida,Lake,Centroid
W02020004002934,695700,68400,5400,0,0,0,566100,678600,333000,0,19800,0,0,252000,33300,2652300,1.249199632,1.183834785,134.609,5530.344322,Mohawk River Main Stem,12,Mohawk River Basin,1201-0139,Vandenburg Pond,Mohawk River,3316.43457,1201VAN0689,1201VAN0689_C,-74.3608017,43.1194992,5,Fulton,Lake,Centroid
W04130001001353,111600,1800,4500,900,0,0,2700,0,900,0,1800,0,0,128700,19800,272700,1.310391061,1.183370004,38.1568,1847.246915,Lake Ontario Western Section,3,Lake Ontario & Minor Tribs., , , ,146.2765656,,,0,0,0,,,
W02020004002740,407700,19800,0,0,0,0,52200,249300,49500,0,13500,0,0,22500,12600,827100,1.357060086,1.181056704,816.648,16071.4802,West Canada Creek,12,Mohawk River Basin,1203-0067,"Honnedaga, Baby Lakes, Stearns Mudhole",Mohawk River,3451.120361,1203HON0877,1203HON0877_C,-74.8174973,43.5247002,6,Herkimer,Lake,Centroid
W04140102001279,124200,36900,5400,900,0,2700,183600,20700,5400,12600,1800,63000,9900,1942200,381600,2790900,1.188960513,1.180551793,67.95,3786.594539,Lake Ontario Eastern Section,3,Lake Ontario & Minor Tribs.,0303-0100,Russ Pond,Lake Ontario,6423.692871,0303RUS0061,0303RUS0061_C,-76.2353973,43.3722,7,Oswego,Lake,Centroid
W04140101000946,209700,8100,5400,0,0,0,20700,5400,9000,0,1800,1800,0,181800,76500,520200,1.296811594,1.177164552,135.812,4195.348162,Lake Ontario Central Section,3,Lake Ontario & Minor Tribs.,0302-0033,Deep Pond,Lake Ontario,929.006958,0302DEE0142,0302DEE0142_C,-77.5705032,43.0229988,8,Monroe,Lake,Centroid
W02020004002737,18900,0,0,0,0,0,37800,54900,5400,0,9900,0,0,9000,0,135900,1.203923077,1.175570272,22.1315,2046.684319,West Canada Creek,12,Mohawk River Basin, , , ,392.6820374,1203STE0877B,1203STE0877B_C,-74.8049011,43.5330009,6,Herkimer,Lake,Centroid
W02020004002753,501300,24300,0,0,0,0,94500,285300,126900,0,19800,0,0,27000,12600,1091700,1.324481707,1.175483191,29.9489,2588.915894,West Canada Creek,12,Mohawk River Basin, , , ,3688.676758,1203BAB0876,1203BAB0876_C,-74.8155975,43.4978981,6,Herkimer,Lake,Centroid
W04120103000934,32400,0,0,0,0,0,45900,0,6300,0,900,6300,0,16200,4500,112500,1.24258427,1.172728889,10.0477,886.0980081,Buffalo River,1,Lake Erie-Niagara River Basin, , , ,46.9835587,,,0,0,0,,,
W04140101000947,209700,11700,5400,0,0,0,39600,5400,9000,0,1800,1800,0,278100,112500,675000,1.243868472,1.168108148,14.0571,1431.841656,Lake Ontario Central Section,3,Lake Ontario & Minor Tribs., , , ,1059.370972,,,0,0,0,,,
W04140102001180,2700,25200,5400,1800,0,0,828900,14400,36900,14400,5400,0,0,380700,36000,1351800,1.1657505,1.165420181,8.845912798,1178.736633,Lake Ontario Eastern Section,3,Lake Ontario & Minor Tribs., , , ,1082.547363,0303UWB5063,0303UWB5063_C,-75.7680969,43.665699,6,Lewis,Lake,Centroid
W02020005000881,595800,0,0,0,0,3600,11700,6300,22500,0,900,28800,0,0,0,669600,2.455731707,1.160445042,357.429,5101.629889,Schoharie Creek *,12,Mohawk River Basin,1202-0071,Upper Blenheim-Gilboa Reservoir,Mohawk River,557.5939331,1202UBL0630B,1202UBL0630B_C,-74.4276962,42.4435997,4,Schoharie,Lake,Centroid
W04140102001261,81900,3600,0,0,0,0,900,0,0,0,0,0,0,35100,11700,133200,1.415438596,1.160007508,22.8803,1261.10218,Lake Ontario Eastern Section,3,Lake Ontario & Minor Tribs.,0303-0090,St. Marys Pond,Lake Ontario,303.8370056,0303STM0042,0303STM0042_C,-76.032402,43.4235992,7,Oswego,Lake,Centroid
W04140101000950,320400,22500,5400,0,0,0,73800,25200,66600,0,1800,12600,0,556200,217800,1302300,1.210815765,1.158950319,29.2158,1427.928192,Lake Ontario Central Section,3,Lake Ontario & Minor Tribs.,0302-0032,Quaker Pond,Lake Ontario,1640.449463,0302QUA0141,0302QUA0141_C,-77.5715027,43.0066986,8,Monroe,Lake,Centroid
W02020004002958,30600,46800,4500,0,0,0,397800,501300,342000,8100,1800,0,0,844200,25200,2202300,1.146784086,1.144745039,7.243441334,777.5814711,Mohawk River Main Stem,12,Mohawk River Basin, , , ,2048.042969,1201UWB0709F,1201UWB0709F_C,-74.6316986,43.0987015,5,Fulton,Lake,Centroid
W02020004002937,4319100,405000,71100,8100,0,900,7036200,2022300,2459700,5400,97200,6300,0,5301900,423000,22156200,1.177959534,1.143268385,865.629,25507.50898,Mohawk River Main Stem,12,Mohawk River Basin,1201-0050,"Lily, Canada, Stewarts Land, West Lakes",Mohawk River,26565.26953,1201CAN0717,1201CAN0717_C,-74.5292969,43.1654015,5,Fulton,Lake,Centroid
W02020004002789,45000,0,0,0,0,0,14400,900,25200,0,5400,0,0,900,900,92700,1.272830189,1.140399137,21.5028,1221.850113,Mohawk River Main Stem,12,Mohawk River Basin,1201-0190,"Barto Lake, Mud Pond",Mohawk River,198.6772614,1201BAR0787,1201BAR0787_C,-74.6921005,43.3765984,5,Hamilton,Lake,Centroid
W04140102001167,6300,10800,2700,900,0,0,277200,44100,0,0,0,0,0,220500,71100,633600,1.139167862,1.137785669,22.9157,2157.281809,Lake Ontario Eastern Section,3,Lake Ontario & Minor Tribs., , , ,579.6256104,0303UWB5055,0303UWB5055_C,-75.7711029,43.7252998,6,Lewis,Lake,Centroid
W04140102001258,228600,18900,0,0,0,900,60300,54900,17100,900,9900,0,0,596700,57600,1045800,1.175297357,1.136980302,73.3379,4176.503739,Lake Ontario Eastern Section,3,Lake Ontario & Minor Tribs.,0303-0092,Long Pond,Lake Ontario,1395.550781,0303LON0049,0303LON0049_C,-75.9601974,43.4319,7,Oswego,Lake,Centroid
W02020004002770,46800,0,0,0,0,0,9000,46800,1800,0,8100,0,0,29700,1800,144000,1.200833333,1.135569444,16.4862,1457.80777,West Canada Creek,12,Mohawk River Basin,1203-0065,"Sucker Pond, Three Mile Vly",Mohawk River,226.8965759,1203THR0871,1203THR0871_C,-74.8299026,43.4810982,6,Herkimer,Lake,Centroid
W04120101000811,37800,7200,900,0,0,0,350100,10800,117000,0,0,8100,0,0,0,531900,1.142969035,1.132810679,12.6751,969.9481908,Lake Erie West End (Silver Creek to Pa. Line),1,Lake Erie-Niagara River Basin,0105-0029,Minton Reservoir,Lake Erie-Niagara River,437.7637939,0105MIN0165A,0105MIN0165A_C,-79.575798,42.296299,9,Chautauqua,Lake,Centroid
W04140102001223,5046300,2388600,138600,19800,5400,77400,90939600,4905000,2775600,314100,566100,704700,16200,35114400,3587400,146599200,1.137417806,1.132687559,171.402,6305.78441,Lake Ontario Eastern Section,3,Lake Ontario & Minor Tribs.,0303-0067,Lower Salmon River Reservoir,Lake Ontario,125122.5938,0303LIG0018A,0303LIG0018A_C,-75.9623032,43.5265007,7,Oswego,Lake,Centroid
W04140102001263,179100,0,0,0,0,2700,900,4500,0,2700,3600,0,0,36900,6300,236700,1.5415625,1.131791297,57.1435,2256.609337,Lake Ontario Eastern Section,3,Lake Ontario & Minor Tribs.,0303-0091,Coan Pond,Lake Ontario,418.5161133,0303COA0048,0303COA0048_C,-75.9756012,43.406601,7,Oswego,Lake,Centroid
W04130001001354,278100,2700,5400,900,0,0,9000,0,3600,0,2700,900,0,174600,28800,506700,1.287795276,1.129842116,130.106,3820.711593,Lake Ontario Western Section,3,Lake Ontario & Minor Tribs., , , ,500.7105408,0301UWB5468,0301UWB5468_C,-78.3779984,43.1371994,8,Orleans,Lake,Centroid
W04140102001214,4526100,2314800,131400,19800,5400,53100,89785800,4709700,2640600,289800,544500,580500,16200,34646400,3550500,143814600,1.13190883,1.127757432,2637.35,55123.36305,Lake Ontario Eastern Section,3,Lake Ontario & Minor Tribs.,0303-0069,Salmon River Reservoir,Lake Ontario,122551.125,0303SAL0019A,0303SAL0019A_C,-75.8947983,43.5480003,7,Oswego,Lake,Centroid
W02020004002967,252000,0,0,0,0,0,851400,156600,64800,0,103500,0,0,475200,81900,1985400,1.143899273,1.125635136,65.1788,3753.586387,Mohawk River Main Stem,12,Mohawk River Basin,1201-0147,St. Johnsville Reservoir,Mohawk River,2846.965576,1201STJ0698B,1201STJ0698B_C,-74.5523987,43.0653992,5,Fulton,Lake,Centroid
W02020004002808,22500,0,0,0,0,0,19800,17100,1800,0,4500,0,0,14400,9000,89100,1.162837838,1.121728395,14.8862,1459.278953,West Canada Creek,12,Mohawk River Basin, , , ,123.1196671,1203UWB0843D,1203UWB0843D_C,-74.783699,43.3569984,5,Hamilton,Lake,Centroid
W04120104001034,24300,0,0,0,0,0,1800,0,0,0,900,3600,0,65700,2700,99000,1.161084337,1.121555556,7.715616035,709.2416316,Tonawanda Creek,1,Lake Erie-Niagara River Basin, , , ,21.8282413,0102UWB5205,0102UWB5205_C,-78.6215973,43.1360016,9,Niagara,Lake,Centroid
W02020004002858,77400,0,0,0,0,0,12600,27900,101700,0,11700,0,0,3600,0,234900,1.179028571,1.120042571,13.6012,1102.481637,West Canada Creek,12,Mohawk River Basin, , , ,359.348114,1203UWB0832A,1203UWB0832A_C,-74.7233963,43.2902985,5,Hamilton,Lake,Centroid
W04140102001166,36000,10800,2700,900,0,1800,580500,44100,0,0,17100,0,0,402300,97200,1193400,1.122418351,1.118726328,8.992270444,1229.325353,Lake Ontario Eastern Section,3,Lake Ontario & Minor Tribs., , , ,1223.904663,0303UWB5054,0303UWB5054_C,-75.7839966,43.7326012,6,Jefferson,Lake,Centroid
W04140102001212,45000,0,0,0,0,0,16200,0,0,4500,1800,0,0,9000,0,76500,1.283428571,1.116718954,18.7213,1656.399271,Lake Ontario Eastern Section,3,Lake Ontario & Minor Tribs., , , ,123.7990341,,,0,0,0,,,
W02020004002847,25200,0,0,0,0,0,2700,0,15300,0,2700,0,0,9900,0,55800,1.212647059,1.116630824,9.283849874,777.9438856,Mohawk River Main Stem,12,Mohawk River Basin,1201-0183,Hart Vly Lake,Mohawk River,163.3447723,1201HAR0752,1201HAR0752_C,-74.5848007,43.2780991,5,Hamilton,Lake,Centroid
W04130001001384,0,0,0,0,0,0,3600,0,0,0,0,2700,0,43200,14400,63900,1.115774648,1.115790297,13.6546,1333.957643,Lake Ontario Western Section,3,Lake Ontario & Minor Tribs., , , ,152.1828613,,,0,0,0,,,
W04130001001385,0,0,0,0,0,0,3600,0,0,0,0,2700,0,43200,14400,63900,1.115774648,1.115790297,15.7403,989.1400682,Lake Ontario Western Section,3,Lake Ontario & Minor Tribs., , , ,77.0965805,0301UWB5572,0301UWB5572_C,-79.0271988,43.2459984,9,Niagara,Lake,Centroid
W02020004002874,32400,0,0,0,0,0,25200,8100,32400,0,5400,0,0,8100,1800,113400,1.160666667,1.114770723,10.4568,1143.034699,Mohawk River Main Stem,12,Mohawk River Basin, , , ,124.0126953,1201UWB5283,1201UWB5283_C,-74.4513016,43.2243004,5,Fulton,Lake,Centroid
W02020004002970,149400,19800,900,0,0,0,125100,495000,154800,1800,11700,0,0,436500,5400,1400400,1.122359712,1.109306627,40.0991,2817.3554,Mohawk River Main Stem,12,Mohawk River Basin,1201-0120,Cork Center Reservoir,Mohawk River,2291.445557,1201COR0664,1201COR0664_C,-74.4645996,43.0414009,5,Fulton,Lake,Centroid
W02020004002923,403200,63000,9900,2700,0,900,2389500,373500,821700,3600,33300,900,0,793800,185400,5081400,1.117070027,1.107780927,7.236946124,1322.305861,Mohawk River Main Stem,12,Mohawk River Basin, , , ,6022.023438,,,0,0,0,,,
W02020004002743,46800,0,0,0,0,0,14400,56700,0,0,5400,0,0,0,0,123300,1.170117647,1.105555556,9.394196973,954.2341533,West Canada Creek,12,Mohawk River Basin,1203-0001,"Buck Ponds, White Birch Lake",Mohawk River,158.2339935,1203WHI0865,1203WHI0865_C,-74.5700989,43.4799004,5,Hamilton,Lake,Centroid
W04130001001237,0,0,0,0,0,0,1800,0,0,0,0,3600,0,0,88200,93600,1.105384615,1.105395299,16.6353,1815.920573,Lake Ontario Western Section,3,Lake Ontario & Minor Tribs., , , ,45.6134911,0301UWB5350,0301UWB5350_C,-77.6790009,43.273201,8,Monroe,Lake,Centroid
W02020004003008,18900,0,0,0,0,0,71100,6300,1800,9000,900,0,0,0,0,108000,1.127373737,1.105092593,6.596826567,827.77526,Mohawk River Main Stem,12,Mohawk River Basin,1201-0202,Graffenburg Reservoir,Mohawk River,388.9001465,1201GRA0952,1201GRA0952_C,-75.2100983,43.0466995,6,Herkimer,Lake,Centroid
W04140102001260,27000,13500,0,0,0,0,118800,183600,2700,0,900,0,0,329400,122400,798300,1.106429405,1.102831016,29.0998,2167.359865,Lake Ontario Eastern Section,3,Lake Ontario & Minor Tribs., , , ,806.1439209,0303UWB5177,0303UWB5177_C,-76.0263977,43.4393005,7,Oswego,Lake,Centroid
W02020004002762,55800,0,0,0,0,0,18900,17100,3600,0,4500,0,0,8100,0,108000,1.207758621,1.100425926,11.8206,927.8562045,West Canada Creek,12,Mohawk River Basin,1203-0071,Minor Lakes Trib to Metcalf Brook,Mohawk River,184.678009,1203BEA0881,1203BEA0881_C,-74.7083969,43.4743996,5,Hamilton,Lake,Centroid
W02020004002912,45900,0,0,0,0,0,22500,3600,2700,0,3600,0,0,10800,3600,92700,1.185384615,1.09360302,8.337408465,817.253444,Mohawk River Main Stem,12,Mohawk River Basin,1201-0173,Lake Tribs to Fire Flow,Mohawk River,217.3526917,1201PRA0733,1201PRA0733_C,-74.4738998,43.178299,5,Fulton,Lake,Centroid
W04140102001182,18000,25200,5400,2700,0,0,1727100,14400,44100,14400,5400,0,0,533700,71100,2461500,1.093926335,1.093239894,15.6403,1315.132947,Lake Ontario Eastern Section,3,Lake Ontario & Minor Tribs., , , ,1643.26648,0303ALD5064,0303ALD5064_C,-75.7834015,43.6599998,7,Oswego,Lake,Centroid
W02020004002840,49500,0,0,0,0,0,26100,20700,2700,0,4500,0,0,16200,0,119700,1.154487179,1.090609858,10.9923,912.1103123,West Canada Creek,12,Mohawk River Basin,1203-0044,Mounts Creek Lake,Mohawk River,178.0093079,1203MOU0814,1203MOU0814_C,-74.8386002,43.3270988,6,Herkimer,Lake,Centroid
W02020004002710,282600,0,0,0,0,0,13500,110700,30600,4500,15300,0,0,16200,0,473400,1.217311321,1.087587664,86.9928,5646.056179,West Canada Creek,12,Mohawk River Basin,1203-0081,Pillsbury Lake,Mohawk River,1773.172485,1203PIL0938,1203PIL0938_C,-74.5347977,43.597599,5,Hamilton,Lake,Centroid
W02020004002856,33300,0,0,0,0,0,7200,18900,13500,0,2700,0,0,0,0,75600,1.153829787,1.086084656,9.924025029,916.4283238,Mohawk River Main Stem,12,Mohawk River Basin,1201-0187,"West Cr, Black Cr, Deer Lakes, Bills Pd",Mohawk River,67.7847137,1201DEE0775,1201DEE0775_C,-74.7024994,43.289299,5,Hamilton,Lake,Centroid
W02020004002807,194400,0,0,0,0,0,18900,189000,126900,0,20700,0,0,47700,2700,600300,1.122904656,1.083105114,43.6756,2194.347551,Mohawk River Main Stem,12,Mohawk River Basin,1201-0191,Trout Lake,Mohawk River,602.6837158,1201TRO0793,1201TRO0793_C,-74.7127991,43.3470001,5,Hamilton,Lake,Centroid
W02020004002879,54000,0,0,0,0,0,124200,10800,12600,0,8100,0,0,25200,900,235800,1.107376238,1.0827905,6.994949853,980.1965586,West Canada Creek,12,Mohawk River Basin, , , ,216.0106049,1203UWB0830A,1203UWB0830A_C,-74.7373962,43.2681007,6,Herkimer,Lake,Centroid
W02020004002933,70200,0,0,0,0,0,58500,66600,24300,0,9900,0,0,60300,0,289800,1.108647541,1.082332643,20.1514,1630.442555,Mohawk River Main Stem,12,Mohawk River Basin,1201-0141,Hinds Pond,Mohawk River,381.8134766,1201HIN0690A,1201HIN0690A_DH,-74.35334,43.1085,5,Fulton,Lake,Deep Hole
W02020004002824,55800,0,0,0,0,0,35100,0,11700,0,3600,0,0,0,900,107100,1.169122807,1.08101774,13.2958,883.6833214,Mohawk River Main Stem,12,Mohawk River Basin, , , ,77.1180344,1201UWB0783,1201UWB0783_C,-74.6386032,43.3119011,5,Hamilton,Lake,Centroid
W04140102001207,82800,8100,0,0,0,0,288000,900,45000,0,1800,0,0,180000,49500,656100,1.091208791,1.079699741,12.6806,1164.044139,Lake Ontario Eastern Section,3,Lake Ontario & Minor Tribs., , , ,536.7528076,0303UWB5133,0303UWB5133_C,-75.9341965,43.5819016,7,Oswego,Lake,Centroid
W04120102000732,0,0,0,0,0,0,3600,0,0,900,900,1800,0,62100,33300,102600,1.078157895,1.078167641,7.953228865,961.6655179,"Eastern Lake Erie (Big Sister, 18 Mile Creeks)",1,Lake Erie-Niagara River Basin, , , ,15.1500216,,,0,0,0,,,
W02020004002843,208800,0,0,0,0,0,40500,26100,48600,0,10800,0,0,0,0,334800,1.206571429,1.077744922,58.1241,3893.859337,West Canada Creek,12,Mohawk River Basin,1203-0049,Long Lake,Mohawk River,253.5686798,1203LON0823,1203LON0823_C,-74.7179031,43.3140984,5,Hamilton,Lake,Centroid
W02020004002860,81900,0,0,0,0,0,142200,900,22500,0,9000,0,0,24300,0,280800,1.109049774,1.077247151,27.5919,1715.628727,West Canada Creek,12,Mohawk River Basin,1203-0051,Boyer Lake,Mohawk River,300.2337341,1203BOY0829,1203BOY0829_C,-74.7443008,43.2910004,6,Herkimer,Lake,Centroid
W02020004002857,61200,0,0,0,0,0,10800,27900,63000,0,5400,0,0,3600,0,171900,1.117560976,1.075712624,12.882,1104.192321,West Canada Creek,12,Mohawk River Basin,1201-0187,"West Cr, Black Cr, Deer Lakes, Bills Pd",Mohawk River,177.565506,1203BLA0832,1203BLA0832_C,-74.7189026,43.2935982,5,Hamilton,Lake,Centroid
W02020004002889,14977800,1745100,140400,13500,900,93600,77117400,41584500,23241600,174600,881100,452700,7200,41085900,4604400,206120700,1.081551363,1.075625422,2796.17,46893.59289,West Canada Creek,12,Mohawk River Basin,1203-0022,Hinckley Reservoir,Mohawk River,237047.5938,1203HIN0799,1203HIN0799_C,-75.0736008,43.3325996,6,Herkimer,Lake,Centroid
W04120104001035,108000,0,0,0,0,0,5400,0,0,0,0,11700,0,32400,280800,438300,1.097057221,1.073143965,153,6601.783244,Tonawanda Creek,1,Lake Erie-Niagara River Basin, , , ,566.4609985,,,0,0,0,,,
W02020004002906,55800,0,0,0,0,0,31500,18900,9000,0,3600,0,0,0,0,118800,1.137714286,1.073038721,21.1236,1434.86769,Mohawk River Main Stem,12,Mohawk River Basin,1201-0171,Indian Lake,Mohawk River,245.1341095,1201IND0725,1201IND0725_C,-74.4692993,43.1915016,5,Fulton,Lake,Centroid
W02020004002886,97200,3600,0,0,0,0,238500,12600,18900,0,2700,0,0,13500,900,387900,1.095696594,1.071719515,65.634,2368.024785,Mohawk River Main Stem,12,Mohawk River Basin,1201-0169,Stoner Lakes,Mohawk River,733.3676147,1201WST0722,1201WST0722_C,-74.5330963,43.2249985,5,Fulton,Lake,Centroid
W02020004002871,41400,0,0,0,0,0,13500,40500,23400,0,3600,0,0,0,0,122400,1.107111111,1.070890523,8.278067058,1040.891061,Mohawk River Main Stem,12,Mohawk River Basin,1201-0181,"Dexter, Spectacle and Dry Lakes",Mohawk River,311.3532104,1201DRY0761,1201DRY0761_C,-74.5840988,43.2499008,5,Hamilton,Lake,Centroid
W02020005000854,49500,0,0,0,0,0,19800,73800,18900,0,1800,3600,0,36900,0,204300,1.091744186,1.069520313,17.1634,1969.609575,Schoharie Creek *,12,Mohawk River Basin, , , ,74.904892,1202UWB5172,1202UWB5172_C,-74.1135025,42.5535011,4,Albany,Lake,Centroid
W02020004002844,277200,0,0,0,0,0,103500,26100,90000,0,14400,0,0,900,0,512100,1.147739464,1.067769967,24.977,1683.041219,West Canada Creek,12,Mohawk River Basin,1203-0002,Lakes tributary to Jerseyfield Lake,Mohawk River,462.6831055,1203DIA0822,1203DIA0822_C,-74.729599,43.3077011,5,Hamilton,Lake,Centroid
W02020004002733,33300,0,0,0,0,0,10800,12600,3600,2700,900,0,0,8100,900,72900,1.124318182,1.067544582,10.486,790.7564764,West Canada Creek,12,Mohawk River Basin,1203-0074,"Caswell, Deer, Otter, Goose Lakes",Mohawk River,78.4501801,1203CAS0910A,1203CAS0910A_C,-74.7520981,43.5315018,5,Hamilton,Lake,Centroid
W02020004002939,1224900,216000,6300,0,0,0,11112300,2359800,3846600,16200,100800,41400,1800,7335000,203400,26464500,1.067304593,1.064189461,99.1804,7323.543983,Mohawk River Main Stem,12,Mohawk River Basin, , , ,23498.37695,1201SPR0706A,1201SPR0706A_C,-74.8396988,43.1725006,6,Herkimer,Lake,Centroid
W02020004003052,45000,0,0,0,0,0,19800,6300,7200,4500,0,1800,0,52200,18000,154800,1.086721311,1.061518088,15.0142,1083.608616,Mohawk River Main Stem,12,Mohawk River Basin,1202-0036,"Clausen, Bowmaker Ponds",Mohawk River,588.2440186,1201CLA0589B,1201CLA0589B_C,-74.6160965,42.7834015,4,Schoharie,Lake,Centroid
W02020004002751,81000,0,0,0,0,0,78300,81900,0,0,6300,0,0,1800,0,249300,1.090213904,1.060906538,13.7425,1093.693991,West Canada Creek,12,Mohawk River Basin,1203-0070,"Metcalf Lake, Metcalf Chain of Lakes",Mohawk River,266.0142212,1203MME0899,1203MME0899_C,-74.639801,43.4752998,5,Hamilton,Lake,Centroid
W02020004002772,119700,0,0,0,0,0,19800,123300,1800,0,8100,0,0,50400,12600,335700,1.090375,1.058153113,15.7277,1006.236398,West Canada Creek,12,Mohawk River Basin,1203-0065,"Sucker Pond, Three Mile Vly",Mohawk River,484.6755066,1203SUC0870,1203SUC0870_C,-74.8324966,43.4728012,6,Herkimer,Lake,Centroid
W02020004002905,48600,0,0,0,0,0,11700,1800,11700,0,2700,0,0,35100,1800,113400,1.100416667,1.057389771,14.5934,1148.776769,Mohawk River Main Stem,12,Mohawk River Basin,1201-0168,Broomstick (Goose Egg) Lake,Mohawk River,249.3497009,1201BRO0720,1201BRO0720_C,-74.5423965,43.2083015,5,Fulton,Lake,Centroid
W02020004002907,93600,0,0,0,0,0,7200,37800,0,0,3600,0,0,10800,0,153000,1.146060606,1.056712418,32.8268,2076.839341,Mohawk River Main Stem,12,Mohawk River Basin,1201-0009,"Green, Otter and Stewart Lakes",Mohawk River,233.1299438,1201STE0730,1201STE0730_C,-74.4805984,43.1862984,5,Fulton,Lake,Centroid
W04120102000751,7200,900,0,0,0,0,39600,11700,36000,0,0,0,0,0,0,95400,1.060408163,1.055859539,6.958237271,723.9533683,"Eastern Lake Erie (Big Sister, 18 Mile Creeks)",1,Lake Erie-Niagara River Basin, , , ,51.9046173,0104UWB5616,0104UWB5616_C,-78.7578964,42.3572998,9,Cattaraugus,Lake,Centroid
W02020004002916,315000,98100,0,900,0,0,4381200,1829700,2505600,10800,49500,8100,0,3425400,643500,13267800,1.057065036,1.055710291,324.704,11553.11791,West Canada Creek,12,Mohawk River Basin,1203-0052,Black Creek (Gray) Reservoir,Mohawk River,14653.68359,1203BLA0827,1203BLA0827_C,-74.9159012,43.2532997,6,Herkimer,Lake,Centroid
W02020004002865,62100,0,0,0,0,0,7200,6300,30600,0,2700,0,0,8100,0,117000,1.11852459,1.055623932,14.6655,1032.250326,Mohawk River Main Stem,12,Mohawk River Basin,1201-0008,Redlouse Lake,Mohawk River,172.457901,1201RED0771,1201RED0771_C,-74.6364975,43.2650986,5,Hamilton,Lake,Centroid
W02020004002738,45000,0,0,0,0,0,72900,89100,0,0,5400,0,0,24300,900,237600,1.067570093,1.054776936,7.950030622,1011.726756,West Canada Creek,12,Mohawk River Basin, , , ,202.235321,1203UWB0868,1203UWB0868_C,-74.6107025,43.4986992,5,Hamilton,Lake,Centroid
W02020004002763,97200,0,0,0,0,0,20700,48600,18900,0,4500,0,0,9000,0,198900,1.106637168,1.054529915,10.9509,824.4985657,West Canada Creek,12,Mohawk River Basin,1203-0071,Minor Lakes Trib to Metcalf Brook,Mohawk River,284.9014587,1203LRO0880,1203LRO0880_C,-74.7070999,43.4710007,5,Hamilton,Lake,Centroid
W02020004002756,489600,0,0,0,0,0,320400,406800,13500,0,28800,0,0,32400,1800,1293300,1.086360582,1.053668136,88.0148,6600.743806,West Canada Creek,12,Mohawk River Basin,1203-0070,"Metcalf Lake, Metcalf Chain of Lakes",Mohawk River,1145.807617,1203MET0897,1203MET0897_C,-74.6548004,43.467701,5,Hamilton,Lake,Centroid
W02020004002713,38700,0,0,0,0,0,900,29700,2700,0,1800,0,0,8100,900,82800,1.098367347,1.052403382,6.68795452,655.3154463,West Canada Creek,12,Mohawk River Basin, , , ,52.2285995,1203STU0935,1203STU0935_C,-74.5714035,43.5908012,5,Hamilton,Lake,Centroid
W02020004003083,81000,0,0,0,0,0,49500,54900,16200,0,4500,0,0,900,900,207900,1.085460993,1.052169312,30.1409,2954.785376,Mohawk River Main Stem,12,Mohawk River Basin,1201-0188,"Iron Lake, Black Cat Lake",Mohawk River,182.6797943,1201IRO0779,1201IRO0779_C,-74.5954971,43.3116989,5,Hamilton,Lake,Centroid
W02020004002760,137700,0,0,0,0,0,172800,55800,123300,0,11700,0,0,44100,0,545400,1.069161148,1.051701503,32.1835,2854.52863,West Canada Creek,12,Mohawk River Basin,1203-0004,T Lake,Mohawk River,721.3607788,1203T L0862,1203T L0862_C,-74.5845032,43.4544983,5,Hamilton,Lake,Centroid
W02020005000900,264600,14400,900,0,0,0,703800,457200,2066400,900,13500,26100,0,243900,11700,3803400,1.055396745,1.051543093,26.6288,1540.029987,Schoharie Creek * (w/I NY watershed),12,Mohawk River Basin,1202-0064,Colgate Lake,Mohawk River,3320.871582,1202COL0649,1202COL0649_C,-74.1197968,42.2355003,4,Greene,Lake,Centroid
W02020004002838,41400,0,0,0,0,0,50400,1800,26100,0,2700,0,0,4500,0,126900,1.076105263,1.051284476,7.671579899,777.4142641,West Canada Creek,12,Mohawk River Basin,1203-0002,Lakes tributary to Jerseyfield Lake,Mohawk River,90.8957214,1203POT0818,1203POT0818_C,-74.762001,43.3204994,5,Hamilton,Lake,Centroid
W02020004002780,58500,0,0,0,0,0,64800,4500,5400,2700,1800,0,0,900,0,138600,1.088539326,1.051176046,14.0039,1279.997626,West Canada Creek,12,Mohawk River Basin,1203-0061,"Pine, Little Pine Lakes",Mohawk River,62.6738586,1203LPI0855,1203LPI0855_C,-74.6445007,43.4071007,5,Hamilton,Lake,Centroid
W02020004002790,51300,0,0,0,0,0,8100,26100,36000,0,2700,0,0,5400,0,129600,1.083103448,1.050216049,13.014,1171.203326,Mohawk River Main Stem,12,Mohawk River Basin,1201-0190,"Barto Lake, Mud Pond",Mohawk River,127.1200714,1201MUD0788,1201MUD0788_C,-74.6746979,43.3755989,5,Hamilton,Lake,Centroid
W02020004002850,60300,0,0,0,0,0,19800,63900,106200,0,6300,0,0,34200,14400,305100,1.062022059,1.049767289,12.2322,1077.128301,Mohawk River Main Stem,12,Mohawk River Basin,1201-0187,"West Cr, Black Cr, Deer Lakes, Bills Pd",Mohawk River,290.4598694,1201WCR0773,1201WCR0773_C,-74.7060013,43.297699,5,Hamilton,Lake,Centroid
W02020004002903,31500,0,0,0,0,0,32400,11700,7200,0,1800,0,0,2700,0,87300,1.077741935,1.049702176,7.32621975,687.97696,Mohawk River Main Stem,12,Mohawk River Basin,1201-0173,Lake Tribs to Fire Flow,Mohawk River,78.6760483,1201LHO0736,1201LHO0736_C,-74.4417038,43.1920013,5,Fulton,Lake,Centroid
W02020004002765,37800,0,0,0,0,0,27900,57600,0,0,2700,0,0,5400,0,131400,1.069519231,1.049528158,12.1177,1167.103588,West Canada Creek,12,Mohawk River Basin, , , ,53.3393097,1203BUC0861,1203BUC0861_C,-74.6560974,43.4612999,5,Hamilton,Lake,Centroid
W02020004002755,99900,0,0,0,0,0,224100,149400,0,0,9900,0,0,9900,0,493200,1.060663616,1.04837794,7.11042788,759.3961951,West Canada Creek,12,Mohawk River Basin,1203-0070,"Metcalf Lake, Metcalf Chain of Lakes",Mohawk River,452.9077759,1203LME0898,1203LME0898_C,-74.6444016,43.4723015,5,Hamilton,Lake,Centroid
W02020004002876,175500,0,0,0,0,0,64800,79200,28800,0,7200,0,0,5400,900,361800,1.093140097,1.047962963,167.063,7176.641884,Mohawk River Main Stem,12,Mohawk River Basin,1201-0181,"Dexter, Spectacle and Dry Lakes",Mohawk River,1290.040649,1201SPE0760,1201SPE0760_C,-74.5789032,43.2382011,5,Fulton,Lake,Centroid
W02020004002833,58500,0,0,0,0,0,61200,14400,25200,0,3600,0,0,27000,6300,196200,1.063006536,1.04422528,16.5667,1051.348971,Mohawk River Main Stem,12,Mohawk River Basin, , , ,218.9029846,1201MOR0778A,1201MOR0778A_C,-74.5995026,43.2935982,5,Hamilton,Lake,Centroid
W02020004002784,1450800,125100,27000,900,900,0,15434100,3554100,2798100,10800,72000,26100,6300,3571200,525600,27603000,1.046156996,1.043731044,23.5922,3369.717539,West Canada Creek,12,Mohawk River Basin, , , ,28934.30469,,,0,0,0,,,
W02020004002709,54000,0,0,0,0,0,84600,95400,6300,0,4500,0,0,5400,900,251100,1.055022831,1.043193947,19.1605,1286.441807,West Canada Creek,12,Mohawk River Basin, , , ,280.6839905,1203TWI0934,1203TWI0934_C,-74.6204987,43.6200981,5,Hamilton,Lake,Centroid
W02020004002883,132300,0,0,0,0,0,27000,60300,21600,0,4500,0,0,9900,0,255600,1.087956204,1.04243349,15.2618,1639.726746,Mohawk River Main Stem,12,Mohawk River Basin,1201-0007,"Knapps Long Lake, Long Pond",Mohawk River,386.2418823,1201KNA0753,1201KNA0753_C,-74.6127014,43.2453003,5,Fulton,Lake,Centroid
W02020004002773,206100,0,0,0,0,0,140400,54900,102600,0,9900,0,0,29700,18900,562500,1.066944444,1.042417778,74.6716,4040.606884,West Canada Creek,12,Mohawk River Basin,1203-0069,Big Rock Lake,Mohawk River,1022.690002,1203ROC0883,1203ROC0883_C,-74.6969986,43.4462013,5,Hamilton,Lake,Centroid
W02020004002783,1390500,100800,24300,900,900,0,13526100,3333600,2658600,10800,72000,26100,6300,3186900,403200,24741000,1.044786279,1.042269229,104.097,7977.278749,West Canada Creek,12,Mohawk River Basin,1203-0064,The Floe,Mohawk River,26022.54883,1203THE0850A,1203THE0850A_C,-74.7041016,43.4007988,5,Hamilton,Lake,Centroid
W02020004002872,77400,0,0,0,0,0,125100,13500,105300,0,6300,0,0,36000,900,364500,1.052884013,1.041657064,9.564172768,1213.987074,Mohawk River Main Stem,12,Mohawk River Basin, , , ,451.809845,,,0,0,0,,,
W02020004002911,230400,0,0,0,0,0,52200,8100,19800,0,5400,0,0,7200,0,323100,1.14038835,1.040281647,112.542,5634.441674,Mohawk River Main Stem,12,Mohawk River Basin,1201-0167,Nine Corners Lake,Mohawk River,482.9139099,1201NIN0719,1201NIN0719_C,-74.5512009,43.1935005,5,Fulton,Lake,Centroid
W02020004002724,80100,0,0,0,0,0,298800,131400,0,0,9000,0,0,22500,1800,543600,1.046796117,1.039902502,40.1952,1906.027241,West Canada Creek,12,Mohawk River Basin,1203-0007,"Spruce, Balsam Lakes",Mohawk River,758.4685669,1203BAL0909,1203BAL0909_C,-74.5998001,43.5359993,5,Hamilton,Lake,Centroid
W02020004002827,31500,0,0,0,0,0,16200,27000,30600,0,1800,0,0,3600,0,110700,1.054772727,1.039196025,7.319923557,898.1626432,West Canada Creek,12,Mohawk River Basin,1203-0002,Lakes tributary to Jerseyfield Lake,Mohawk River,89.1180496,,,0,0,0,,,
W02020004002723,27000,0,0,0,0,0,3600,2700,0,0,900,0,0,20700,900,55800,1.0753125,1.038888889,8.296546115,771.5904137,West Canada Creek,12,Mohawk River Basin,1203-0003,"Beaver Pond, Poor Lake",Mohawk River,186.0124969,1203BEA0915,1203BEA0915_C,-74.6863022,43.5555,5,Hamilton,Lake,Centroid
W02020004002869,32400,0,0,0,0,0,900,0,19800,0,900,0,0,7200,0,61200,1.0753125,1.035457516,7.356989804,705.9472,Mohawk River Main Stem,12,Mohawk River Basin,1201-0227,Little Metcalf Lake,Mohawk River,51.5613441,1201LME0768,1201LME0768_C,-74.7222977,43.2737999,6,Herkimer,Lake,Centroid
W02020004002848,77400,0,0,0,0,0,35100,5400,2700,0,1800,0,0,10800,0,133200,1.077741935,1.032575075,18.4047,1249.450403,West Canada Creek,12,Mohawk River Basin,1203-0050,"Deer, North Branch Lakes",Mohawk River,560.2394409,1203NBR0825,1203NBR0825_C,-74.7935028,43.3143997,5,Hamilton,Lake,Centroid
W04140102001170,17100,8100,0,0,0,0,1053900,11700,8100,0,0,0,0,334800,41400,1475100,1.032888889,1.032508305,6.795653681,749.9765238,Lake Ontario Eastern Section,3,Lake Ontario & Minor Tribs., , , ,956.3380127,0303UWB5056,0303UWB5056_C,-75.8423004,43.7173004,6,Jefferson,Lake,Centroid
W02020004002714,151200,0,0,0,0,0,40500,155700,12600,0,5400,0,0,33300,11700,410400,1.050208333,1.031712963,11.4852,1010.812165,West Canada Creek,12,Mohawk River Basin, , , ,1305.141846,1203UWB5381,1203UWB5381_C,-74.6218033,43.5928001,5,Hamilton,Lake,Centroid
W02020004002842,11700,0,0,0,0,0,2700,14400,12600,0,900,0,0,27900,900,71100,1.036515152,1.030520394,6.602705871,612.7870011,Mohawk River Main Stem,12,Mohawk River Basin,1201-0187,"West Cr, Black Cr, Deer Lakes, Bills Pd",Mohawk River,81.118187,1201BIL0776,1201BIL0776_C,-74.7058029,43.3040009,5,Hamilton,Lake,Centroid
W02020004002729,132300,0,0,0,0,0,23400,15300,900,0,2700,0,0,38700,900,214200,1.079450549,1.03038282,33.1468,1997.102994,West Canada Creek,12,Mohawk River Basin,1203-0074,"Caswell, Deer, Otter, Goose Lakes",Mohawk River,492.0161438,1203DEE0911,1203DEE0911_C,-74.7619019,43.5546989,5,Hamilton,Lake,Centroid
W02020004002866,1458900,18900,0,0,0,0,2334600,423000,842400,2700,31500,2700,0,1253700,219600,6588000,1.03859449,1.030047966,21.5767,1426.486135,West Canada Creek,12,Mohawk River Basin,1203-0047,Mud Lake,Mohawk River,6073.797363,1203MUD0816,1203MUD0816_C,-74.7981033,43.2895012,6,Herkimer,Lake,Centroid
W02020004002892,79200,0,0,0,0,0,19800,14400,13500,0,1800,0,0,18900,0,147600,1.063421053,1.029397019,12.5541,1277.534135,Mohawk River Main Stem,12,Mohawk River Basin,1201-0178,Stony Brook Lake,Mohawk River,256.2339172,1201STO0749,1201STO0749_C,-74.7039032,43.2486,5,Fulton,Lake,Centroid
W02020004002810,83700,0,0,0,0,0,2700,3600,3600,900,900,0,0,11700,900,108000,1.127037037,1.028592593,29.9424,1357.38198,Mohawk River Main Stem,12,Mohawk River Basin,1201-0188,"Iron Lake, Black Cat Lake",Mohawk River,355.7971802,1201BLA0780,1201BLA0780_C,-74.6079025,43.3240013,5,Hamilton,Lake,Centroid
W02020004002747,62100,0,0,0,0,0,30600,41400,9900,0,1800,0,0,9000,0,154800,1.046796117,1.028029716,14.977,1394.621896,West Canada Creek,12,Mohawk River Basin,1203-0084,"Split Rock, Amos Lakes, Belden Vly",Mohawk River,105.1226425,1203SPL0901,1203SPL0901_C,-74.6940994,43.4943008,5,Hamilton,Lake,Centroid
W02020004002726,493200,0,0,0,0,0,335700,234000,14400,0,14400,0,0,149400,19800,1260900,1.045205158,1.027523991,166.731,5631.691592,West Canada Creek,12,Mohawk River Basin,1203-0007,"Spruce, Balsam Lakes",Mohawk River,2111.599854,1203SPR0908,1203SPR0908_C,-74.611702,43.5334015,5,Hamilton,Lake,Centroid
W04120102000730,10800,0,0,0,0,0,48600,0,900,0,0,2700,0,144000,62100,269100,1.028641115,1.027495355,10.6184,1117.156067,"Eastern Lake Erie (Big Sister, 18 Mile Creeks)",1,Lake Erie-Niagara River Basin, , , ,53.4667282,,,0,0,0,,,
W02020004003059,23400,0,0,0,0,0,0,11700,7200,0,900,0,0,37800,0,81000,1.03765625,1.026790123,11.0456,1116.481513,West Canada Creek,12,Mohawk River Basin, , , ,233.3422241,,,0,0,0,,,
W02020004002814,48600,0,0,0,0,0,17100,4500,3600,0,900,0,0,6300,900,81900,1.065135135,1.026495726,10.2926,779.6547318,West Canada Creek,12,Mohawk River Basin,1203-0054,"Spectacle, Butler, Atwood Lakes",Mohawk River,242.6779327,1203ATW0842,1203ATW0842_C,-74.8977966,43.3648987,6,Herkimer,Lake,Centroid
W02020004002778,154800,0,0,0,0,0,324000,12600,8100,2700,4500,0,0,6300,2700,515700,1.037680798,1.026371922,87.6092,3811.727201,West Canada Creek,12,Mohawk River Basin,1203-0061,"Pine, Little Pine Lakes",Mohawk River,581.1305542,1203PIN0854,1203PIN0854_C,-74.6555023,43.4165993,5,Hamilton,Lake,Centroid
W02020004002863,1502100,18900,0,0,0,0,2974500,437400,905400,2700,33300,2700,0,1615500,256500,7749000,1.032382942,1.02610582,34.2353,3841.12811,West Canada Creek,12,Mohawk River Basin,1203-0046,Cranberry Lake,Mohawk River,7340.008301,,,0,0,0,,,
W02020004002715,112500,0,0,0,0,0,27900,85500,9000,0,2700,0,0,6300,10800,254700,1.045759494,1.025551629,236.056,5774.28509,West Canada Creek,12,Mohawk River Basin,1203-0078,West Lake,Mohawk River,1166.251953,1203WES0931,1203WES0931_C,-74.6358032,43.5978012,5,Hamilton,Lake,Centroid
W02020004002764,307800,0,0,0,0,0,706500,1098900,160200,0,26100,0,0,162900,17100,2479500,1.028963945,1.025368824,14.0901,1106.132912,West Canada Creek,12,Mohawk River Basin, , , ,1551.587891,1203CAS0885,1203CAS0885_C,-74.6965027,43.4695015,5,Hamilton,Lake,Centroid
W02020004002711,191700,0,0,0,0,0,7200,15300,43200,0,2700,0,0,900,0,261000,1.093896104,1.024934866,109.445,3964.769244,West Canada Creek,12,Mohawk River Basin,1203-0080,"Whitney Lake, Puddle Hole Pond",Mohawk River,664.4713745,1203WHI0936,1203WHI0936_C,-74.5635986,43.5887985,5,Hamilton,Lake,Centroid
W02020004002908,237600,0,0,0,0,0,162000,204300,144000,0,8100,0,0,34200,3600,793800,1.035097087,1.024593096,39.9097,2388.331637,Mohawk River Main Stem,12,Mohawk River Basin,1201-0009,"Green, Otter and Stewart Lakes",Mohawk River,822.7104492,1201OTT0729,1201OTT0729_C,-74.4989014,43.1884003,5,Fulton,Lake,Centroid
W02020004002798,30600,0,0,0,0,0,45000,3600,24300,0,1800,0,0,70200,8100,183600,1.028352941,1.023632898,13.5998,942.2483002,West Canada Creek,12,Mohawk River Basin,1203-0057,"Bochen, Debraine Lakes",Mohawk River,385.5715027,1203DEB0846,1203DEB0846_C,-74.7220001,43.3639984,5,Hamilton,Lake,Centroid
W02020005000899,165600,2700,0,0,0,0,597600,349200,1863000,0,5400,17100,0,225900,11700,3238200,1.024686585,1.023424433,49.9506,1808.903497,Schoharie Creek * (w/I NY watershed),12,Mohawk River Basin, , , ,2860.817627,1202CAP0649A,1202CAP0649A_C,-74.1070023,42.2378998,4,Greene,Lake,Centroid
W04140102001198,25200,0,0,0,0,0,186300,55800,55800,0,7200,0,0,354600,72900,757800,1.023685504,1.022899182,24.1412,1960.121009,Lake Ontario Eastern Section,3,Lake Ontario & Minor Tribs., , , ,720.1104736,0303UWB5135,0303UWB5135_C,-75.873703,43.5884018,7,Oswego,Lake,Centroid
W02020004002761,75600,0,0,0,0,0,425700,164700,21600,0,6300,0,0,14400,0,708300,1.023997155,1.021437244,15.4757,1383.058508,West Canada Creek,12,Mohawk River Basin, , , ,457.7999878,1203MIS0895,1203MIS0895_C,-74.6902008,43.4690018,5,Hamilton,Lake,Centroid
W02020004002803,85500,0,0,0,0,0,81900,17100,144900,0,4500,0,0,171900,10800,516600,1.025156576,1.020994967,25.5879,1756.152749,West Canada Creek,12,Mohawk River Basin,1203-0057,"Bochen, Debraine Lakes",Mohawk River,356.4567871,1203BOC0844,1203BOC0844_C,-74.7546997,43.3614006,5,Hamilton,Lake,Centroid
W02020004002721,71100,0,0,0,0,0,13500,81900,11700,0,1800,0,0,27000,0,207000,1.03192053,1.020961353,14.3522,1096.865302,West Canada Creek,12,Mohawk River Basin,1203-0073,Mica Lake,Mohawk River,146.6776581,1203MIC0921,1203MIC0921_C,-74.641098,43.5730019,5,Hamilton,Lake,Centroid
W02020004002909,242100,0,0,0,0,900,1545300,249300,593100,0,26100,0,0,582300,84600,3323700,1.02254965,1.020907422,32.1034,1810.704933,Mohawk River Main Stem,12,Mohawk River Basin,1201-0173,Lake Tribs to Fire Flow,Mohawk River,3855.729492,1201BEL0734,1201BEL0734_C,-74.4613037,43.1804008,5,Fulton,Lake,Centroid
W02020004002919,365400,0,0,0,0,900,1945800,325800,718200,0,33300,0,0,645300,182700,4217400,1.022544393,1.02059136,139.766,4538.804159,Mohawk River Main Stem,12,Mohawk River Basin,1201-0230,Irving Pond,Mohawk River,5060.660156,1201IRV0732,1201IRV0732_C,-74.4707031,43.1660004,5,Fulton,Lake,Centroid
W02020004002944,45000,0,0,0,0,0,4500,18000,27900,0,900,0,0,9000,900,106200,1.035441176,1.020433145,12.0223,862.7442104,Mohawk River Main Stem,12,Mohawk River Basin, , , ,86.4550323,1201MUD0712,1201MUD0712_C,-74.5886993,43.1273994,5,Fulton,Lake,Centroid
W02020005000892,89100,2700,0,0,0,0,484200,78300,241200,0,900,0,0,28800,0,925200,1.021711518,1.019621703,22.3298,1215.033701,Schoharie Creek * (w/I NY watershed),12,Mohawk River Basin,1202-0060,Lake Heloise,Mohawk River,871.2061157,1202HEL0647A,1202HEL0647A_C,-74.2141037,42.3432999,4,Greene,Lake,Centroid
W02020004002794,406800,0,0,0,0,0,585900,83700,505800,0,15300,0,0,258300,58500,1914300,1.024459701,1.019262394,103.171,3639.150953,Mohawk River Main Stem,12,Mohawk River Basin,1201-0080,Morehouse Lake,Mohawk River,2307.805664,1201MOR0786,1201MOR0786_C,-74.6788025,43.3632011,5,Hamilton,Lake,Centroid
W02020004002745,90900,0,0,0,0,0,592200,188100,11700,0,8100,0,0,129600,1800,1022400,1.020956522,1.019094288,7.453632652,829.9107891,West Canada Creek,12,Mohawk River Basin,1203-0001,"Buck Ponds, White Birch Lake",Mohawk River,1200.036255,1203BUC0866,1203BUC0866_C,-74.5911026,43.4808998,5,Hamilton,Lake,Centroid
W02020004002853,1381500,2700,0,0,0,0,1651500,360000,702900,2700,29700,2700,0,829800,157500,5121000,1.026129964,1.019081039,373.126,8453.270998,West Canada Creek,12,Mohawk River Basin,1203-0048,Jerseyfield Lake,Mohawk River,4520.245117,1203JER0817,1203JER0817_C,-74.7612,43.3023987,6,Herkimer,Lake,Centroid
W02020005000833,8100,0,0,0,0,0,80100,32400,94500,0,1800,0,0,13500,0,230400,1.01951417,1.018832465,7.927211979,971.8214623,Schoharie Creek *,12,Mohawk River Basin, , , ,240.9323883,,,0,0,0,,,
W02020004002913,399600,0,0,0,0,0,394200,69300,140400,0,8100,0,0,29700,900,1042200,1.030378151,1.018731529,126.611,7299.545748,Mohawk River Main Stem,12,Mohawk River Basin,1201-0160,Klondike Reservoir,Mohawk River,692.9025269,1201KLO0708,1201KLO0708_C,-74.7871017,43.2328987,6,Herkimer,Lake,Centroid
W02020004002718,176400,0,0,0,0,0,6300,16200,15300,0,1800,0,0,24300,0,240300,1.067887324,1.018056596,63.8521,2645.864413,West Canada Creek,12,Mohawk River Basin,1203-0075,"Sampson Bog, Sampson Lake, Bullhead Pond",Mohawk River,379.7966919,1203SAM0926,1203SAM0926_C,-74.5764008,43.5788994,5,Hamilton,Lake,Centroid
W02020004002750,99900,0,0,0,0,0,223200,558000,8100,0,7200,0,0,67500,3600,967500,1.02,1.017935917,12.3821,1189.57667,West Canada Creek,12,Mohawk River Basin, , , ,598.2463989,1203ALE0891,1203ALE0891_C,-74.6763992,43.4819984,5,Hamilton,Lake,Centroid
W02020004002799,99000,0,0,0,0,0,333000,30600,0,0,3600,0,0,15300,5400,486900,1.022366589,1.017820908,28.3208,1907.369098,West Canada Creek,12,Mohawk River Basin,1203-0055,Swan Lake,Mohawk River,581.7919312,1203SWA0839,1203SWA0839_C,-74.8881989,43.3875008,6,Herkimer,Lake,Centroid
W02020004002821,355500,0,0,0,0,0,1265400,947700,1195200,0,36900,0,0,1141200,279900,5221800,1.018274459,1.017030526,45.8627,2465.577732,Mohawk River Main Stem,12,Mohawk River Basin,1201-0002,"Big Alderbed, Blind Mans Vly",Mohawk River,5503.587402,1201BIG0790,1201BIG0790_C,-74.705101,43.3252983,5,Hamilton,Lake,Centroid
W02020004002725,309600,0,0,0,0,0,225000,392400,137700,0,9000,0,0,245700,1800,1321200,1.021441281,1.016417651,22.0082,1402.420877,West Canada Creek,12,Mohawk River Basin,1203-0074,"Caswell, Deer, Otter, Goose Lakes",Mohawk River,1309.583374,1203OTT0912,1203OTT0912_C,-74.7397003,43.5588989,5,Hamilton,Lake,Centroid
W02020004002769,27900,0,0,0,0,0,67500,22500,13500,0,900,0,0,0,0,132300,1.020775862,1.016402116,16.3406,1515.656785,West Canada Creek,12,Mohawk River Basin,1203-0005,"Twin Lake, South",Mohawk River,154.0124664,1203STW0856,1203STW0856_C,-74.5929031,43.4449005,5,Hamilton,Lake,Centroid
W02020004002716,1317600,0,0,0,0,0,516600,3074400,468900,7200,47700,0,0,1925100,261900,7619400,1.019407312,1.016051395,230.86,9903.101981,West Canada Creek,12,Mohawk River Basin,1203-0077,South Lake,Mohawk River,11243.74023,1203MUD0929,1203MUD0929_C,-74.6106033,43.5936012,5,Hamilton,Lake,Centroid
W02020004002895,225000,0,0,0,0,0,67500,62100,45000,0,3600,0,0,142200,1800,547200,1.026927374,1.015857091,55.5921,2383.478724,Mohawk River Main Stem,12,Mohawk River Basin,1201-0185,"Third, Fourth, Broomstick (Goose Egg) Lk",Mohawk River,902.0344849,1201THI0764,1201THI0764_C,-74.5664978,43.2226982,5,Fulton,Lake,Centroid
W02020004002768,5867100,24300,0,0,0,0,16418700,18549900,6185700,28800,321300,1800,0,11630700,1152900,60181200,1.017536827,1.015827169,41.6175,6409.42461,West Canada Creek,12,Mohawk River Basin, , , ,69576.58594,,,0,0,0,,,
W02020004002771,5900400,24300,0,0,0,0,16602300,18556200,6185700,28800,322200,1800,0,11669400,1152900,60444000,1.017502805,1.015794239,14.0859,1992.609373,West Canada Creek,12,Mohawk River Basin, , , ,70091.24219,,,0,0,0,,,
W04130001001276,185400,0,0,0,0,0,0,0,0,0,0,1800,0,30600,95400,313200,1.038591549,1.015750319,87.634,3495.045319,Lake Ontario Western Section,3,Lake Ontario & Minor Tribs.,0301-0042,Upper Stafford Marsh,Lake Ontario,291.1853027,0301GOO0167O,0301GOO0167O_C,-78.2768021,43.1186981,8,Genesee,Lake,Centroid
W02020004002793,75600,0,0,0,0,0,28800,6300,19800,0,900,0,0,7200,0,138600,1.034428571,1.015656566,19.6844,1174.519406,West Canada Creek,12,Mohawk River Basin,1203-0060,"Alder Brook, Indigo, Jones Lakes",Mohawk River,388.0187378,1203ALD0853,1203ALD0853_C,-74.6559982,43.3641014,5,Hamilton,Lake,Centroid
W02020004002899,298800,0,0,0,0,0,309600,244800,100800,0,7200,0,0,234000,2700,1197900,1.019299299,1.014486184,18.4663,1425.642597,Mohawk River Main Stem,12,Mohawk River Basin,1201-0184,"Waters Millpond, Long Lake",Mohawk River,1956.948853,1201LON0763,1201LON0763_C,-74.5895004,43.2186012,5,Fulton,Lake,Centroid
W02020004002813,64800,0,0,0,0,0,33300,18000,16200,0,900,0,0,17100,900,151200,1.025104167,1.014351852,7.16644147,863.0317306,West Canada Creek,12,Mohawk River Basin, , , ,290.6779175,1203SPE0841,1203SPE0841_C,-74.9017029,43.3675995,6,Herkimer,Lake,Centroid
W02020004002779,243900,0,0,0,0,0,33300,18000,2700,0,1800,0,0,2700,0,302400,1.074153846,1.014348545,96.3823,3839.094158,West Canada Creek,12,Mohawk River Basin,1203-0063,Wilmurt Lake,Mohawk River,642.9064941,1203WIL0850,1203WIL0850_C,-74.7248001,43.4310989,5,Hamilton,Lake,Centroid
W02020004002887,71100,0,0,0,0,0,19800,37800,16200,0,900,0,0,8100,0,153900,1.026195652,1.014100065,14.4793,1330.631468,Mohawk River Main Stem,12,Mohawk River Basin,1201-0007,"Knapps Long Lake, Long Pond",Mohawk River,106.6757889,1201LON0755,1201LON0755_C,-74.6123962,43.2397995,5,Fulton,Lake,Centroid
W02020004002841,71100,0,0,0,0,0,54000,114300,24300,0,2700,0,0,192600,34200,493200,1.015415778,1.013195458,12.856,1006.892201,West Canada Creek,12,Mohawk River Basin,1203-0002,Lakes tributary to Jerseyfield Lake,Mohawk River,577.3509521,1203COL0819,1203COL0819_C,-74.7825012,43.3176003,5,Hamilton,Lake,Centroid
W02020004002901,319500,0,0,0,0,0,471600,261900,108000,0,8100,0,0,345600,21600,1536300,1.016042899,1.012707154,7.473944249,886.0593718,Mohawk River Main Stem,12,Mohawk River Basin, , , ,2298.062256,1201UWB0762A,1201UWB0762A_C,-74.5996017,43.2200012,5,Fulton,Lake,Centroid
W02020004002730,137700,0,0,0,0,0,11700,29700,0,0,900,0,0,0,0,180000,1.051276596,1.012055556,47.5511,1901.71936,West Canada Creek,12,Mohawk River Basin,1203-0066,Jones Lake,Mohawk River,326.0115051,1203JON0875,1203JON0875_C,-74.7770996,43.549099,5,Hamilton,Lake,Centroid
W02020004002900,368100,0,0,0,0,0,486000,281700,110700,0,8100,0,0,375300,26100,1656000,1.015157233,1.011788647,20.595,1254.907367,Mohawk River Main Stem,12,Mohawk River Basin,1201-0184,"Waters Millpond, Long Lake",Mohawk River,2454.064941,1201WAT0762,1201WAT0762_C,-74.6041031,43.2228012,5,Fulton,Lake,Centroid
W02020004002801,64800,0,0,0,0,0,66600,26100,4500,0,900,0,0,19800,1800,184500,1.018120301,1.011761518,15.8601,1552.560807,Mohawk River Main Stem,12,Mohawk River Basin,1201-0189,Christian Lake,Mohawk River,389.7940063,1201CHR0784,1201CHR0784_C,-74.6345978,43.3455009,5,Hamilton,Lake,Centroid
W02020004002748,49500,0,0,0,0,0,125100,363600,8100,0,2700,0,0,29700,1800,580500,1.012254237,1.011211025,8.464905352,778.5389142,West Canada Creek,12,Mohawk River Basin, , , ,402.6863403,1203BEE0892,1203BEE0892_C,-74.6667023,43.4817009,5,Hamilton,Lake,Centroid
W02020004002878,33300,0,0,0,0,0,166500,68400,64800,0,1800,0,0,62100,900,397800,1.011901235,1.010907491,18.5277,1771.490656,Mohawk River Main Stem,12,Mohawk River Basin,1201-0186,House Pond,Mohawk River,372.2366638,1201HOU0770,1201HOU0770_C,-74.6660995,43.2603989,5,Fulton,Lake,Centroid
W02020004002732,2888100,0,0,0,0,0,5107500,8930700,1730700,24300,108900,0,0,6893100,725400,26408700,1.012212061,1.010876567,84.9605,6303.600057,West Canada Creek,12,Mohawk River Basin, , , ,29785.74609,,,0,0,0,,,
W02020004002914,165600,0,0,0,0,0,27900,6300,17100,0,900,0,0,900,0,218700,1.040847458,1.009922268,74.1411,2689.095873,Mohawk River Main Stem,12,Mohawk River Basin,1201-0176,Ayers Lake,Mohawk River,439.798645,1201AYE0746,1201AYE0746_C,-74.6067963,43.2033997,5,Fulton,Lake,Centroid
W02020004002728,2278800,0,0,0,0,0,2997000,7896600,1376100,15300,80100,0,0,6120000,619200,21383100,1.010921468,1.009757612,36.0293,3520.001535,West Canada Creek,12,Mohawk River Basin, , , ,25011.33008,,,0,0,0,,,
W02020004002896,956700,0,0,0,0,0,2988900,1900800,1446300,4500,36900,0,0,2276100,176400,9786600,1.010591173,1.009555923,12.0603,1221.320847,Mohawk River Main Stem,12,Mohawk River Basin,1201-0182,Knapp Reservoir,Mohawk River,11478.81836,,,0,0,0,,,
W02020004002777,172800,0,0,0,0,0,322200,81000,54000,1800,1800,0,0,18000,900,652500,1.012870544,1.009463602,85.7271,3585.500559,West Canada Creek,12,Mohawk River Basin,1203-0062,G Lake,Mohawk River,1045.139526,1203GLA0859,1203GLA0859_C,-74.6340027,43.4145012,5,Hamilton,Lake,Centroid
W04140101000860,205200,0,0,0,0,0,0,0,0,0,900,0,0,53100,0,259200,1.040166667,1.008371914,113.262,2761.592152,Lake Ontario Central Section,3,Lake Ontario & Minor Tribs.,0302-0048,Mud Pond,Lake Ontario,191.8581543,0302SIL0065,0302SIL0065_C,-76.5495987,43.3781013,7,Oswego,Lake,Centroid
W02020004002818,43200,0,0,0,0,0,847800,159300,746100,900,6300,0,0,477000,2700,2283300,1.007187626,1.007052074,10.2834,1158.281409,West Canada Creek,12,Mohawk River Basin,1203-0039,Finches Pond,Mohawk River,1790.457886,1203FIN0808A,1203FIN0808A_C,-74.9897995,43.3750992,6,Herkimer,Lake,Centroid
W02020004002849,42300,0,0,0,0,0,113400,1800,40500,0,900,0,0,69300,40500,308700,1.008141892,1.007029478,12.2342,1012.378681,West Canada Creek,12,Mohawk River Basin,1203-0002,Lakes tributary to Jerseyfield Lake,Mohawk River,325.3483582,1203MET0821,1203MET0821_C,-74.7198029,43.2994995,5,Hamilton,Lake,Centroid
W02020004002898,135900,0,0,0,0,0,54900,27000,15300,0,900,0,0,98100,0,332100,1.011055046,1.006534176,50.0164,2271.558701,Mohawk River Main Stem,12,Mohawk River Basin,1201-0185,"Third, Fourth, Broomstick (Goose Egg) Lk",Mohawk River,644.696167,1201FOU0765,1201FOU0765_C,-74.5662994,43.2158012,5,Fulton,Lake,Centroid
W02020004002859,80100,0,0,0,0,0,506700,15300,66600,0,1800,0,0,213300,11700,895500,1.005320088,1.004845338,8.219854328,896.9718168,West Canada Creek,12,Mohawk River Basin, , , ,1243.568359,,,0,0,0,,,
W02020004002719,334800,0,0,0,0,0,36000,373500,104400,0,2700,0,0,1107900,95400,2054700,1.003783359,1.003167372,28.3825,2152.406832,West Canada Creek,12,Mohawk River Basin,1203-0075,"Sampson Bog, Sampson Lake, Bullhead Pond",Mohawk River,2313.625,1203SAM0925,1203SAM0925_C,-74.5905991,43.5689011,5,Hamilton,Lake,Centroid
W02020004002823,306900,0,0,0,0,0,359100,62100,99000,0,900,0,0,247500,9000,1084500,1.002789352,1.002000922,122.938,4586.845063,Mohawk River Main Stem,12,Mohawk River Basin,1201-0003,Ferris Lake,Mohawk River,1439.159668,1201FER0777,1201FER0777_C,-74.6311035,43.3069992,5,Hamilton,Lake,Centroid
W02020005006129,15300,0,0,0,0,0,6300,1800,10800,0,0,0,0,0,0,34200,1,1.00002924,8.024861408,699.669495,Schoharie Creek * (w/I NY watershed),12,Mohawk River Basin, , , ,68.907608,1202UWB6395,1202UWB6395_C,-74.0947037,42.1323013,4,Greene,Lake,Centroid
W02020004002746,0,0,0,0,0,0,37800,0,0,0,0,0,0,4500,0,42300,1,1.000023641,9.072835681,832.9421326,West Canada Creek,12,Mohawk River Basin,1203-0001,"Buck Ponds, White Birch Lake",Mohawk River,63.3412857,1203BUC0867,1203BUC0867_C,-74.6054001,43.4786987,5,Hamilton,Lake,Centroid
W04140101000873,33300,0,0,0,0,0,0,0,0,0,0,0,0,7200,22500,63000,1,1.000015873,7.426963176,796.6330965,Lake Ontario Central Section,3,Lake Ontario & Minor Tribs., , , ,29.5742664,0302UWB0078,0302UWB0078_C,-76.7621002,43.3212013,8,Wayne,Lake,Centroid
W02020004002829,9000,0,0,0,0,0,34200,7200,0,0,0,0,0,21600,5400,77400,1,1.00001292,7.184708688,763.9444238,Mohawk River Main Stem,12,Mohawk River Basin, , , ,94.2293015,,,0,0,0,,,
W02020004002736,43200,0,0,0,0,0,18900,18900,0,0,0,0,0,0,0,81000,1,1.000012346,11.6571,933.8388327,West Canada Creek,12,Mohawk River Basin,1203-0084,"Split Rock, Amos Lakes, Belden Vly",Mohawk River,108.4531784,1203AMO0907,1203AMO0907_C,-74.6183014,43.5024986,5,Hamilton,Lake,Centroid
W02020004002717,23400,0,0,0,0,0,3600,17100,3600,0,0,0,0,34200,0,81900,1,1.00001221,6.760582583,661.2816849,West Canada Creek,12,Mohawk River Basin,1203-0075,"Sampson Bog, Sampson Lake, Bullhead Pond",Mohawk River,56.2297592,1203BUL0927,1203BUL0927_C,-74.5434036,43.5768013,5,Hamilton,Lake,Centroid
W04140102001222,43200,0,0,0,0,0,0,0,0,0,0,0,0,36000,8100,87300,1,1.000011455,16.7277,1046.4339,Lake Ontario Eastern Section,3,Lake Ontario & Minor Tribs., , , ,263.6085205,0303UWB0009,0303UWB0009_C,-76.0266037,43.5453987,7,Oswego,Lake,Centroid
W04130001001233,55800,0,0,0,0,0,0,0,0,0,0,0,0,10800,25200,91800,1,1.000010893,16.0152,1060.504753,Lake Ontario Western Section,3,Lake Ontario & Minor Tribs., , , ,227.3968658,0301UWB5461,0301UWB5461_C,-77.7559967,43.294899,8,Monroe,Lake,Centroid
W02020004002816,44100,0,0,0,0,0,1800,25200,6300,0,0,0,0,9900,5400,92700,1,1.000010787,8.548139033,825.3009661,Mohawk River Main Stem,12,Mohawk River Basin,1201-0002,"Big Alderbed, Blind Mans Vly",Mohawk River,346.6808167,1201BLI0790A,1201BLI0790A_C,-74.7009964,43.3312988,5,Hamilton,Lake,Centroid
W02020004002815,60300,0,0,0,0,0,5400,18000,0,0,0,0,0,16200,900,100800,1,1.000009921,39.0262,2229.994726,West Canada Creek,12,Mohawk River Basin,1203-0054,"Spectacle, Butler, Atwood Lakes",Mohawk River,345.7909241,1203BUT0836,1203BUT0836_C,-74.9113998,43.3666992,6,Herkimer,Lake,Centroid
W02020004002943,67500,0,0,0,0,0,8100,19800,2700,0,0,0,0,2700,0,100800,1,1.000009921,18.5611,1154.923385,Mohawk River Main Stem,12,Mohawk River Basin, , , ,368.0285645,1201UWB0692A,1201UWB0692A_C,-74.4809036,43.1150017,5,Fulton,Lake,Centroid
W04140102001268,55800,0,0,0,0,0,12600,0,0,0,0,0,0,31500,900,100800,1,1.000009921,22.9762,1147.852559,Lake Ontario Eastern Section,3,Lake Ontario & Minor Tribs.,0303-0097,Hotel Pond,Lake Ontario,584.9868774,0303HOT0058,0303HOT0058_C,-75.9449997,43.3725014,7,Oswego,Lake,Centroid
W04120104001237,5400,0,0,0,0,0,3600,0,0,0,0,0,0,11700,87300,108000,1,1.000009259,20.3341,1819.402304,Tonawanda Creek,1,Lake Erie-Niagara River Basin, , , ,57.008934,,,0,0,0,,,
W02020004002877,88200,0,0,0,0,0,24300,1800,10800,0,0,0,0,3600,0,128700,1,1.00000777,26.5544,1641.926679,Mohawk River Main Stem,12,Mohawk River Basin,1201-0181,"Dexter, Spectacle and Dry Lakes",Mohawk River,294.6826477,1201DEX0759,1201DEX0759_C,-74.5990982,43.2471008,5,Fulton,Lake,Centroid
W04140102001246,55800,0,0,0,0,0,40500,12600,7200,0,0,0,0,12600,1800,130500,1,1.000007663,11.0747,1499.730276,Lake Ontario Eastern Section,3,Lake Ontario & Minor Tribs., , , ,372.5076904,0303UWB0016,0303UWB0016_C,-75.9599991,43.4861984,7,Oswego,Lake,Centroid
W02020004002882,14400,0,0,0,0,0,16200,5400,7200,0,0,0,0,63000,43200,149400,1,1.000006693,9.77596344,1471.756898,West Canada Creek,12,Mohawk River Basin, , , ,199.5650482,,,0,0,0,,,
W02020004002927,73800,0,0,0,0,0,30600,24300,23400,0,0,0,0,0,900,153000,1,1.000006536,33.6397,1710.356399,Mohawk River Main Stem,12,Mohawk River Basin,1201-0140,Woodworth Lake,Mohawk River,410.4832764,1201WOO0690,1201WOO0690_C,-74.3361969,43.1197014,5,Fulton,Lake,Centroid
W04120102000679,49500,0,0,0,0,0,63000,900,41400,0,0,0,0,0,0,154800,1,1.00000646,11.412,999.2288596,"Eastern Lake Erie (Big Sister, 18 Mile Creeks)",1,Lake Erie-Niagara River Basin, , , ,102.6649017,,,0,0,0,,,
W04140101000876,74700,0,0,0,0,0,27000,900,7200,0,0,0,0,16200,36000,162000,1,1.000006173,15.5454,1411.941118,Lake Ontario Central Section,3,Lake Ontario & Minor Tribs., , , ,65.3713684,0302UWB0080,0302UWB0080_C,-76.7844009,43.3097,8,Wayne,Lake,Centroid
W02020004002785,124200,0,0,0,0,0,0,2700,0,0,0,0,0,33300,4500,164700,1,1.000006072,45.1471,1816.669212,West Canada Creek,12,Mohawk River Basin,1203-0058,Mill Creek Lake,Mohawk River,233.5648499,1203MIL0849,1203MIL0849_C,-74.8900986,43.417099,6,Herkimer,Lake,Centroid
W02020004002965,1800,0,0,0,0,0,9000,1800,23400,0,0,0,0,91800,44100,171900,1,1.000005817,20.1475,1558.220618,Mohawk River Main Stem,12,Mohawk River Basin, , , ,579.5792847,,,0,0,0,,,
W02020004002925,16200,0,0,0,0,0,9900,29700,5400,0,0,0,0,97200,37800,196200,1,1.000005097,30.6066,2369.153759,Mohawk River Main Stem,12,Mohawk River Basin, , , ,503.591156,1201UWB5280,1201UWB5280_C,-74.4357986,43.1526985,5,Fulton,Lake,Centroid
W04140102001195,45000,0,0,0,0,0,20700,4500,0,0,0,0,0,156600,16200,243000,1,1.000004115,26.8532,2480.457402,Lake Ontario Eastern Section,3,Lake Ontario & Minor Tribs., , , ,316.2737122,0303UWB5136,0303UWB5136_C,-75.8744965,43.5978012,7,Oswego,Lake,Centroid
W02020004002722,29700,0,0,0,0,0,900,79200,3600,0,0,0,0,138600,8100,260100,1,1.000003845,21.3077,1884.117529,West Canada Creek,12,Mohawk River Basin,1203-0003,"Beaver Pond, Poor Lake",Mohawk River,293.1230469,1203POO0919,1203POO0919_C,-74.7031021,43.5648994,5,Hamilton,Lake,Centroid
W02020005000907,32400,0,0,0,0,0,171000,7200,57600,0,0,0,0,3600,0,271800,1,1.000003679,10.4098,983.8984818,Schoharie Creek * (w/I NY watershed),12,Mohawk River Basin, , , ,307.1532898,1202TAN0655D,1202TAN0655D_C,-74.1596985,42.2112999,4,Greene,Lake,Centroid
W04140102005425,0,0,0,0,0,0,122400,40500,36900,0,0,0,0,111600,5400,316800,1,1.000003157,7.096723284,902.2986372,Lake Ontario Eastern Section,3,Lake Ontario & Minor Tribs., , , ,988.2993774,,,0,0,0,,,
W02020004002822,14400,0,0,0,0,0,28800,55800,51300,0,0,0,0,196200,26100,372600,1,1.000002684,8.708827647,1015.480301,West Canada Creek,12,Mohawk River Basin, , , ,423.1231689,,,0,0,0,,,
W02020004002809,41400,0,0,0,0,0,253800,16200,75600,0,0,0,0,87300,1800,476100,1,1.0000021,15.0042,1159.438246,Mohawk River Main Stem,12,Mohawk River Basin, , , ,518.9118652,1201FER0778,1201FER0778_C,-74.6227036,43.3260002,5,Hamilton,Lake,Centroid
W04140102001186,9900,0,0,0,0,0,424800,32400,0,0,0,0,0,248400,18900,734400,1,1.000001362,9.852198007,1278.823837,Lake Ontario Eastern Section,3,Lake Ontario & Minor Tribs., , , ,980.5714722,0303UWB5065,0303UWB5065_C,-75.8647995,43.6619987,7,Oswego,Lake,Centroid
W02020004002837,0,0,0,0,0,0,354600,107100,123300,0,0,0,0,178200,42300,805500,1,1.000001241,7.053764496,943.8291164,West Canada Creek,12,Mohawk River Basin, , , ,1249.567993,,,0,0,0,,,
W04140102001178,1800,0,0,0,0,0,540900,0,14400,0,0,0,0,218700,55800,831600,1,1.000001203,15.8784,1989.39522,Lake Ontario Eastern Section,3,Lake Ontario & Minor Tribs., , , ,575.4024658,0303UWB5061,0303UWB5061_C,-75.7801971,43.6786995,7,Oswego,Lake,Centroid
W02020004002947,183600,0,0,0,0,0,326700,288900,93600,0,0,0,0,63900,7200,963900,1,1.000001037,56.6403,2893.195815,Mohawk River Main Stem,12,Mohawk River Basin,1201-0164,Hillabrandt Vly,Mohawk River,1294.048706,1201HIL0713,1201HIL0713_C,-74.5529022,43.1166992,5,Fulton,Lake,Centroid
